{"type":"FeatureCollection","features":[{"type":"Feature","id":1077,"geometry":{"type":"Polygon","coordinates":[[[-96.5385,39.0627],[-96.5385,39.1586],[-96.5461,39.1697],[-96.5538,39.1807],[-96.5615,39.1918],[-96.5692,39.2029],[-96.5768,39.214],[-96.5845,39.2251],[-96.5922,39.2362],[-96.5999,39.2473],[-96.6162,39.2485],[-96.6325,39.2497],[-96.6488,39.2509],[-96.6651,39.2521],[-96.6877,39.2635],[-96.7104,39.275],[-96.733,39.2864],[-96.7556,39.2978],[-96.7544,39.3958],[-96.7533,39.4938],[-96.7522,39.5918],[-96.751,39.6899],[-96.7253,39.6882],[-96.6996,39.6865],[-96.6739,39.6848],[-96.6482,39.6831],[-96.6469,39.7626],[-96.6456,39.8422],[-96.6667,39.8422],[-96.6637,39.882],[-96.6608,39.9218],[-96.6578,39.9615],[-96.6548,40.0013],[-96.6548,40.0013],[-96.6573,40.0013],[-96.6575,40.0013],[-96.6801,40.0014],[-96.6838,40.0013],[-96.7138,40.0015],[-96.7168,40.0015],[-96.7194,40.0015],[-96.7215,40.0015],[-96.7266,40.0015],[-96.7274,40.0015],[-96.728,40.0015],[-96.7297,40.0014],[-96.7436,40.0014],[-96.7475,40.0014],[-96.7675,40.0015],[-96.7875,40.0015],[-96.7888,40.0015],[-96.7948,40.0015],[-96.7986,40.0014],[-96.8027,40.0015],[-96.8042,40.0015],[-96.8331,40.0015],[-96.8619,40.0015],[-96.8623,40.0015],[-96.8923,40.0015],[-96.9222,40.0015],[-96.9231,40.0015],[-96.9344,40.0015],[-96.9346,40.0015],[-96.9514,40.0015],[-96.9682,40.0015],[-96.9687,40.0015],[-96.9723,40.0015],[-96.9739,40.0015],[-96.9918,40.0015],[-97.0097,40.0015],[-97.0131,40.0014],[-97.0304,40.0014],[-97.0335,40.0015],[-97.0489,40.0015],[-97.0643,40.0014],[-97.0879,40.0016],[-97.1131,40.0017],[-97.1382,40.0018],[-97.1382,40.0018],[-97.1384,40.0017],[-97.1385,40.0017],[-97.1598,40.0015],[-97.1635,40.0015],[-97.1645,40.0015],[-97.1819,40.0016],[-97.1819,40.0017],[-97.182,40.0017],[-97.182,40.0017],[-97.2017,40.0018],[-97.2214,40.0019],[-97.241,40.0019],[-97.2607,40.002],[-97.2608,40.002],[-97.2612,40.002],[-97.2677,40.002],[-97.2816,40.002],[-97.2872,40.002],[-97.2919,40.002],[-97.2932,40.002],[-97.3136,40.002],[-97.3137,40.002],[-97.3389,40.002],[-97.3418,40.002],[-97.342,40.002],[-97.3458,40.002],[-97.3721,40.002],[-97.3984,40.002],[-97.4074,40.002],[-97.4353,40.002],[-97.4631,40.002],[-97.4633,40.002],[-97.4845,40.002],[-97.5058,40.002],[-97.5058,40.002],[-97.5159,40.002],[-97.5182,40.002],[-97.5294,40.002],[-97.5319,40.002],[-97.5373,40.002],[-97.5375,40.002],[-97.5433,40.002],[-97.5484,40.002],[-97.55,40.002],[-97.5526,40.002],[-97.5533,40.002],[-97.5659,40.002],[-97.5734,40.0021],[-97.5754,40.0021],[-97.5803,40.0021],[-97.5926,40.0021],[-97.5926,40.0021],[-97.6117,40.0021],[-97.6121,40.0021],[-97.6121,40.0021],[-97.6135,39.9328],[-97.615,39.8636],[-97.6242,39.848],[-97.6335,39.8325],[-97.6428,39.8169],[-97.652,39.8014],[-97.6562,39.7642],[-97.6604,39.727],[-97.6585,39.6174],[-97.6566,39.5079],[-97.6668,39.4838],[-97.668,39.3047],[-97.6692,39.1256],[-97.6618,39.0959],[-97.6544,39.0662],[-97.647,39.0365],[-97.6396,39.0068],[-97.6425,38.9407],[-97.6454,38.8745],[-97.6384,38.855],[-97.6314,38.8354],[-97.6244,38.8158],[-97.6175,38.7963],[-97.6196,38.7534],[-97.6218,38.7106],[-97.5977,38.7106],[-97.5736,38.7107],[-97.5495,38.7107],[-97.5253,38.7107],[-97.5012,38.7108],[-97.4771,38.7108],[-97.4529,38.7108],[-97.4288,38.7108],[-97.4141,38.6963],[-97.3994,38.6818],[-97.3794,38.6818],[-97.3594,38.6818],[-97.3395,38.6819],[-97.3195,38.6819],[-97.2995,38.6819],[-97.2795,38.6819],[-97.2595,38.6819],[-97.2395,38.6819],[-97.2195,38.6819],[-97.1996,38.6819],[-97.1796,38.6819],[-97.1596,38.6819],[-97.1396,38.6819],[-97.1196,38.6818],[-97.0996,38.6818],[-97.0796,38.6818],[-97.0771,38.6961],[-97.0587,38.6961],[-97.0403,38.6961],[-97.022,38.6961],[-97.0036,38.6961],[-96.9852,38.6961],[-96.9668,38.6961],[-96.9485,38.6961],[-96.9301,38.6961],[-96.9264,38.7463],[-96.9227,38.7965],[-96.9053,38.808],[-96.8879,38.8194],[-96.8704,38.8309],[-96.853,38.8423],[-96.855,38.9165],[-96.8569,38.9907],[-96.8422,38.9994],[-96.8273,39.0081],[-96.8125,39.0168],[-96.7977,39.0255],[-96.7829,39.0342],[-96.7681,39.0429],[-96.7533,39.0516],[-96.7385,39.0602],[-96.7135,39.0606],[-96.6885,39.0609],[-96.6635,39.0612],[-96.6385,39.0615],[-96.6135,39.0618],[-96.5885,39.0621],[-96.5635,39.0624],[-96.5385,39.0627]]]},"properties":{"OBJECTID":1077,"state":"Kansas","agency":"Kansas Department of Wildlife and Parks","unit_type":"DMU","unit_id":"8","unit_name":"UNIT 8","unit_label":"Kansas DMU  - UNIT 8","aliases":"2025 | 8 | 8 unit 8 | dmu | dmu 8 | dmu 8 unit 8 | kansas | kansas 8 | kansas 8 unit 8 | kansas department of wildlife and parks | kansas department of wildlife and parks 8 | kansas dmu 8 | kansas dmu 8 unit 8 | kansas dmu unit 8 | unit 8","year":"2025","Shape_Length":482593.37869696505,"Shape_Area":11479261365.024603}},{"type":"Feature","id":1078,"geometry":{"type":"Polygon","coordinates":[[[-102.0338,36.9931],[-102.0165,36.9932],[-101.9993,36.9934],[-101.982,36.9936],[-101.9648,36.9937],[-101.9475,36.9939],[-101.9303,36.994],[-101.913,36.9942],[-101.8958,36.9943],[-101.8785,36.9944],[-101.8612,36.9946],[-101.844,36.9947],[-101.8267,36.9949],[-101.8095,36.995],[-101.7922,36.9951],[-101.775,36.9953],[-101.7577,36.9954],[-101.7405,36.9955],[-101.7232,36.9956],[-101.7059,36.9957],[-101.6887,36.9959],[-101.6714,36.996],[-101.6542,36.9961],[-101.6369,36.9962],[-101.6197,36.9963],[-101.6024,36.9964],[-101.5851,36.9965],[-101.5679,36.9966],[-101.5506,36.9967],[-101.5334,36.9968],[-101.5161,36.9969],[-101.4989,36.997],[-101.4816,36.997],[-101.4643,36.9971],[-101.4471,36.9972],[-101.4298,36.9973],[-101.4126,36.9974],[-101.3953,36.9974],[-101.3781,36.9975],[-101.3608,36.9976],[-101.3436,36.9976],[-101.3263,36.9977],[-101.309,36.9978],[-101.2918,36.9978],[-101.2745,36.9979],[-101.2573,36.9979],[-101.24,36.998],[-101.2228,36.998],[-101.2055,36.9981],[-101.1882,36.9981],[-101.171,36.9982],[-101.1537,36.9982],[-101.1365,36.9982],[-101.1192,36.9983],[-101.102,36.9983],[-101.0847,36.9983],[-101.0674,36.9984],[-101.0502,36.9984],[-101.0329,36.9984],[-101.0157,36.9984],[-100.9984,36.9984],[-100.9812,36.9985],[-100.9639,36.9985],[-100.9466,36.9985],[-100.9294,36.9985],[-100.9055,36.9986],[-100.8817,36.9987],[-100.881,36.9987],[-100.8735,36.9987],[-100.8455,36.9989],[-100.8176,36.9991],[-100.7896,36.9993],[-100.7616,36.9994],[-100.7337,36.9996],[-100.7057,36.9998],[-100.6777,36.9999],[-100.6498,37.0001],[-100.6218,37.0002],[-100.5938,37.0003],[-100.5659,37.0005],[-100.5379,37.0006],[-100.51,37.0007],[-100.482,37.0008],[-100.454,37.0009],[-100.4261,37.001],[-100.3981,37.0011],[-100.3701,37.0012],[-100.3422,37.0012],[-100.3142,37.0013],[-100.2862,37.0014],[-100.2583,37.0014],[-100.2303,37.0015],[-100.2023,37.0015],[-100.1744,37.0015],[-100.1464,37.0016],[-100.1184,37.0016],[-100.0905,37.0016],[-100.0625,37.0016],[-100.0345,37.0016],[-100.0066,37.0016],[-99.9786,37.0016],[-99.9806,37.0971],[-99.9825,37.1926],[-99.9912,37.2012],[-100.0,37.2098],[-100.001,37.3764],[-100.0081,37.4076],[-100.0152,37.4388],[-100.0152,37.6714],[-100.0206,37.687],[-100.0261,37.7026],[-100.0315,37.7182],[-100.037,37.7337],[-100.0532,37.7287],[-100.0693,37.7237],[-100.0855,37.7187],[-100.1016,37.7137],[-100.1178,37.7087],[-100.1339,37.7037],[-100.1501,37.6987],[-100.1662,37.6936],[-100.1844,37.6798],[-100.2026,37.6659],[-100.2254,37.6594],[-100.2481,37.6529],[-100.2709,37.6463],[-100.2936,37.6398],[-100.3164,37.6333],[-100.3391,37.6268],[-100.3619,37.6203],[-100.3846,37.6137],[-100.4073,37.6072],[-100.4301,37.6007],[-100.4528,37.5941],[-100.4755,37.5876],[-100.4982,37.581],[-100.5209,37.5745],[-100.5437,37.5679],[-100.5664,37.5613],[-100.5887,37.5614],[-100.6111,37.5615],[-100.6335,37.5616],[-100.6558,37.5616],[-100.6782,37.5617],[-100.7005,37.5618],[-100.7229,37.5618],[-100.7453,37.5619],[-100.7676,37.5619],[-100.79,37.5619],[-100.8124,37.562],[-100.8347,37.562],[-100.8571,37.562],[-100.8795,37.5621],[-100.9018,37.5621],[-100.9242,37.5621],[-100.9466,37.5621],[-100.9689,37.5621],[-100.9913,37.5621],[-101.0136,37.5621],[-101.036,37.5621],[-101.0584,37.5621],[-101.0807,37.5621],[-101.1031,37.5621],[-101.1255,37.5621],[-101.1478,37.562],[-101.1702,37.562],[-101.1926,37.562],[-101.2149,37.5619],[-101.2373,37.5619],[-101.2597,37.5619],[-101.282,37.5618],[-101.301,37.5655],[-101.32,37.5692],[-101.339,37.5729],[-101.358,37.5765],[-101.3832,37.5766],[-101.4084,37.5767],[-101.4335,37.5768],[-101.4587,37.5769],[-101.4839,37.577],[-101.509,37.577],[-101.5342,37.5771],[-101.5594,37.5772],[-101.5845,37.5772],[-101.6097,37.5773],[-101.6349,37.5773],[-101.66,37.5774],[-101.6852,37.5774],[-101.7104,37.5775],[-101.7355,37.5775],[-101.7607,37.5775],[-101.7647,37.5625],[-101.7821,37.5568],[-101.7994,37.551],[-101.8167,37.5452],[-101.8341,37.5394],[-101.8514,37.5336],[-101.8687,37.5278],[-101.886,37.522],[-101.9033,37.5162],[-101.9207,37.5104],[-101.938,37.5046],[-101.9553,37.4988],[-101.9726,37.493],[-101.9899,37.4872],[-102.0072,37.4814],[-102.0245,37.4756],[-102.0418,37.4698],[-102.0418,37.4698],[-102.0417,37.4552],[-102.0417,37.4419],[-102.0417,37.4348],[-102.0417,37.4273],[-102.0417,37.4099],[-102.0417,37.4095],[-102.0416,37.3873],[-102.0417,37.3675],[-102.0419,37.1493],[-102.0419,37.1415],[-102.0419,37.1336],[-102.042,37.1239],[-102.042,37.1068],[-102.042,37.0367],[-102.042,37.035],[-102.042,37.0348],[-102.042,37.032],[-102.042,37.0309],[-102.042,37.0304],[-102.0421,37.0188],[-102.0421,37.0185],[-102.0421,37.0181],[-102.0421,36.9951],[-102.0421,36.9933],[-102.0421,36.9931],[-102.0338,36.9931]]]},"properties":{"OBJECTID":1078,"state":"Kansas","agency":"Kansas Department of Wildlife and Parks","unit_type":"DMU","unit_id":"18","unit_name":"UNIT 18","unit_label":"Kansas DMU  - UNIT 18","aliases":"18 | 18 unit 18 | 2025 | dmu | dmu 18 | dmu 18 unit 18 | kansas | kansas 18 | kansas 18 unit 18 | kansas department of wildlife and parks | kansas department of wildlife and parks 18 | kansas dmu 18 | kansas dmu 18 unit 18 | kansas dmu unit 18 | unit 18","year":"2025","Shape_Length":501580.68818752794,"Shape_Area":11729355007.080381}},{"type":"Feature","id":1079,"geometry":{"type":"Polygon","coordinates":[[[-98.0455,36.9984],[-98.0417,37.0256],[-98.0379,37.0529],[-98.0388,37.1772],[-98.0398,37.3015],[-98.0466,37.3119],[-98.0535,37.3223],[-98.0604,37.3327],[-98.0673,37.3431],[-98.0708,37.3717],[-98.0744,37.4003],[-98.078,37.4288],[-98.0815,37.4574],[-98.102,37.4545],[-98.1225,37.4516],[-98.143,37.4486],[-98.1634,37.4457],[-98.1798,37.4455],[-98.1961,37.4453],[-98.2124,37.4451],[-98.2288,37.4449],[-98.2451,37.4447],[-98.2614,37.4444],[-98.2778,37.4442],[-98.2941,37.444],[-98.3104,37.4438],[-98.3268,37.4435],[-98.3431,37.4433],[-98.3594,37.4431],[-98.3758,37.4429],[-98.3921,37.4426],[-98.4084,37.4424],[-98.4248,37.4421],[-98.4309,37.4711],[-98.4464,37.4711],[-98.4618,37.4711],[-98.4773,37.4711],[-98.4927,37.471],[-98.5082,37.471],[-98.5236,37.471],[-98.5391,37.471],[-98.5545,37.4709],[-98.5603,37.4998],[-98.5757,37.4999],[-98.5912,37.4999],[-98.6066,37.5],[-98.6221,37.5],[-98.6375,37.5001],[-98.6529,37.5001],[-98.6684,37.5002],[-98.6838,37.5002],[-98.6977,37.5106],[-98.7116,37.5209],[-98.7255,37.5313],[-98.7394,37.5416],[-98.74,37.8213],[-98.7435,37.8886],[-98.747,37.9559],[-98.7631,37.956],[-98.7793,37.956],[-98.7954,37.9561],[-98.8116,37.9562],[-98.8278,37.9562],[-98.8439,37.9563],[-98.8601,37.9563],[-98.8762,37.9564],[-98.8924,37.9564],[-98.9085,37.9565],[-98.9247,37.9565],[-98.9408,37.9566],[-98.957,37.9566],[-98.9732,37.9567],[-98.9893,37.9567],[-99.0055,37.9567],[-99.0306,37.9531],[-99.0557,37.9494],[-99.0808,37.9457],[-99.1059,37.9421],[-99.1249,37.9406],[-99.1439,37.9392],[-99.1629,37.9378],[-99.1819,37.9363],[-99.2009,37.9349],[-99.2199,37.9334],[-99.2389,37.932],[-99.2579,37.9305],[-99.2769,37.9291],[-99.2959,37.9276],[-99.3149,37.9261],[-99.3339,37.9247],[-99.3529,37.9232],[-99.3719,37.9217],[-99.3909,37.9203],[-99.4099,37.9188],[-99.4026,37.9012],[-99.3953,37.8836],[-99.388,37.866],[-99.3807,37.8484],[-99.3836,37.8217],[-99.3865,37.795],[-99.3706,37.7936],[-99.3547,37.7921],[-99.3388,37.7906],[-99.3229,37.7891],[-99.3231,37.6061],[-99.3514,37.6017],[-99.3797,37.5972],[-99.4079,37.5927],[-99.4362,37.5883],[-99.4644,37.5838],[-99.4927,37.5793],[-99.5209,37.5748],[-99.5492,37.5704],[-99.569,37.5659],[-99.5889,37.5615],[-99.6087,37.557],[-99.6286,37.5526],[-99.6484,37.5481],[-99.6683,37.5437],[-99.6881,37.5392],[-99.7079,37.5347],[-99.7278,37.5303],[-99.7476,37.5258],[-99.7674,37.5213],[-99.7872,37.5169],[-99.8071,37.5124],[-99.8269,37.5079],[-99.8467,37.5034],[-99.8665,37.4989],[-99.8851,37.492],[-99.9037,37.4851],[-99.9223,37.4782],[-99.9409,37.4712],[-99.9595,37.4643],[-99.978,37.4574],[-99.9966,37.4504],[-100.0152,37.4435],[-100.0152,37.4388],[-100.0081,37.4076],[-100.001,37.3764],[-100.0,37.2098],[-99.9912,37.2012],[-99.9825,37.1926],[-99.9806,37.0971],[-99.9786,37.0016],[-99.9523,37.0015],[-99.926,37.0014],[-99.8997,37.0013],[-99.8735,37.0012],[-99.8472,37.0011],[-99.8209,37.001],[-99.7946,37.0009],[-99.7683,37.0008],[-99.742,37.0006],[-99.7157,37.0005],[-99.6894,37.0003],[-99.6632,37.0002],[-99.6369,37.0],[-99.6106,36.9999],[-99.5843,36.9997],[-99.558,36.9995],[-99.5384,36.9996],[-99.5187,36.9997],[-99.4991,36.9997],[-99.4794,36.9998],[-99.4598,36.9999],[-99.4401,36.9999],[-99.4205,37.0],[-99.4008,37.0],[-99.3812,37.0001],[-99.3615,37.0001],[-99.3419,37.0002],[-99.3222,37.0002],[-99.3026,37.0002],[-99.2829,37.0003],[-99.2633,37.0003],[-99.2436,37.0003],[-99.224,37.0003],[-99.2043,37.0003],[-99.1847,37.0004],[-99.165,37.0004],[-99.1454,37.0004],[-99.1257,37.0004],[-99.1061,37.0004],[-99.0864,37.0004],[-99.0668,37.0004],[-99.0471,37.0004],[-99.0275,37.0004],[-99.0078,37.0003],[-98.9882,37.0003],[-98.9685,37.0003],[-98.9489,37.0003],[-98.9292,37.0002],[-98.9096,37.0002],[-98.8899,37.0002],[-98.8703,37.0001],[-98.8506,37.0001],[-98.831,37.0001],[-98.8113,37.0],[-98.7917,37.0],[-98.772,36.9999],[-98.7524,36.9999],[-98.7327,36.9998],[-98.7131,36.9997],[-98.6934,36.9997],[-98.6738,36.9996],[-98.6541,36.9995],[-98.6345,36.9995],[-98.6148,36.9994],[-98.5952,36.9993],[-98.5756,36.9992],[-98.5559,36.9991],[-98.5363,36.999],[-98.5166,36.9989],[-98.497,36.9988],[-98.4773,36.9987],[-98.4577,36.9986],[-98.438,36.9985],[-98.4184,36.9984],[-98.3987,36.9983],[-98.3791,36.9982],[-98.3594,36.9981],[-98.3398,36.9979],[-98.3201,36.9978],[-98.3005,36.9977],[-98.2845,36.9977],[-98.2686,36.9978],[-98.2527,36.9979],[-98.2367,36.9979],[-98.2208,36.998],[-98.2049,36.998],[-98.1889,36.9981],[-98.173,36.9981],[-98.157,36.9981],[-98.1411,36.9982],[-98.1252,36.9982],[-98.1092,36.9983],[-98.0933,36.9983],[-98.0774,36.9983],[-98.0614,36.9984],[-98.0455,36.9984]]]},"properties":{"OBJECTID":1079,"state":"Kansas","agency":"Kansas Department of Wildlife and Parks","unit_type":"DMU","unit_id":"16","unit_name":"UNIT 16","unit_label":"Kansas DMU  - UNIT 16","aliases":"16 | 16 unit 16 | 2025 | dmu | dmu 16 | dmu 16 unit 16 | kansas | kansas 16 | kansas 16 unit 16 | kansas department of wildlife and parks | kansas department of wildlife and parks 16 | kansas dmu 16 | kansas dmu 16 unit 16 | kansas dmu unit 16 | unit 16","year":"2025","Shape_Length":546193.6226472037,"Shape_Area":12255059831.04067}},{"type":"Feature","id":1080,"geometry":{"type":"Polygon","coordinates":[[[-99.4099,37.9188],[-99.398,37.9305],[-99.386,37.9421],[-99.374,37.9538],[-99.3621,37.9655],[-99.3501,37.9772],[-99.3381,37.9889],[-99.3261,38.0005],[-99.3142,38.0122],[-99.3144,38.1896],[-99.3425,38.1896],[-99.3707,38.1896],[-99.3989,38.1897],[-99.4271,38.1897],[-99.4553,38.1897],[-99.4835,38.1897],[-99.5117,38.1897],[-99.5398,38.1897],[-99.5564,38.1847],[-99.5729,38.1796],[-99.5894,38.1746],[-99.6059,38.1696],[-99.6224,38.1646],[-99.6389,38.1595],[-99.6554,38.1545],[-99.6719,38.1495],[-99.6834,38.1425],[-99.695,38.1355],[-99.7066,38.1285],[-99.7182,38.1215],[-99.7297,38.1145],[-99.7413,38.1075],[-99.7529,38.1005],[-99.7644,38.0935],[-99.7807,38.0928],[-99.7969,38.0922],[-99.8131,38.0915],[-99.8294,38.0909],[-99.8456,38.0902],[-99.8618,38.0896],[-99.8781,38.0889],[-99.8943,38.0882],[-99.8957,38.2251],[-99.8971,38.362],[-99.8986,38.4988],[-99.9,38.6357],[-99.9265,38.636],[-99.953,38.6363],[-99.9795,38.6365],[-100.006,38.6368],[-100.0325,38.6371],[-100.059,38.6373],[-100.0855,38.6376],[-100.112,38.6378],[-100.1385,38.638],[-100.165,38.6383],[-100.1914,38.6385],[-100.2179,38.6387],[-100.2444,38.6389],[-100.2709,38.6391],[-100.2974,38.6393],[-100.3239,38.6395],[-100.3398,38.6362],[-100.3556,38.6329],[-100.3714,38.6296],[-100.3873,38.6263],[-100.4031,38.623],[-100.4189,38.6197],[-100.4347,38.6164],[-100.4506,38.613],[-100.4733,38.6112],[-100.4961,38.6095],[-100.5189,38.6077],[-100.5417,38.6059],[-100.5644,38.6041],[-100.5872,38.6023],[-100.61,38.6005],[-100.6328,38.5986],[-100.6499,38.5986],[-100.6671,38.5986],[-100.6843,38.5986],[-100.7014,38.5986],[-100.7186,38.5986],[-100.7358,38.5986],[-100.753,38.5986],[-100.7701,38.5986],[-100.7873,38.5986],[-100.8045,38.5986],[-100.8216,38.5985],[-100.8388,38.5985],[-100.856,38.5985],[-100.8732,38.5984],[-100.8903,38.5984],[-100.9075,38.5984],[-100.9069,38.4825],[-100.9254,38.4825],[-100.944,38.4825],[-100.9625,38.4824],[-100.981,38.4824],[-100.9996,38.4824],[-101.0181,38.4824],[-101.0366,38.4824],[-101.0552,38.4823],[-101.0737,38.4823],[-101.0922,38.4823],[-101.1107,38.4822],[-101.1293,38.4822],[-101.1478,38.4822],[-101.1663,38.4821],[-101.1849,38.4821],[-101.2034,38.482],[-101.2219,38.482],[-101.2405,38.4819],[-101.259,38.4819],[-101.2775,38.4818],[-101.2961,38.4817],[-101.3146,38.4817],[-101.3331,38.4816],[-101.3517,38.4815],[-101.3702,38.4815],[-101.3887,38.4814],[-101.4072,38.4813],[-101.4258,38.4812],[-101.4443,38.4811],[-101.4628,38.4811],[-101.4814,38.481],[-101.4999,38.4809],[-101.5209,38.4776],[-101.5419,38.4743],[-101.5629,38.471],[-101.5839,38.4677],[-101.6049,38.4644],[-101.6259,38.4611],[-101.6468,38.4578],[-101.6678,38.4545],[-101.6889,38.4573],[-101.71,38.4602],[-101.731,38.463],[-101.7521,38.4658],[-101.7704,38.466],[-101.7887,38.4662],[-101.807,38.4664],[-101.8253,38.4666],[-101.8436,38.4667],[-101.8619,38.4669],[-101.8803,38.4671],[-101.8986,38.4673],[-101.9169,38.4674],[-101.9352,38.4676],[-101.9535,38.4678],[-101.9718,38.468],[-101.9901,38.4681],[-102.0084,38.4683],[-102.0267,38.4684],[-102.0451,38.4686],[-102.0451,38.4608],[-102.0451,38.4604],[-102.0449,38.4337],[-102.0449,38.4208],[-102.0448,38.4036],[-102.0448,38.3882],[-102.0448,38.3846],[-102.0446,38.3527],[-102.0446,38.3208],[-102.0445,38.3063],[-102.0445,38.2923],[-102.0444,38.2193],[-102.0444,38.2095],[-102.0443,38.1427],[-102.0443,38.1345],[-102.0446,38.0302],[-102.0445,38.0021],[-102.0439,37.9324],[-102.0431,37.8471],[-102.0423,37.7619],[-102.0422,37.7611],[-102.0418,37.7121],[-102.0417,37.6875],[-102.0417,37.6796],[-102.0417,37.6626],[-102.0417,37.6594],[-102.0417,37.6571],[-102.0416,37.6418],[-102.0416,37.6182],[-102.0418,37.6035],[-102.0418,37.5787],[-102.0419,37.553],[-102.0418,37.4698],[-102.0418,37.4698],[-102.0245,37.4756],[-102.0072,37.4814],[-101.9899,37.4872],[-101.9726,37.493],[-101.9553,37.4988],[-101.938,37.5046],[-101.9207,37.5104],[-101.9033,37.5162],[-101.886,37.522],[-101.8687,37.5278],[-101.8514,37.5336],[-101.8341,37.5394],[-101.8167,37.5452],[-101.7994,37.551],[-101.7821,37.5568],[-101.7647,37.5625],[-101.7607,37.5775],[-101.7355,37.5775],[-101.7104,37.5775],[-101.6852,37.5774],[-101.66,37.5774],[-101.6349,37.5773],[-101.6097,37.5773],[-101.5845,37.5772],[-101.5594,37.5772],[-101.5342,37.5771],[-101.509,37.577],[-101.4839,37.577],[-101.4587,37.5769],[-101.4335,37.5768],[-101.4084,37.5767],[-101.3832,37.5766],[-101.358,37.5765],[-101.339,37.5729],[-101.32,37.5692],[-101.301,37.5655],[-101.282,37.5618],[-101.2597,37.5619],[-101.2373,37.5619],[-101.2149,37.5619],[-101.1926,37.562],[-101.1702,37.562],[-101.1478,37.562],[-101.1255,37.5621],[-101.1031,37.5621],[-101.0807,37.5621],[-101.0584,37.5621],[-101.036,37.5621],[-101.0136,37.5621],[-100.9913,37.5621],[-100.9689,37.5621],[-100.9466,37.5621],[-100.9242,37.5621],[-100.9018,37.5621],[-100.8795,37.5621],[-100.8571,37.562],[-100.8347,37.562],[-100.8124,37.562],[-100.79,37.5619],[-100.7676,37.5619],[-100.7453,37.5619],[-100.7229,37.5618],[-100.7005,37.5618],[-100.6782,37.5617],[-100.6558,37.5616],[-100.6335,37.5616],[-100.6111,37.5615],[-100.5887,37.5614],[-100.5664,37.5613],[-100.5437,37.5679],[-100.5209,37.5745],[-100.4982,37.581],[-100.4755,37.5876],[-100.4528,37.5941],[-100.4301,37.6007],[-100.4073,37.6072],[-100.3846,37.6137],[-100.3619,37.6203],[-100.3391,37.6268],[-100.3164,37.6333],[-100.2936,37.6398],[-100.2709,37.6463],[-100.2481,37.6529],[-100.2254,37.6594],[-100.2026,37.6659],[-100.1844,37.6798],[-100.1662,37.6936],[-100.1501,37.6987],[-100.1339,37.7037],[-100.1178,37.7087],[-100.1016,37.7137],[-100.0855,37.7187],[-100.0693,37.7237],[-100.0532,37.7287],[-100.037,37.7337],[-100.0315,37.7182],[-100.0261,37.7026],[-100.0206,37.687],[-100.0152,37.6714],[-100.0152,37.4435],[-99.9966,37.4504],[-99.978,37.4574],[-99.9595,37.4643],[-99.9409,37.4712],[-99.9223,37.4782],[-99.9037,37.4851],[-99.8851,37.492],[-99.8665,37.4989],[-99.8467,37.5034],[-99.8269,37.5079],[-99.8071,37.5124],[-99.7872,37.5169],[-99.7674,37.5213],[-99.7476,37.5258],[-99.7278,37.5303],[-99.7079,37.5347],[-99.6881,37.5392],[-99.6683,37.5437],[-99.6484,37.5481],[-99.6286,37.5526],[-99.6087,37.557],[-99.5889,37.5615],[-99.569,37.5659],[-99.5492,37.5704],[-99.5209,37.5748],[-99.4927,37.5793],[-99.4644,37.5838],[-99.4362,37.5883],[-99.4079,37.5927],[-99.3797,37.5972],[-99.3514,37.6017],[-99.3231,37.6061],[-99.3229,37.7891],[-99.3388,37.7906],[-99.3547,37.7921],[-99.3706,37.7936],[-99.3865,37.795],[-99.3836,37.8217],[-99.3807,37.8484],[-99.388,37.866],[-99.3953,37.8836],[-99.4026,37.9012],[-99.4099,37.9188]]]},"properties":{"OBJECTID":1080,"state":"Kansas","agency":"Kansas Department of Wildlife and Parks","unit_type":"DMU","unit_id":"17","unit_name":"UNIT 17","unit_label":"Kansas DMU  - UNIT 17","aliases":"17 | 17 unit 17 | 2025 | dmu | dmu 17 | dmu 17 unit 17 | kansas | kansas 17 | kansas 17 unit 17 | kansas department of wildlife and parks | kansas department of wildlife and parks 17 | kansas dmu 17 | kansas dmu 17 unit 17 | kansas dmu unit 17 | unit 17","year":"2025","Shape_Length":779069.2297413088,"Shape_Area":23481790419.571728}},{"type":"Feature","id":1081,"geometry":{"type":"Polygon","coordinates":[[[-99.9,38.6357],[-99.8793,38.6363],[-99.8586,38.6368],[-99.8379,38.6374],[-99.8172,38.638],[-99.7965,38.6385],[-99.7757,38.6391],[-99.755,38.6396],[-99.7343,38.6401],[-99.732,38.6971],[-99.7296,38.754],[-99.7272,38.8109],[-99.7249,38.8678],[-99.7432,38.873],[-99.7422,38.9848],[-99.7584,38.988],[-99.7745,38.9913],[-99.7907,38.9946],[-99.8069,38.9979],[-99.823,39.0012],[-99.8392,39.0044],[-99.8553,39.0077],[-99.8715,39.011],[-99.8871,39.014],[-99.9027,39.017],[-99.9182,39.0201],[-99.9338,39.0231],[-99.9624,39.0232],[-99.991,39.0233],[-100.0196,39.0234],[-100.0482,39.0235],[-100.0768,39.0236],[-100.1054,39.0236],[-100.134,39.0237],[-100.1626,39.0238],[-100.1824,39.0327],[-100.2021,39.0416],[-100.2218,39.0505],[-100.2415,39.0594],[-100.2613,39.0683],[-100.281,39.0772],[-100.3007,39.0861],[-100.3205,39.0949],[-100.3411,39.0969],[-100.3617,39.0989],[-100.3823,39.1009],[-100.4029,39.1029],[-100.4235,39.1048],[-100.4442,39.1068],[-100.4648,39.1088],[-100.4854,39.1107],[-100.5054,39.1111],[-100.5253,39.1114],[-100.5453,39.1118],[-100.5653,39.1122],[-100.5853,39.1125],[-100.6053,39.1129],[-100.6252,39.1132],[-100.6452,39.1135],[-100.6652,39.1139],[-100.6852,39.1142],[-100.7051,39.1145],[-100.7251,39.1149],[-100.7451,39.1152],[-100.7651,39.1155],[-100.7851,39.1158],[-100.805,39.1162],[-100.815,39.1281],[-100.8251,39.14],[-100.8351,39.1519],[-100.8451,39.1638],[-100.8551,39.1757],[-100.8651,39.1876],[-100.8751,39.1995],[-100.8852,39.2114],[-100.8952,39.2233],[-100.9052,39.2352],[-100.9153,39.2471],[-100.9253,39.259],[-100.9353,39.2709],[-100.9454,39.2828],[-100.9554,39.2947],[-100.9655,39.3066],[-100.9849,39.3211],[-101.0043,39.3357],[-101.0238,39.3503],[-101.0432,39.3648],[-101.0599,39.365],[-101.0765,39.3651],[-101.0932,39.3652],[-101.1099,39.3653],[-101.1266,39.3654],[-101.1432,39.3655],[-101.1599,39.3656],[-101.1766,39.3657],[-101.1933,39.3658],[-101.2099,39.3658],[-101.2266,39.3659],[-101.2433,39.366],[-101.26,39.3661],[-101.2766,39.3662],[-101.2933,39.3663],[-101.31,39.3663],[-101.3317,39.3574],[-101.3533,39.3484],[-101.375,39.3394],[-101.3966,39.3305],[-101.417,39.3305],[-101.4374,39.3305],[-101.4577,39.3305],[-101.4781,39.3306],[-101.4985,39.3306],[-101.5189,39.3306],[-101.5392,39.3306],[-101.5596,39.3306],[-101.58,39.3306],[-101.6003,39.3306],[-101.6207,39.3306],[-101.6411,39.3306],[-101.6615,39.3306],[-101.6818,39.3306],[-101.7022,39.3305],[-101.7226,39.3305],[-101.743,39.3305],[-101.7633,39.3305],[-101.7837,39.3304],[-101.8041,39.3304],[-101.8245,39.3304],[-101.8448,39.3303],[-101.8652,39.3303],[-101.8856,39.3302],[-101.906,39.3302],[-101.9263,39.3301],[-101.9467,39.3301],[-101.9671,39.33],[-101.9875,39.3299],[-102.0078,39.3299],[-102.0282,39.3298],[-102.0486,39.3297],[-102.0487,39.3297],[-102.0487,39.3297],[-102.0483,39.2763],[-102.048,39.2511],[-102.0479,39.2366],[-102.0478,39.2278],[-102.0469,39.1074],[-102.0465,39.0281],[-102.0462,38.9921],[-102.0459,38.9378],[-102.0458,38.9259],[-102.0457,38.9062],[-102.0456,38.8884],[-102.0456,38.8737],[-102.0455,38.8697],[-102.0454,38.8576],[-102.0454,38.8237],[-102.0454,38.8041],[-102.0454,38.7897],[-102.0454,38.7681],[-102.0453,38.7499],[-102.0452,38.6915],[-102.0452,38.6798],[-102.0451,38.6751],[-102.0451,38.6686],[-102.0451,38.6526],[-102.0451,38.6357],[-102.0451,38.6284],[-102.045,38.6152],[-102.0451,38.6027],[-102.0451,38.6024],[-102.045,38.5672],[-102.0449,38.5586],[-102.045,38.5005],[-102.045,38.4961],[-102.045,38.496],[-102.045,38.4942],[-102.045,38.4834],[-102.0451,38.4686],[-102.0267,38.4684],[-102.0084,38.4683],[-101.9901,38.4681],[-101.9718,38.468],[-101.9535,38.4678],[-101.9352,38.4676],[-101.9169,38.4674],[-101.8986,38.4673],[-101.8803,38.4671],[-101.8619,38.4669],[-101.8436,38.4667],[-101.8253,38.4666],[-101.807,38.4664],[-101.7887,38.4662],[-101.7704,38.466],[-101.7521,38.4658],[-101.731,38.463],[-101.71,38.4602],[-101.6889,38.4573],[-101.6678,38.4545],[-101.6468,38.4578],[-101.6259,38.4611],[-101.6049,38.4644],[-101.5839,38.4677],[-101.5629,38.471],[-101.5419,38.4743],[-101.5209,38.4776],[-101.4999,38.4809],[-101.4814,38.481],[-101.4628,38.4811],[-101.4443,38.4811],[-101.4258,38.4812],[-101.4072,38.4813],[-101.3887,38.4814],[-101.3702,38.4815],[-101.3517,38.4815],[-101.3331,38.4816],[-101.3146,38.4817],[-101.2961,38.4817],[-101.2775,38.4818],[-101.259,38.4819],[-101.2405,38.4819],[-101.2219,38.482],[-101.2034,38.482],[-101.1849,38.4821],[-101.1663,38.4821],[-101.1478,38.4822],[-101.1293,38.4822],[-101.1107,38.4822],[-101.0922,38.4823],[-101.0737,38.4823],[-101.0552,38.4823],[-101.0366,38.4824],[-101.0181,38.4824],[-100.9996,38.4824],[-100.981,38.4824],[-100.9625,38.4824],[-100.944,38.4825],[-100.9254,38.4825],[-100.9069,38.4825],[-100.9075,38.5984],[-100.8903,38.5984],[-100.8732,38.5984],[-100.856,38.5985],[-100.8388,38.5985],[-100.8216,38.5985],[-100.8045,38.5986],[-100.7873,38.5986],[-100.7701,38.5986],[-100.753,38.5986],[-100.7358,38.5986],[-100.7186,38.5986],[-100.7014,38.5986],[-100.6843,38.5986],[-100.6671,38.5986],[-100.6499,38.5986],[-100.6328,38.5986],[-100.61,38.6005],[-100.5872,38.6023],[-100.5644,38.6041],[-100.5417,38.6059],[-100.5189,38.6077],[-100.4961,38.6095],[-100.4733,38.6112],[-100.4506,38.613],[-100.4347,38.6164],[-100.4189,38.6197],[-100.4031,38.623],[-100.3873,38.6263],[-100.3714,38.6296],[-100.3556,38.6329],[-100.3398,38.6362],[-100.3239,38.6395],[-100.2974,38.6393],[-100.2709,38.6391],[-100.2444,38.6389],[-100.2179,38.6387],[-100.1914,38.6385],[-100.165,38.6383],[-100.1385,38.638],[-100.112,38.6378],[-100.0855,38.6376],[-100.059,38.6373],[-100.0325,38.6371],[-100.006,38.6368],[-99.9795,38.6365],[-99.953,38.6363],[-99.9265,38.636],[-99.9,38.6357]]]},"properties":{"OBJECTID":1081,"state":"Kansas","agency":"Kansas Department of Wildlife and Parks","unit_type":"DMU","unit_id":"2","unit_name":"UNIT 2","unit_label":"Kansas DMU  - UNIT 2","aliases":"2 | 2 unit 2 | 2025 | dmu | dmu 2 | dmu 2 unit 2 | kansas | kansas 2 | kansas 2 unit 2 | kansas department of wildlife and parks | kansas department of wildlife and parks 2 | kansas dmu 2 | kansas dmu 2 unit 2 | kansas dmu unit 2 | unit 2","year":"2025","Shape_Length":565234.592083426,"Shape_Area":14569008849.01503}},{"type":"Feature","id":1082,"geometry":{"type":"Polygon","coordinates":[[[-99.8906,40.0017],[-99.8998,40.0016],[-99.9053,40.0016],[-99.9091,40.0016],[-99.9105,40.0016],[-99.9111,40.0016],[-99.9158,40.0016],[-99.9172,40.0017],[-99.9183,40.0017],[-99.9214,40.0017],[-99.9222,40.0016],[-99.9481,40.0017],[-99.9483,40.0017],[-99.9675,40.0017],[-99.9867,40.0017],[-99.9868,40.0017],[-99.9967,40.0016],[-99.9994,40.0017],[-100.003,40.0017],[-100.0054,40.0017],[-100.0333,40.0016],[-100.0374,40.0017],[-100.0425,40.0017],[-100.0533,40.0016],[-100.0576,40.0016],[-100.0586,40.0016],[-100.0616,40.0016],[-100.0618,40.0017],[-100.0631,40.0017],[-100.068,40.0017],[-100.0802,40.0016],[-100.0806,40.0016],[-100.0861,40.0016],[-100.0865,40.0016],[-100.0872,40.0016],[-100.0874,40.0016],[-100.0974,40.0016],[-100.0987,40.0016],[-100.1044,40.0016],[-100.1087,40.0017],[-100.1099,40.0017],[-100.111,40.0017],[-100.1132,40.0017],[-100.1161,40.0017],[-100.1185,40.0017],[-100.1194,40.0017],[-100.1461,40.0017],[-100.1475,40.0017],[-100.1662,40.0016],[-100.1671,40.0016],[-100.1837,40.0016],[-100.1853,40.0016],[-100.1903,40.0016],[-100.1903,40.0017],[-100.1925,40.0017],[-100.1944,40.0017],[-100.1966,40.0017],[-100.1985,40.0016],[-100.2136,40.0017],[-100.214,40.0017],[-100.229,40.0017],[-100.2291,40.0017],[-100.2442,40.0017],[-100.2594,40.0017],[-100.2603,40.0017],[-100.2647,40.0017],[-100.2652,40.0017],[-100.2715,40.0017],[-100.2739,40.0017],[-100.29,40.0017],[-100.3061,40.0018],[-100.3068,40.0018],[-100.3069,40.0018],[-100.3072,40.0019],[-100.3073,40.0018],[-100.3073,40.0018],[-100.3103,40.0017],[-100.3141,40.0017],[-100.3392,40.0018],[-100.3643,40.0018],[-100.3661,40.0018],[-100.3697,40.0018],[-100.37,40.0018],[-100.3756,40.0018],[-100.3779,40.0018],[-100.3841,40.0018],[-100.3849,40.0018],[-100.3887,40.0018],[-100.3901,40.0019],[-100.3955,40.0018],[-100.396,40.0018],[-100.4121,40.0018],[-100.4133,40.0018],[-100.4317,40.0018],[-100.45,40.0018],[-100.454,40.0018],[-100.4684,40.0017],[-100.4684,40.0017],[-100.4684,40.0018],[-100.4685,40.0018],[-100.4698,40.0019],[-100.4702,40.0019],[-100.4796,40.002],[-100.4797,40.002],[-100.4801,40.002],[-100.4803,40.002],[-100.4812,40.002],[-100.4825,40.002],[-100.4825,40.002],[-100.4842,40.0019],[-100.4843,40.0019],[-100.4863,40.0019],[-100.4868,40.0019],[-100.514,40.0019],[-100.5143,40.0019],[-100.5144,40.0019],[-100.5181,40.0019],[-100.5203,40.0018],[-100.5205,40.0018],[-100.5229,40.0019],[-100.5232,40.0019],[-100.5331,40.0019],[-100.5344,40.0019],[-100.5641,40.0019],[-100.5663,40.0019],[-100.5761,40.0019],[-100.5771,40.0019],[-100.5789,40.0019],[-100.5792,40.0019],[-100.5925,40.0019],[-100.5927,40.0019],[-100.5947,40.0018],[-100.596,40.0019],[-100.6002,40.0019],[-100.6015,40.002],[-100.609,40.0019],[-100.6098,40.0019],[-100.6125,40.002],[-100.6134,40.002],[-100.6237,40.002],[-100.6238,40.002],[-100.6248,40.002],[-100.6262,40.002],[-100.6268,40.002],[-100.6268,40.0021],[-100.6277,40.0021],[-100.628,40.0021],[-100.6291,40.0021],[-100.6296,40.0021],[-100.6298,40.0021],[-100.6304,40.0021],[-100.6308,40.0021],[-100.6354,40.0021],[-100.6357,40.002],[-100.6367,40.002],[-100.6371,40.002],[-100.6405,40.002],[-100.6412,40.002],[-100.6422,40.002],[-100.6423,40.002],[-100.6427,40.002],[-100.6431,40.002],[-100.6448,40.002],[-100.6449,40.002],[-100.6694,40.002],[-100.6939,40.0021],[-100.7,40.0021],[-100.7208,40.0021],[-100.7222,40.0021],[-100.73,40.0021],[-100.7301,40.0021],[-100.7303,40.0021],[-100.7304,40.0021],[-100.7333,40.0022],[-100.7334,40.0022],[-100.7343,40.0021],[-100.7396,40.0021],[-100.7415,40.0021],[-100.7432,40.0021],[-100.7606,40.0021],[-100.778,40.0022],[-100.7955,40.0022],[-100.8129,40.0022],[-100.8303,40.0022],[-100.8477,40.0022],[-100.8651,40.0022],[-100.8825,40.0022],[-100.883,40.0022],[-100.8921,40.0022],[-100.9004,40.0022],[-100.9198,40.0022],[-100.9393,40.0022],[-100.9408,40.0022],[-100.9469,40.0022],[-100.9478,40.0022],[-100.9566,40.0022],[-100.9596,40.0023],[-100.9833,40.0023],[-100.9846,40.0023],[-101.014,40.0023],[-101.0157,40.0023],[-101.0264,40.0023],[-101.0268,40.0023],[-101.0467,40.0023],[-101.0667,40.0024],[-101.0686,40.0024],[-101.0789,40.0024],[-101.0794,40.0024],[-101.0928,40.0025],[-101.0947,40.0024],[-101.1153,40.0025],[-101.1178,40.0025],[-101.1455,40.0025],[-101.1732,40.0025],[-101.1775,40.0025],[-101.2049,40.0025],[-101.2057,40.0025],[-101.2233,40.0025],[-101.2252,40.0026],[-101.2268,40.0026],[-101.2284,40.0026],[-101.2301,40.0026],[-101.2447,40.0026],[-101.2528,40.0025],[-101.2551,40.0026],[-101.2675,40.0026],[-101.2678,40.0026],[-101.274,40.0026],[-101.2757,40.0026],[-101.2906,40.0026],[-101.292,40.0026],[-101.3168,40.0026],[-101.3417,40.0026],[-101.3666,40.0026],[-101.3915,40.0027],[-101.4164,40.0027],[-101.4413,40.0027],[-101.4662,40.0027],[-101.4911,40.0027],[-101.4977,40.0027],[-101.5011,40.0027],[-101.5034,40.0026],[-101.5076,40.0027],[-101.5108,40.0027],[-101.5256,40.0027],[-101.5259,40.0027],[-101.5401,40.0027],[-101.5416,40.0027],[-101.5625,40.0027],[-101.5833,40.0027],[-101.6042,40.0027],[-101.625,40.0027],[-101.6256,40.0027],[-101.643,40.0028],[-101.6604,40.0028],[-101.6778,40.0028],[-101.6952,40.0029],[-101.7126,40.0029],[-101.73,40.0029],[-101.7474,40.0029],[-101.7648,40.003],[-101.7822,40.003],[-101.7996,40.003],[-101.817,40.003],[-101.8344,40.003],[-101.8518,40.003],[-101.8692,40.003],[-101.8866,40.003],[-101.904,40.003],[-101.9041,40.003],[-101.9137,40.003],[-101.9154,40.003],[-101.9166,40.003],[-101.9168,40.0031],[-101.9326,40.003],[-101.9332,40.003],[-101.9628,40.003],[-101.9924,40.0031],[-102.022,40.0031],[-102.0517,40.0031],[-102.0517,40.0031],[-102.0517,39.9892],[-102.0517,39.985],[-102.0517,39.9808],[-102.0517,39.968],[-102.0516,39.9544],[-102.0515,39.8578],[-102.0515,39.847],[-102.051,39.756],[-102.051,39.7509],[-102.0508,39.7301],[-102.0507,39.7106],[-102.0503,39.657],[-102.0503,39.6463],[-102.0499,39.5889],[-102.0496,39.5389],[-102.0487,39.3297],[-102.0486,39.3297],[-102.0282,39.3298],[-102.0078,39.3299],[-101.9875,39.3299],[-101.9671,39.33],[-101.9467,39.3301],[-101.9263,39.3301],[-101.906,39.3302],[-101.8856,39.3302],[-101.8652,39.3303],[-101.8448,39.3303],[-101.8245,39.3304],[-101.8041,39.3304],[-101.7837,39.3304],[-101.7633,39.3305],[-101.743,39.3305],[-101.7226,39.3305],[-101.7022,39.3305],[-101.6818,39.3306],[-101.6615,39.3306],[-101.6411,39.3306],[-101.6207,39.3306],[-101.6003,39.3306],[-101.58,39.3306],[-101.5596,39.3306],[-101.5392,39.3306],[-101.5189,39.3306],[-101.4985,39.3306],[-101.4781,39.3306],[-101.4577,39.3305],[-101.4374,39.3305],[-101.417,39.3305],[-101.3966,39.3305],[-101.375,39.3394],[-101.3533,39.3484],[-101.3317,39.3574],[-101.31,39.3663],[-101.2933,39.3663],[-101.2766,39.3662],[-101.26,39.3661],[-101.2433,39.366],[-101.2266,39.3659],[-101.2099,39.3658],[-101.1933,39.3658],[-101.1766,39.3657],[-101.1599,39.3656],[-101.1432,39.3655],[-101.1266,39.3654],[-101.1099,39.3653],[-101.0932,39.3652],[-101.0765,39.3651],[-101.0599,39.365],[-101.0432,39.3648],[-101.0238,39.3503],[-101.0043,39.3357],[-100.9849,39.3211],[-100.9655,39.3066],[-100.9554,39.2947],[-100.9454,39.2828],[-100.9353,39.2709],[-100.9253,39.259],[-100.9153,39.2471],[-100.9052,39.2352],[-100.8952,39.2233],[-100.8852,39.2114],[-100.8751,39.1995],[-100.8651,39.1876],[-100.8551,39.1757],[-100.8451,39.1638],[-100.8351,39.1519],[-100.8251,39.14],[-100.815,39.1281],[-100.805,39.1162],[-100.7851,39.1158],[-100.7651,39.1155],[-100.7451,39.1152],[-100.7251,39.1149],[-100.7051,39.1145],[-100.6852,39.1142],[-100.6652,39.1139],[-100.6452,39.1135],[-100.6252,39.1132],[-100.6053,39.1129],[-100.5853,39.1125],[-100.5653,39.1122],[-100.5453,39.1118],[-100.5253,39.1114],[-100.5054,39.1111],[-100.4854,39.1107],[-100.4648,39.1088],[-100.4442,39.1068],[-100.4235,39.1048],[-100.4029,39.1029],[-100.3823,39.1009],[-100.3617,39.0989],[-100.3411,39.0969],[-100.3205,39.0949],[-100.3007,39.0861],[-100.281,39.0772],[-100.2613,39.0683],[-100.2415,39.0594],[-100.2218,39.0505],[-100.2021,39.0416],[-100.1824,39.0327],[-100.1626,39.0238],[-100.134,39.0237],[-100.1054,39.0236],[-100.0768,39.0236],[-100.0482,39.0235],[-100.0196,39.0234],[-99.991,39.0233],[-99.9624,39.0232],[-99.9338,39.0231],[-99.9182,39.0201],[-99.9027,39.017],[-99.8871,39.014],[-99.8715,39.011],[-99.8702,39.065],[-99.8689,39.119],[-99.8675,39.173],[-99.8662,39.227],[-99.8567,39.2386],[-99.8473,39.2501],[-99.8459,39.4067],[-99.8446,39.5634],[-99.8485,39.5941],[-99.8525,39.6249],[-99.8712,39.6248],[-99.89,39.6248],[-99.8906,40.0017],[-99.8906,40.0017]]]},"properties":{"OBJECTID":1082,"state":"Kansas","agency":"Kansas Department of Wildlife and Parks","unit_type":"DMU","unit_id":"1","unit_name":"UNIT 1","unit_label":"Kansas DMU  - UNIT 1","aliases":"1 | 1 unit 1 | 2025 | dmu | dmu 1 | dmu 1 unit 1 | kansas | kansas 1 | kansas 1 unit 1 | kansas department of wildlife and parks | kansas department of wildlife and parks 1 | kansas dmu 1 | kansas dmu 1 unit 1 | kansas dmu unit 1 | unit 1","year":"2025","Shape_Length":577147.2151615352,"Shape_Area":16348703700.2666}},{"type":"Feature","id":1083,"geometry":{"type":"Polygon","coordinates":[[[-98.9347,40.0022],[-98.9609,40.0023],[-98.9609,40.0023],[-98.9657,40.0023],[-98.9683,40.0023],[-98.9718,40.0023],[-98.972,40.0023],[-98.994,40.0023],[-99.0,40.0022],[-99.0165,40.0022],[-99.0177,40.0022],[-99.0373,40.0022],[-99.0568,40.0022],[-99.061,40.0023],[-99.0878,40.0022],[-99.1145,40.0022],[-99.1164,40.0022],[-99.1312,40.0021],[-99.1335,40.0021],[-99.1458,40.0021],[-99.1485,40.0021],[-99.1501,40.0021],[-99.1522,40.0021],[-99.1525,40.0021],[-99.1624,40.0021],[-99.1631,40.0021],[-99.1679,40.0021],[-99.1682,40.0021],[-99.1791,40.002],[-99.1791,40.0021],[-99.2004,40.0021],[-99.2216,40.002],[-99.2253,40.002],[-99.2484,40.002],[-99.2485,40.002],[-99.2674,40.002],[-99.2675,40.002],[-99.2833,40.002],[-99.2836,40.002],[-99.3099,40.002],[-99.3362,40.002],[-99.3625,40.002],[-99.3888,40.002],[-99.3888,40.002],[-99.4034,40.002],[-99.4034,40.0021],[-99.4046,40.0022],[-99.4047,40.0022],[-99.4066,40.0021],[-99.4071,40.0021],[-99.4229,40.0022],[-99.4387,40.0022],[-99.4436,40.0022],[-99.4712,40.0021],[-99.4988,40.002],[-99.4989,40.002],[-99.5195,40.002],[-99.5402,40.002],[-99.5437,40.002],[-99.5649,40.0019],[-99.586,40.0019],[-99.6071,40.0019],[-99.6282,40.0019],[-99.6303,40.0018],[-99.6525,40.0018],[-99.6748,40.0018],[-99.6781,40.0018],[-99.6952,40.0018],[-99.7122,40.0018],[-99.7152,40.0018],[-99.735,40.0017],[-99.735,40.0017],[-99.744,40.0017],[-99.7453,40.0017],[-99.7459,40.0017],[-99.7459,40.0018],[-99.7568,40.0013],[-99.757,40.0015],[-99.7743,40.0017],[-99.7743,40.0017],[-99.7787,40.0016],[-99.7877,40.0016],[-99.8087,40.0016],[-99.8296,40.0016],[-99.8335,40.0016],[-99.8343,40.0016],[-99.8374,40.0016],[-99.8424,40.0016],[-99.844,40.0016],[-99.8475,40.0016],[-99.8477,40.0016],[-99.8531,40.0016],[-99.8542,40.0016],[-99.8724,40.0016],[-99.8906,40.0017],[-99.8906,40.0017],[-99.8906,40.0017],[-99.89,39.6248],[-99.8712,39.6248],[-99.8525,39.6249],[-99.8485,39.5941],[-99.8446,39.5634],[-99.8459,39.4067],[-99.8473,39.2501],[-99.8567,39.2386],[-99.8662,39.227],[-99.8675,39.173],[-99.8689,39.119],[-99.8702,39.065],[-99.8715,39.011],[-99.8553,39.0077],[-99.8392,39.0044],[-99.823,39.0012],[-99.8069,38.9979],[-99.7907,38.9946],[-99.7745,38.9913],[-99.7584,38.988],[-99.7422,38.9848],[-99.7235,38.9805],[-99.7049,38.9761],[-99.6862,38.9718],[-99.6675,38.9675],[-99.6489,38.9632],[-99.6302,38.9589],[-99.6115,38.9546],[-99.5929,38.9502],[-99.5657,38.9465],[-99.5386,38.9427],[-99.5114,38.9389],[-99.4842,38.9351],[-99.4571,38.9313],[-99.4299,38.9275],[-99.4028,38.9236],[-99.3757,38.9198],[-99.3621,38.9146],[-99.3486,38.9094],[-99.335,38.9042],[-99.3215,38.8991],[-99.308,38.8939],[-99.2944,38.8887],[-99.2809,38.8835],[-99.2674,38.8783],[-99.2493,38.8781],[-99.2311,38.878],[-99.213,38.8779],[-99.1949,38.8778],[-99.1768,38.8776],[-99.1586,38.8775],[-99.1405,38.8774],[-99.1224,38.8773],[-99.1011,38.8698],[-99.0798,38.8624],[-99.0517,38.8627],[-99.0235,38.863],[-98.9953,38.8633],[-98.9672,38.8635],[-98.939,38.8638],[-98.9108,38.8641],[-98.8827,38.8643],[-98.8545,38.8646],[-98.8538,38.9913],[-98.8531,39.1181],[-98.8333,39.1181],[-98.8135,39.1182],[-98.7937,39.1182],[-98.7739,39.1182],[-98.7541,39.1182],[-98.7343,39.1182],[-98.7145,39.1182],[-98.6947,39.1182],[-98.694,39.2302],[-98.6933,39.3422],[-98.6927,39.4542],[-98.692,39.5662],[-98.7036,39.5727],[-98.7153,39.5792],[-98.727,39.5856],[-98.7386,39.5921],[-98.7503,39.5985],[-98.762,39.605],[-98.7737,39.6114],[-98.7853,39.6179],[-98.7858,39.7755],[-98.8045,39.7749],[-98.8232,39.7744],[-98.8419,39.7738],[-98.8606,39.7733],[-98.8793,39.7727],[-98.898,39.7721],[-98.9167,39.7716],[-98.9355,39.771],[-98.9347,40.0022],[-98.9347,40.0022]]]},"properties":{"OBJECTID":1083,"state":"Kansas","agency":"Kansas Department of Wildlife and Parks","unit_type":"DMU","unit_id":"3","unit_name":"UNIT 3","unit_label":"Kansas DMU  - UNIT 3","aliases":"2025 | 3 | 3 unit 3 | dmu | dmu 3 | dmu 3 unit 3 | kansas | kansas 3 | kansas 3 unit 3 | kansas department of wildlife and parks | kansas department of wildlife and parks 3 | kansas dmu 3 | kansas dmu 3 unit 3 | kansas dmu unit 3 | unit 3","year":"2025","Shape_Length":444063.76093367743,"Shape_Area":11186688319.719608}},{"type":"Feature","id":1084,"geometry":{"type":"Polygon","coordinates":[[[-98.8545,38.8646],[-98.8303,38.8608],[-98.806,38.857],[-98.7874,38.8566],[-98.7688,38.8562],[-98.7502,38.8558],[-98.7317,38.8553],[-98.7131,38.8549],[-98.6945,38.8545],[-98.6759,38.854],[-98.6573,38.8536],[-98.6387,38.8532],[-98.6201,38.8527],[-98.6015,38.8523],[-98.5829,38.8518],[-98.5643,38.8514],[-98.5457,38.8509],[-98.5272,38.8505],[-98.5086,38.85],[-98.487,38.8499],[-98.4655,38.8499],[-98.4439,38.8498],[-98.4224,38.8498],[-98.4009,38.8497],[-98.3793,38.8496],[-98.3578,38.8496],[-98.3362,38.8495],[-98.3147,38.8494],[-98.2931,38.8493],[-98.2716,38.8492],[-98.2501,38.8491],[-98.2285,38.849],[-98.207,38.8489],[-98.1854,38.8488],[-98.1639,38.8487],[-98.145,38.8525],[-98.1261,38.8562],[-98.1072,38.8599],[-98.0883,38.8636],[-98.0694,38.8673],[-98.0505,38.871],[-98.0315,38.8747],[-98.0126,38.8784],[-97.9897,38.8782],[-97.9667,38.878],[-97.9438,38.8777],[-97.9208,38.8775],[-97.8979,38.8773],[-97.8749,38.8771],[-97.852,38.8768],[-97.829,38.8766],[-97.8061,38.8764],[-97.7831,38.8761],[-97.7602,38.8759],[-97.7372,38.8756],[-97.7143,38.8753],[-97.6913,38.8751],[-97.6684,38.8748],[-97.6454,38.8745],[-97.6425,38.9407],[-97.6396,39.0068],[-97.647,39.0365],[-97.6544,39.0662],[-97.6618,39.0959],[-97.6692,39.1256],[-97.668,39.3047],[-97.6668,39.4838],[-97.6566,39.5079],[-97.6585,39.6174],[-97.6604,39.727],[-97.6562,39.7642],[-97.652,39.8014],[-97.6428,39.8169],[-97.6335,39.8325],[-97.6242,39.848],[-97.615,39.8636],[-97.6135,39.9328],[-97.6121,40.0021],[-97.6121,40.0021],[-97.6317,40.0021],[-97.6514,40.0021],[-97.6541,40.0021],[-97.6772,40.0021],[-97.6778,40.0021],[-97.6985,40.0021],[-97.7018,40.0021],[-97.7256,40.0021],[-97.7493,40.0022],[-97.7507,40.0022],[-97.7776,40.0021],[-97.7778,40.0021],[-97.8079,40.0021],[-97.838,40.0021],[-97.8567,40.0021],[-97.8637,40.0021],[-97.8655,40.0021],[-97.8896,40.0021],[-97.8903,40.0021],[-97.8925,40.0021],[-97.8936,40.0021],[-97.8969,40.0021],[-97.9003,40.0021],[-97.9013,40.0021],[-97.9084,40.0021],[-97.909,40.0021],[-97.9105,40.0021],[-97.9188,40.0021],[-97.9437,40.0021],[-97.9685,40.0021],[-97.9687,40.0021],[-97.9713,40.0021],[-97.972,40.0021],[-97.9911,40.0022],[-98.0102,40.0023],[-98.0111,40.0022],[-98.0134,40.0022],[-98.014,40.0022],[-98.0146,40.0022],[-98.0238,40.0022],[-98.0524,40.0023],[-98.0567,40.0023],[-98.0758,40.0022],[-98.076,40.0022],[-98.076,40.0023],[-98.0761,40.0023],[-98.1028,40.0023],[-98.1054,40.0023],[-98.1077,40.0023],[-98.11,40.0023],[-98.1184,40.0023],[-98.1228,40.0023],[-98.132,40.0023],[-98.1328,40.0023],[-98.1363,40.0023],[-98.1369,40.0023],[-98.1418,40.0024],[-98.1419,40.0025],[-98.1706,40.0024],[-98.1993,40.0024],[-98.1997,40.0024],[-98.216,40.0024],[-98.2323,40.0024],[-98.2376,40.0024],[-98.2452,40.0024],[-98.2453,40.0024],[-98.2682,40.0024],[-98.2912,40.0025],[-98.2921,40.0025],[-98.3027,40.0025],[-98.304,40.0025],[-98.3248,40.0025],[-98.3256,40.0024],[-98.3552,40.0024],[-98.3607,40.0024],[-98.3681,40.0024],[-98.3698,40.0024],[-98.3942,40.0024],[-98.4186,40.0025],[-98.4198,40.0024],[-98.4214,40.0024],[-98.4226,40.0024],[-98.4264,40.0024],[-98.4276,40.0024],[-98.4437,40.0024],[-98.4598,40.0024],[-98.4609,40.0024],[-98.467,40.0024],[-98.4687,40.0024],[-98.4728,40.0024],[-98.4752,40.0024],[-98.4814,40.0024],[-98.4895,40.0024],[-98.494,40.0024],[-98.4965,40.0024],[-98.5138,40.0024],[-98.531,40.0024],[-98.5483,40.0024],[-98.5655,40.0024],[-98.5828,40.0024],[-98.6,40.0024],[-98.6173,40.0024],[-98.6345,40.0024],[-98.6362,40.0024],[-98.6404,40.0024],[-98.6406,40.0025],[-98.6655,40.0025],[-98.6904,40.0025],[-98.6905,40.0025],[-98.6909,40.0025],[-98.691,40.0025],[-98.6955,40.0024],[-98.6988,40.0024],[-98.7,40.0024],[-98.703,40.0024],[-98.7036,40.0024],[-98.7056,40.0024],[-98.7065,40.0024],[-98.7256,40.0023],[-98.7447,40.0023],[-98.745,40.0023],[-98.7467,40.0023],[-98.7475,40.0023],[-98.7549,40.0023],[-98.7557,40.0022],[-98.7598,40.0023],[-98.7612,40.0023],[-98.7618,40.0023],[-98.7629,40.0023],[-98.763,40.0023],[-98.7652,40.0023],[-98.7664,40.0023],[-98.7675,40.0023],[-98.77,40.0023],[-98.7746,40.0023],[-98.7748,40.0023],[-98.7748,40.0023],[-98.777,40.0024],[-98.7772,40.0023],[-98.7774,40.0023],[-98.7842,40.0023],[-98.7843,40.0024],[-98.7879,40.0024],[-98.7894,40.0024],[-98.8078,40.0024],[-98.808,40.0024],[-98.8084,40.0024],[-98.8088,40.0024],[-98.8099,40.0024],[-98.8127,40.0024],[-98.8127,40.0024],[-98.8304,40.0024],[-98.8481,40.0024],[-98.8517,40.0024],[-98.8532,40.0024],[-98.8541,40.0024],[-98.8578,40.0024],[-98.8588,40.0024],[-98.8862,40.0023],[-98.8871,40.0023],[-98.8938,40.0023],[-98.8947,40.0023],[-98.9175,40.0023],[-98.9178,40.0023],[-98.9227,40.0023],[-98.9243,40.0023],[-98.9278,40.0023],[-98.9327,40.0022],[-98.9347,40.0022],[-98.9347,40.0022],[-98.9355,39.771],[-98.9167,39.7716],[-98.898,39.7721],[-98.8793,39.7727],[-98.8606,39.7733],[-98.8419,39.7738],[-98.8232,39.7744],[-98.8045,39.7749],[-98.7858,39.7755],[-98.7853,39.6179],[-98.7737,39.6114],[-98.762,39.605],[-98.7503,39.5985],[-98.7386,39.5921],[-98.727,39.5856],[-98.7153,39.5792],[-98.7036,39.5727],[-98.692,39.5662],[-98.6927,39.4542],[-98.6933,39.3422],[-98.694,39.2302],[-98.6947,39.1182],[-98.7145,39.1182],[-98.7343,39.1182],[-98.7541,39.1182],[-98.7739,39.1182],[-98.7937,39.1182],[-98.8135,39.1182],[-98.8333,39.1181],[-98.8531,39.1181],[-98.8538,38.9913],[-98.8545,38.8646]]]},"properties":{"OBJECTID":1084,"state":"Kansas","agency":"Kansas Department of Wildlife and Parks","unit_type":"DMU","unit_id":"7","unit_name":"UNIT 7","unit_label":"Kansas DMU  - UNIT 7","aliases":"2025 | 7 | 7 unit 7 | dmu | dmu 7 | dmu 7 unit 7 | kansas | kansas 7 | kansas 7 unit 7 | kansas department of wildlife and parks | kansas department of wildlife and parks 7 | kansas dmu 7 | kansas dmu 7 unit 7 | kansas dmu unit 7 | unit 7","year":"2025","Shape_Length":502163.6589873009,"Shape_Area":12440771980.408878}},{"type":"Feature","id":1085,"geometry":{"type":"Polygon","coordinates":[[[-97.6454,38.8745],[-97.6684,38.8748],[-97.6913,38.8751],[-97.7143,38.8753],[-97.7372,38.8756],[-97.7602,38.8759],[-97.7831,38.8761],[-97.8061,38.8764],[-97.829,38.8766],[-97.852,38.8768],[-97.8749,38.8771],[-97.8979,38.8773],[-97.9208,38.8775],[-97.9438,38.8777],[-97.9667,38.878],[-97.9897,38.8782],[-98.0126,38.8784],[-98.0315,38.8747],[-98.0505,38.871],[-98.0694,38.8673],[-98.0883,38.8636],[-98.1072,38.8599],[-98.1261,38.8562],[-98.145,38.8525],[-98.1639,38.8487],[-98.1854,38.8488],[-98.207,38.8489],[-98.2285,38.849],[-98.2501,38.8491],[-98.2716,38.8492],[-98.2931,38.8493],[-98.3147,38.8494],[-98.3362,38.8495],[-98.3578,38.8496],[-98.3793,38.8496],[-98.4009,38.8497],[-98.4224,38.8498],[-98.4439,38.8498],[-98.4655,38.8499],[-98.487,38.8499],[-98.5086,38.85],[-98.5272,38.8505],[-98.5457,38.8509],[-98.5643,38.8514],[-98.5829,38.8518],[-98.6015,38.8523],[-98.6201,38.8527],[-98.6387,38.8532],[-98.6573,38.8536],[-98.6759,38.854],[-98.6945,38.8545],[-98.7131,38.8549],[-98.7317,38.8553],[-98.7502,38.8558],[-98.7688,38.8562],[-98.7874,38.8566],[-98.806,38.857],[-98.8303,38.8608],[-98.8545,38.8646],[-98.8827,38.8643],[-98.9108,38.8641],[-98.939,38.8638],[-98.9672,38.8635],[-98.9953,38.8633],[-99.0235,38.863],[-99.0517,38.8627],[-99.0798,38.8624],[-99.1011,38.8698],[-99.1224,38.8773],[-99.1405,38.8774],[-99.1586,38.8775],[-99.1768,38.8776],[-99.1949,38.8778],[-99.213,38.8779],[-99.2311,38.878],[-99.2493,38.8781],[-99.2674,38.8783],[-99.2809,38.8835],[-99.2944,38.8887],[-99.308,38.8939],[-99.3215,38.8991],[-99.335,38.9042],[-99.3486,38.9094],[-99.3621,38.9146],[-99.3757,38.9198],[-99.4028,38.9236],[-99.4299,38.9275],[-99.4571,38.9313],[-99.4842,38.9351],[-99.5114,38.9389],[-99.5386,38.9427],[-99.5657,38.9465],[-99.5929,38.9502],[-99.6115,38.9546],[-99.6302,38.9589],[-99.6489,38.9632],[-99.6675,38.9675],[-99.6862,38.9718],[-99.7049,38.9761],[-99.7235,38.9805],[-99.7422,38.9848],[-99.7432,38.873],[-99.7249,38.8678],[-99.7272,38.8109],[-99.7296,38.754],[-99.732,38.6971],[-99.7343,38.6401],[-99.7143,38.6402],[-99.6944,38.6402],[-99.6744,38.6403],[-99.6545,38.6403],[-99.6345,38.6403],[-99.6145,38.6404],[-99.5946,38.6404],[-99.5746,38.6404],[-99.5687,38.5967],[-99.5628,38.553],[-99.5467,38.5512],[-99.5306,38.5494],[-99.5145,38.5476],[-99.4984,38.5458],[-99.4823,38.544],[-99.4662,38.5421],[-99.4501,38.5403],[-99.434,38.5385],[-99.4142,38.5385],[-99.3944,38.5384],[-99.3745,38.5384],[-99.3547,38.5384],[-99.3348,38.5383],[-99.315,38.5383],[-99.2952,38.5382],[-99.2753,38.5382],[-99.2555,38.5381],[-99.2356,38.538],[-99.2158,38.538],[-99.196,38.5379],[-99.1761,38.5379],[-99.1563,38.5378],[-99.1364,38.5377],[-99.1166,38.5376],[-99.0968,38.5375],[-99.0769,38.5375],[-99.0571,38.5374],[-99.0372,38.5373],[-99.0174,38.5372],[-98.9976,38.5371],[-98.9777,38.537],[-98.9579,38.5369],[-98.938,38.5368],[-98.9182,38.5367],[-98.8984,38.5366],[-98.8785,38.5364],[-98.8587,38.5363],[-98.8388,38.5362],[-98.819,38.5361],[-98.7992,38.5359],[-98.7895,38.5216],[-98.7638,38.5216],[-98.7381,38.5217],[-98.7124,38.5217],[-98.6868,38.5218],[-98.6611,38.5218],[-98.6354,38.5218],[-98.6097,38.5218],[-98.584,38.5218],[-98.5584,38.5218],[-98.5327,38.5218],[-98.507,38.5218],[-98.4813,38.5218],[-98.4557,38.5218],[-98.43,38.5218],[-98.4043,38.5218],[-98.3786,38.5217],[-98.3565,38.521],[-98.3344,38.5203],[-98.3122,38.5196],[-98.2901,38.5188],[-98.2679,38.5181],[-98.2458,38.5173],[-98.2237,38.5166],[-98.2016,38.5159],[-98.1788,38.5167],[-98.156,38.5175],[-98.1332,38.5183],[-98.1104,38.5191],[-98.0875,38.5199],[-98.0647,38.5207],[-98.0419,38.5215],[-98.0191,38.5223],[-98.0097,38.533],[-98.0002,38.5437],[-97.9908,38.5545],[-97.9813,38.5652],[-97.9633,38.5653],[-97.9452,38.5653],[-97.9272,38.5654],[-97.9091,38.5654],[-97.8911,38.5655],[-97.873,38.5655],[-97.855,38.5656],[-97.8369,38.5656],[-97.8189,38.5656],[-97.8008,38.5657],[-97.7828,38.5657],[-97.7647,38.5657],[-97.7467,38.5658],[-97.7286,38.5658],[-97.7106,38.5658],[-97.6925,38.5658],[-97.6748,38.58],[-97.657,38.5941],[-97.6392,38.6082],[-97.6214,38.6224],[-97.6218,38.7106],[-97.6196,38.7534],[-97.6175,38.7963],[-97.6244,38.8158],[-97.6314,38.8354],[-97.6384,38.855],[-97.6454,38.8745]]]},"properties":{"OBJECTID":1085,"state":"Kansas","agency":"Kansas Department of Wildlife and Parks","unit_type":"DMU","unit_id":"4","unit_name":"UNIT 4","unit_label":"Kansas DMU  - UNIT 4","aliases":"2025 | 4 | 4 unit 4 | dmu | dmu 4 | dmu 4 unit 4 | kansas | kansas 4 | kansas 4 unit 4 | kansas department of wildlife and parks | kansas department of wildlife and parks 4 | kansas dmu 4 | kansas dmu 4 unit 4 | kansas dmu unit 4 | unit 4","year":"2025","Shape_Length":449011.5694481281,"Shape_Area":6798649358.246393}},{"type":"Feature","id":1086,"geometry":{"type":"Polygon","coordinates":[[[-96.6519,36.9991],[-96.6478,37.0549],[-96.6436,37.1107],[-96.6615,37.1108],[-96.6794,37.1108],[-96.6973,37.1109],[-96.7151,37.111],[-96.717,37.1776],[-96.719,37.2442],[-96.7449,37.2443],[-96.7708,37.2444],[-96.7991,37.2439],[-96.8274,37.2434],[-96.8557,37.2429],[-96.884,37.2424],[-96.9123,37.2419],[-96.9406,37.2414],[-96.9689,37.2408],[-96.9972,37.2403],[-96.9997,37.2777],[-97.0023,37.3151],[-97.0048,37.3525],[-97.0073,37.3899],[-97.0336,37.3901],[-97.0599,37.3902],[-97.0861,37.3904],[-97.1124,37.3905],[-97.1269,37.4011],[-97.1413,37.4116],[-97.1558,37.4221],[-97.1703,37.4326],[-97.1848,37.4432],[-97.1992,37.4537],[-97.2137,37.4642],[-97.2282,37.4747],[-97.2519,37.4752],[-97.2756,37.4757],[-97.2992,37.4762],[-97.3229,37.4766],[-97.3256,37.392],[-97.3404,37.3913],[-97.3553,37.3905],[-97.3701,37.3898],[-97.3849,37.389],[-97.3894,37.3518],[-97.3939,37.3146],[-97.3983,37.2775],[-97.4028,37.2403],[-97.402,37.1449],[-97.4012,37.0496],[-97.4269,37.0475],[-97.4526,37.0454],[-97.4784,37.0432],[-97.5041,37.0411],[-97.5298,37.039],[-97.5555,37.0368],[-97.5812,37.0347],[-97.607,37.0325],[-97.6088,36.9987],[-97.5878,36.9988],[-97.5667,36.9988],[-97.5456,36.9989],[-97.5246,36.999],[-97.5035,36.999],[-97.4825,36.9991],[-97.4614,36.9991],[-97.4403,36.9991],[-97.4193,36.9992],[-97.3982,36.9992],[-97.3772,36.9993],[-97.3561,36.9993],[-97.335,36.9993],[-97.314,36.9993],[-97.2929,36.9993],[-97.2719,36.9994],[-97.2508,36.9994],[-97.2297,36.9994],[-97.2087,36.9994],[-97.1876,36.9994],[-97.1666,36.9994],[-97.1455,36.9994],[-97.1245,36.9994],[-97.1034,36.9993],[-97.0823,36.9993],[-97.0613,36.9993],[-97.0402,36.9993],[-97.0192,36.9992],[-96.9981,36.9992],[-96.977,36.9992],[-96.956,36.9991],[-96.9349,36.9991],[-96.9212,36.9992],[-96.9044,36.9992],[-96.8875,36.9992],[-96.8707,36.9992],[-96.8539,36.9992],[-96.837,36.9992],[-96.8202,36.9992],[-96.8034,36.9992],[-96.7865,36.9992],[-96.7697,36.9992],[-96.7529,36.9992],[-96.736,36.9992],[-96.7192,36.9992],[-96.7024,36.9992],[-96.6855,36.9991],[-96.6687,36.9991],[-96.6519,36.9991]]]},"properties":{"OBJECTID":1086,"state":"Kansas","agency":"Kansas Department of Wildlife and Parks","unit_type":"DMU","unit_id":"13","unit_name":"UNIT 13","unit_label":"Kansas DMU  - UNIT 13","aliases":"13 | 13 unit 13 | 2025 | dmu | dmu 13 | dmu 13 unit 13 | kansas | kansas 13 | kansas 13 unit 13 | kansas department of wildlife and parks | kansas department of wildlife and parks 13 | kansas dmu 13 | kansas dmu 13 unit 13 | kansas dmu unit 13 | unit 13","year":"2025","Shape_Length":265554.2959726571,"Shape_Area":2503505912.391768}},{"type":"Feature","id":1087,"geometry":{"type":"Polygon","coordinates":[[[-94.608,38.8839],[-94.6072,39.1056],[-94.5979,39.1284],[-94.5887,39.1512],[-94.6137,39.1592],[-94.6387,39.1672],[-94.6638,39.1752],[-94.6888,39.1832],[-94.7048,39.1808],[-94.7208,39.1784],[-94.7368,39.1759],[-94.7528,39.1735],[-94.7725,39.1841],[-94.7922,39.1947],[-94.812,39.2053],[-94.8317,39.2159],[-94.8275,39.2499],[-94.8452,39.262],[-94.863,39.2742],[-94.8808,39.2863],[-94.8985,39.2985],[-94.8938,39.3454],[-94.889,39.3924],[-94.9155,39.391],[-94.942,39.3895],[-94.9524,39.3989],[-94.9628,39.4083],[-94.9731,39.4177],[-94.9835,39.4271],[-94.9939,39.4365],[-95.0042,39.4459],[-95.0146,39.4553],[-95.025,39.4647],[-95.0354,39.4741],[-95.0457,39.4835],[-95.0561,39.4929],[-95.0665,39.5023],[-95.0769,39.5117],[-95.0873,39.5211],[-95.0977,39.5305],[-95.1081,39.5399],[-95.0953,39.5501],[-95.0825,39.5603],[-95.0697,39.5704],[-95.0569,39.5806],[-95.0488,39.6026],[-95.0408,39.6245],[-95.0327,39.6465],[-95.0246,39.6685],[-95.0108,39.6741],[-94.997,39.6796],[-94.9832,39.6852],[-94.9693,39.6907],[-94.9639,39.7044],[-94.9584,39.718],[-94.953,39.7317],[-94.9475,39.7453],[-94.9251,39.7348],[-94.9026,39.7242],[-94.8917,39.7317],[-94.8808,39.7392],[-94.8699,39.7466],[-94.859,39.7541],[-94.8779,39.7589],[-94.8968,39.7636],[-94.9157,39.7684],[-94.9347,39.7732],[-94.9201,39.7817],[-94.9055,39.7903],[-94.8909,39.7988],[-94.8763,39.8074],[-94.8921,39.8186],[-94.908,39.8297],[-94.924,39.8409],[-94.9399,39.8521],[-94.9339,39.8691],[-94.9279,39.8861],[-94.9497,39.8895],[-94.9715,39.8929],[-94.9933,39.8963],[-95.0151,39.8997],[-95.0252,39.8828],[-95.0353,39.8659],[-95.0563,39.8709],[-95.0773,39.8759],[-95.0983,39.8809],[-95.1193,39.8858],[-95.1404,39.8908],[-95.1614,39.8957],[-95.1824,39.9007],[-95.2035,39.9057],[-95.2166,39.9175],[-95.2297,39.9293],[-95.2428,39.941],[-95.2559,39.9528],[-95.269,39.9646],[-95.2821,39.9764],[-95.2952,39.9882],[-95.3083,40.0],[-95.3275,40.0],[-95.3467,40.0],[-95.35,40.0],[-95.3655,39.9999],[-95.3656,39.9999],[-95.3835,40.0],[-95.4014,40.0001],[-95.4194,40.0002],[-95.4373,40.0002],[-95.4373,40.0002],[-95.4595,40.0002],[-95.4817,40.0001],[-95.4881,40.0001],[-95.4908,40.0001],[-95.4932,40.0001],[-95.5125,40.0001],[-95.5133,40.0001],[-95.5261,40.0002],[-95.5263,40.0002],[-95.5402,40.0001],[-95.5403,40.0],[-95.5407,40.0],[-95.5407,40.0],[-95.5449,40.0002],[-95.5481,40.0002],[-95.5568,40.0002],[-95.5568,40.0002],[-95.5572,40.0002],[-95.5604,40.0002],[-95.5791,40.0003],[-95.5979,40.0003],[-95.6167,40.0003],[-95.6355,40.0003],[-95.6381,40.0003],[-95.6457,40.0003],[-95.6462,40.0004],[-95.6485,40.0004],[-95.6494,40.0003],[-95.6531,40.0003],[-95.6584,40.0003],[-95.6622,40.0003],[-95.6627,40.0003],[-95.6914,40.0004],[-95.7202,40.0004],[-95.7205,40.0005],[-95.7242,40.0005],[-95.7271,40.0005],[-95.728,40.0005],[-95.7289,40.0005],[-95.7318,40.0005],[-95.7319,40.0005],[-95.7439,40.0005],[-95.744,40.0005],[-95.7708,40.0005],[-95.7976,40.0005],[-95.7975,40.0005],[-95.7925,39.9679],[-95.7874,39.9352],[-95.7823,39.9026],[-95.7773,39.87],[-95.7653,39.8566],[-95.7533,39.8432],[-95.7413,39.8299],[-95.7293,39.8165],[-95.7308,39.6968],[-95.7323,39.5772],[-95.7403,39.5636],[-95.7483,39.55],[-95.7481,39.4082],[-95.741,39.3875],[-95.7339,39.3668],[-95.7268,39.3462],[-95.7197,39.3255],[-95.7204,39.2108],[-95.721,39.096],[-95.7332,39.0854],[-95.7453,39.0748],[-95.7574,39.0641],[-95.7696,39.0535],[-95.7535,39.0392],[-95.7374,39.0249],[-95.7214,39.0107],[-95.7054,38.9964],[-95.7005,38.9734],[-95.6956,38.9503],[-95.6907,38.9273],[-95.6859,38.9043],[-95.6844,38.7871],[-95.6829,38.6699],[-95.6853,38.6345],[-95.6877,38.5991],[-95.6901,38.5637],[-95.6925,38.5283],[-95.7014,38.5056],[-95.7104,38.4828],[-95.7193,38.4601],[-95.7282,38.4373],[-95.7285,38.4292],[-95.7285,38.4292],[-95.709,38.4323],[-95.6895,38.4354],[-95.67,38.4385],[-95.6505,38.4416],[-95.6309,38.4447],[-95.6114,38.4477],[-95.5919,38.4508],[-95.5724,38.4539],[-95.5548,38.4603],[-95.5372,38.4668],[-95.5196,38.4732],[-95.502,38.4796],[-95.4844,38.486],[-95.4667,38.4925],[-95.4491,38.4989],[-95.4315,38.5053],[-95.4126,38.517],[-95.3938,38.5286],[-95.3749,38.5403],[-95.356,38.5519],[-95.3408,38.5572],[-95.3255,38.5625],[-95.3103,38.5677],[-95.295,38.573],[-95.2797,38.5783],[-95.2645,38.5835],[-95.2492,38.5888],[-95.2339,38.5941],[-95.232,38.6281],[-95.211,38.6381],[-95.1899,38.6481],[-95.1688,38.658],[-95.1477,38.668],[-95.1266,38.6779],[-95.1055,38.6879],[-95.0844,38.6978],[-95.0632,38.7078],[-95.0486,38.7162],[-95.034,38.7246],[-95.0194,38.733],[-95.0047,38.7414],[-94.9901,38.7498],[-94.9755,38.7582],[-94.9608,38.7666],[-94.9462,38.775],[-94.9315,38.7834],[-94.9169,38.7918],[-94.9022,38.8002],[-94.8876,38.8086],[-94.8729,38.817],[-94.8582,38.8254],[-94.8436,38.8338],[-94.8289,38.8422],[-94.8195,38.8526],[-94.8101,38.863],[-94.8007,38.8734],[-94.7913,38.8838],[-94.7684,38.8838],[-94.7455,38.8838],[-94.7226,38.8839],[-94.6996,38.8839],[-94.6767,38.8839],[-94.6538,38.8839],[-94.6309,38.8839],[-94.608,38.8839]]]},"properties":{"OBJECTID":1087,"state":"Kansas","agency":"Kansas Department of Wildlife and Parks","unit_type":"DMU","unit_id":"10","unit_name":"UNIT 10","unit_label":"Kansas DMU  - UNIT 10","aliases":"10 | 10 unit 10 | 2025 | dmu | dmu 10 | dmu 10 unit 10 | kansas | kansas 10 | kansas 10 unit 10 | kansas department of wildlife and parks | kansas department of wildlife and parks 10 | kansas dmu 10 | kansas dmu 10 unit 10 | kansas dmu unit 10 | unit 10","year":"2025","Shape_Length":543245.0957468181,"Shape_Area":11323693749.519438}},{"type":"Feature","id":1088,"geometry":{"type":"Polygon","coordinates":[[[-95.7285,38.4292],[-95.7288,38.4199],[-95.7311,38.3868],[-95.7335,38.3536],[-95.7358,38.3204],[-95.7382,38.2873],[-95.7386,38.0869],[-95.7389,37.8865],[-95.7389,37.8738],[-95.739,37.8047],[-95.7245,37.7959],[-95.7099,37.787],[-95.7044,37.7648],[-95.6989,37.7426],[-95.6934,37.7204],[-95.6879,37.6982],[-95.6698,37.6856],[-95.6516,37.673],[-95.6536,37.6372],[-95.6557,37.6015],[-95.6577,37.5657],[-95.6597,37.53],[-95.6362,37.5298],[-95.6127,37.5297],[-95.5891,37.5296],[-95.5656,37.5294],[-95.5421,37.5293],[-95.5186,37.5291],[-95.495,37.529],[-95.4715,37.5288],[-95.4713,37.4811],[-95.4796,37.4604],[-95.4879,37.4397],[-95.4963,37.4189],[-95.5046,37.3982],[-95.5129,37.3775],[-95.5212,37.3568],[-95.5295,37.336],[-95.5378,37.3153],[-95.5498,37.2944],[-95.5619,37.2736],[-95.5739,37.2527],[-95.5859,37.2318],[-95.5839,37.139],[-95.5819,37.0463],[-95.5915,37.0345],[-95.6011,37.0228],[-95.6107,37.0111],[-95.6203,36.9994],[-95.6047,36.9994],[-95.589,36.9995],[-95.5733,36.9995],[-95.5577,36.9996],[-95.542,36.9996],[-95.5263,36.9997],[-95.5107,36.9997],[-95.495,36.9998],[-95.4794,36.9998],[-95.4637,36.9998],[-95.448,36.9999],[-95.4324,36.9999],[-95.4167,36.9999],[-95.4011,37.0],[-95.3854,37.0],[-95.3697,37.0],[-95.3541,37.0001],[-95.3384,37.0001],[-95.3227,37.0001],[-95.3071,37.0001],[-95.2914,37.0001],[-95.2758,37.0001],[-95.2601,37.0002],[-95.2444,37.0002],[-95.2288,37.0002],[-95.2131,37.0002],[-95.1975,37.0002],[-95.1818,37.0002],[-95.1661,37.0002],[-95.1505,37.0002],[-95.1348,37.0002],[-95.1191,37.0002],[-95.1035,37.0002],[-95.0878,37.0002],[-95.0722,37.0001],[-95.0565,37.0001],[-95.0408,37.0001],[-95.0252,37.0001],[-95.0095,37.0001],[-94.9938,37.0001],[-94.9782,37.0],[-94.9625,37.0],[-94.9469,37.0],[-94.9312,36.9999],[-94.9155,36.9999],[-94.8999,36.9999],[-94.8842,36.9998],[-94.8686,36.9998],[-94.8529,36.9998],[-94.8372,36.9997],[-94.8216,36.9997],[-94.8059,36.9996],[-94.7902,36.9996],[-94.7746,36.9995],[-94.7589,36.9995],[-94.7433,36.9994],[-94.7276,36.9994],[-94.7119,36.9993],[-94.6963,36.9992],[-94.6806,36.9992],[-94.665,36.9991],[-94.6493,36.9991],[-94.6336,36.999],[-94.618,36.9989],[-94.6177,37.7762],[-94.6165,37.9147],[-94.6153,38.0531],[-94.6141,38.1916],[-94.6129,38.3301],[-94.6117,38.4685],[-94.6104,38.607],[-94.6092,38.7454],[-94.608,38.8839],[-94.6309,38.8839],[-94.6538,38.8839],[-94.6767,38.8839],[-94.6996,38.8839],[-94.7226,38.8839],[-94.7455,38.8838],[-94.7684,38.8838],[-94.7913,38.8838],[-94.8007,38.8734],[-94.8101,38.863],[-94.8195,38.8526],[-94.8289,38.8422],[-94.8436,38.8338],[-94.8582,38.8254],[-94.8729,38.817],[-94.8876,38.8086],[-94.9022,38.8002],[-94.9169,38.7918],[-94.9315,38.7834],[-94.9462,38.775],[-94.9608,38.7666],[-94.9755,38.7582],[-94.9901,38.7498],[-95.0047,38.7414],[-95.0194,38.733],[-95.034,38.7246],[-95.0486,38.7162],[-95.0632,38.7078],[-95.0844,38.6978],[-95.1055,38.6879],[-95.1266,38.6779],[-95.1477,38.668],[-95.1688,38.658],[-95.1899,38.6481],[-95.211,38.6381],[-95.232,38.6281],[-95.2339,38.5941],[-95.2492,38.5888],[-95.2645,38.5835],[-95.2797,38.5783],[-95.295,38.573],[-95.3103,38.5677],[-95.3255,38.5625],[-95.3408,38.5572],[-95.356,38.5519],[-95.3749,38.5403],[-95.3938,38.5286],[-95.4126,38.517],[-95.4315,38.5053],[-95.4491,38.4989],[-95.4667,38.4925],[-95.4844,38.486],[-95.502,38.4796],[-95.5196,38.4732],[-95.5372,38.4668],[-95.5548,38.4603],[-95.5724,38.4539],[-95.5919,38.4508],[-95.6114,38.4477],[-95.6309,38.4447],[-95.6505,38.4416],[-95.67,38.4385],[-95.6895,38.4354],[-95.709,38.4323],[-95.7285,38.4292],[-95.7285,38.4292]]]},"properties":{"OBJECTID":1088,"state":"Kansas","agency":"Kansas Department of Wildlife and Parks","unit_type":"DMU","unit_id":"11","unit_name":"UNIT 11","unit_label":"Kansas DMU  - UNIT 11","aliases":"11 | 11 unit 11 | 2025 | dmu | dmu 11 | dmu 11 unit 11 | kansas | kansas 11 | kansas 11 unit 11 | kansas department of wildlife and parks | kansas department of wildlife and parks 11 | kansas dmu 11 | kansas dmu 11 unit 11 | kansas dmu unit 11 | unit 11","year":"2025","Shape_Length":596559.8343510416,"Shape_Area":16980290421.720331}},{"type":"Feature","id":1089,"geometry":{"type":"Polygon","coordinates":[[[-97.0073,37.3899],[-97.0074,37.5108],[-97.0008,37.5248],[-96.9942,37.5388],[-96.9877,37.5528],[-96.9811,37.5668],[-96.9802,37.6794],[-96.9631,37.679],[-96.9461,37.6787],[-96.9291,37.6783],[-96.912,37.678],[-96.895,37.6776],[-96.878,37.6772],[-96.8609,37.6769],[-96.8439,37.6765],[-96.8453,37.7383],[-96.8467,37.8001],[-96.8481,37.8619],[-96.8495,37.9237],[-96.8523,37.9601],[-96.855,37.9964],[-96.8578,38.0328],[-96.8606,38.0691],[-96.8741,38.0886],[-96.8876,38.108],[-96.9011,38.1275],[-96.9146,38.1469],[-96.9201,38.1711],[-96.9256,38.1954],[-96.9311,38.2196],[-96.9366,38.2439],[-96.9543,38.2352],[-96.972,38.2265],[-96.9897,38.2177],[-97.0073,38.209],[-97.025,38.2003],[-97.0427,38.1915],[-97.0604,38.1828],[-97.078,38.1741],[-97.1053,38.1743],[-97.1326,38.1745],[-97.1599,38.1748],[-97.1872,38.175],[-97.2042,38.1611],[-97.2211,38.1471],[-97.238,38.1332],[-97.255,38.1192],[-97.2719,38.1053],[-97.2888,38.0913],[-97.3057,38.0774],[-97.3226,38.0635],[-97.3285,38.045],[-97.3344,38.0265],[-97.3521,38.0266],[-97.3697,38.0267],[-97.3874,38.0268],[-97.4051,38.0269],[-97.4228,38.027],[-97.4405,38.0271],[-97.4582,38.0272],[-97.4758,38.0273],[-97.4935,38.0274],[-97.5112,38.0275],[-97.5289,38.0275],[-97.5466,38.0276],[-97.5643,38.0277],[-97.5819,38.0278],[-97.5996,38.0278],[-97.6173,38.0279],[-97.635,38.028],[-97.6527,38.0281],[-97.6703,38.0281],[-97.688,38.0282],[-97.7057,38.0282],[-97.7234,38.0283],[-97.7411,38.0283],[-97.7588,38.0284],[-97.7764,38.0284],[-97.7941,38.0285],[-97.8118,38.0285],[-97.8295,38.0286],[-97.8472,38.0286],[-97.8649,38.0286],[-97.8825,38.0287],[-97.9002,38.0287],[-97.9246,38.0251],[-97.9489,38.0214],[-97.9733,38.0178],[-97.9976,38.0141],[-98.0111,38.0068],[-98.0247,37.9994],[-98.0382,37.992],[-98.0517,37.9846],[-98.0546,37.9845],[-98.0581,37.9845],[-98.0595,37.9844],[-98.0612,37.9844],[-98.0902,37.985],[-98.1152,37.985],[-98.1296,37.9848],[-98.1316,37.9848],[-98.1343,37.9848],[-98.136,37.9848],[-98.1367,37.9848],[-98.1525,37.985],[-98.1784,37.9851],[-98.2039,37.985],[-98.2294,37.985],[-98.2548,37.9849],[-98.2803,37.9848],[-98.3058,37.9847],[-98.3312,37.9846],[-98.3567,37.9845],[-98.3822,37.9844],[-98.3945,37.97],[-98.4068,37.9555],[-98.4281,37.9556],[-98.4493,37.9556],[-98.4706,37.9557],[-98.4919,37.9557],[-98.5131,37.9557],[-98.5344,37.9558],[-98.5556,37.9558],[-98.5769,37.9558],[-98.5982,37.9559],[-98.6194,37.9559],[-98.6407,37.9559],[-98.6619,37.9559],[-98.6832,37.9559],[-98.7045,37.9559],[-98.7257,37.9559],[-98.747,37.9559],[-98.7435,37.8886],[-98.74,37.8213],[-98.7394,37.5416],[-98.7255,37.5313],[-98.7116,37.5209],[-98.6977,37.5106],[-98.6838,37.5002],[-98.6684,37.5002],[-98.6529,37.5001],[-98.6375,37.5001],[-98.6221,37.5],[-98.6066,37.5],[-98.5912,37.4999],[-98.5757,37.4999],[-98.5603,37.4998],[-98.5545,37.4709],[-98.5391,37.471],[-98.5236,37.471],[-98.5082,37.471],[-98.4927,37.471],[-98.4773,37.4711],[-98.4618,37.4711],[-98.4464,37.4711],[-98.4309,37.4711],[-98.4248,37.4421],[-98.4084,37.4424],[-98.3921,37.4426],[-98.3758,37.4429],[-98.3594,37.4431],[-98.3431,37.4433],[-98.3268,37.4435],[-98.3104,37.4438],[-98.2941,37.444],[-98.2778,37.4442],[-98.2614,37.4444],[-98.2451,37.4447],[-98.2288,37.4449],[-98.2124,37.4451],[-98.1961,37.4453],[-98.1798,37.4455],[-98.1634,37.4457],[-98.143,37.4486],[-98.1225,37.4516],[-98.102,37.4545],[-98.0815,37.4574],[-98.078,37.4288],[-98.0744,37.4003],[-98.0708,37.3717],[-98.0673,37.3431],[-98.0604,37.3327],[-98.0535,37.3223],[-98.0466,37.3119],[-98.0398,37.3015],[-98.0388,37.1772],[-98.0379,37.0529],[-98.0417,37.0256],[-98.0455,36.9984],[-98.0182,36.9985],[-97.9909,36.9985],[-97.9636,36.9986],[-97.9363,36.9986],[-97.909,36.9987],[-97.8817,36.9987],[-97.8544,36.9987],[-97.8272,36.9987],[-97.7999,36.9988],[-97.7726,36.9988],[-97.7453,36.9988],[-97.718,36.9988],[-97.6907,36.9988],[-97.6634,36.9987],[-97.6361,36.9987],[-97.6088,36.9987],[-97.607,37.0325],[-97.5812,37.0347],[-97.5555,37.0368],[-97.5298,37.039],[-97.5041,37.0411],[-97.4784,37.0432],[-97.4526,37.0454],[-97.4269,37.0475],[-97.4012,37.0496],[-97.402,37.1449],[-97.4028,37.2403],[-97.3983,37.2775],[-97.3939,37.3146],[-97.3894,37.3518],[-97.3849,37.389],[-97.3701,37.3898],[-97.3553,37.3905],[-97.3404,37.3913],[-97.3256,37.392],[-97.3229,37.4766],[-97.2992,37.4762],[-97.2756,37.4757],[-97.2519,37.4752],[-97.2282,37.4747],[-97.2137,37.4642],[-97.1992,37.4537],[-97.1848,37.4432],[-97.1703,37.4326],[-97.1558,37.4221],[-97.1413,37.4116],[-97.1269,37.4011],[-97.1124,37.3905],[-97.0861,37.3904],[-97.0599,37.3902],[-97.0336,37.3901],[-97.0073,37.3899]]]},"properties":{"OBJECTID":1089,"state":"Kansas","agency":"Kansas Department of Wildlife and Parks","unit_type":"DMU","unit_id":"15","unit_name":"UNIT 15","unit_label":"Kansas DMU  - UNIT 15","aliases":"15 | 15 unit 15 | 2025 | dmu | dmu 15 | dmu 15 unit 15 | kansas | kansas 15 | kansas 15 unit 15 | kansas department of wildlife and parks | kansas department of wildlife and parks 15 | kansas dmu 15 | kansas dmu 15 unit 15 | kansas dmu unit 15 | unit 15","year":"2025","Shape_Length":589403.4506468222,"Shape_Area":13366175022.133484}},{"type":"Feature","id":1090,"geometry":{"type":"Polygon","coordinates":[[[-96.6519,36.9991],[-96.6293,36.9992],[-96.6067,36.9992],[-96.5841,36.9993],[-96.5615,36.9994],[-96.5389,36.9994],[-96.5163,36.9995],[-96.4937,36.9995],[-96.4711,36.9996],[-96.4485,36.9996],[-96.4259,36.9996],[-96.4033,36.9997],[-96.3807,36.9997],[-96.3581,36.9997],[-96.3355,36.9997],[-96.3129,36.9997],[-96.2903,36.9998],[-96.2677,36.9998],[-96.2451,36.9998],[-96.2225,36.9998],[-96.1999,36.9998],[-96.1773,36.9997],[-96.1547,36.9997],[-96.1321,36.9997],[-96.1095,36.9997],[-96.0869,36.9996],[-96.0643,36.9996],[-96.0417,36.9996],[-96.0191,36.9995],[-95.9965,36.9995],[-95.9739,36.9994],[-95.9514,36.9994],[-95.9288,36.9993],[-95.9263,36.9993],[-95.9254,36.9993],[-95.9166,36.9993],[-95.9162,36.9993],[-95.9119,36.9993],[-95.9116,36.9993],[-95.9069,36.9993],[-95.8911,36.9993],[-95.8753,36.9993],[-95.8593,36.9993],[-95.8434,36.9993],[-95.8275,36.9993],[-95.8115,36.9993],[-95.7956,36.9994],[-95.7797,36.9994],[-95.7637,36.9994],[-95.7478,36.9994],[-95.7319,36.9994],[-95.7159,36.9994],[-95.7,36.9994],[-95.6841,36.9994],[-95.6681,36.9994],[-95.6522,36.9994],[-95.6363,36.9994],[-95.6203,36.9994],[-95.6107,37.0111],[-95.6011,37.0228],[-95.5915,37.0345],[-95.5819,37.0463],[-95.5839,37.139],[-95.5859,37.2318],[-95.5739,37.2527],[-95.5619,37.2736],[-95.5498,37.2944],[-95.5378,37.3153],[-95.5295,37.336],[-95.5212,37.3568],[-95.5129,37.3775],[-95.5046,37.3982],[-95.4963,37.4189],[-95.4879,37.4397],[-95.4796,37.4604],[-95.4713,37.4811],[-95.4715,37.5288],[-95.495,37.529],[-95.5186,37.5291],[-95.5421,37.5293],[-95.5656,37.5294],[-95.5891,37.5296],[-95.6127,37.5297],[-95.6362,37.5298],[-95.6597,37.53],[-95.6577,37.5657],[-95.6557,37.6015],[-95.6536,37.6372],[-95.6516,37.673],[-95.6698,37.6856],[-95.6879,37.6982],[-95.6934,37.7204],[-95.6989,37.7426],[-95.7044,37.7648],[-95.7099,37.787],[-95.7245,37.7959],[-95.739,37.8047],[-95.7389,37.8738],[-95.7389,37.8793],[-95.7535,37.8739],[-95.768,37.8686],[-95.7826,37.8632],[-95.7972,37.8578],[-95.8117,37.8524],[-95.8263,37.847],[-95.8408,37.8416],[-95.8554,37.8362],[-95.8761,37.8363],[-95.8968,37.8364],[-95.9175,37.8365],[-95.9382,37.8366],[-95.9589,37.8366],[-95.9796,37.8367],[-96.0003,37.8368],[-96.021,37.8369],[-96.0417,37.8369],[-96.0624,37.837],[-96.0831,37.8371],[-96.1038,37.8371],[-96.1246,37.8372],[-96.1453,37.8372],[-96.166,37.8373],[-96.1867,37.8373],[-96.2107,37.8274],[-96.2348,37.8175],[-96.2322,37.7872],[-96.2297,37.7568],[-96.2272,37.7264],[-96.2247,37.696],[-96.2318,37.6812],[-96.2389,37.6663],[-96.246,37.6514],[-96.2531,37.6365],[-96.2532,37.459],[-96.2603,37.4367],[-96.2674,37.4144],[-96.2745,37.3921],[-96.2816,37.3699],[-96.2956,37.3646],[-96.3096,37.3594],[-96.3256,37.3589],[-96.3415,37.3583],[-96.3575,37.3578],[-96.3735,37.3573],[-96.3894,37.3567],[-96.4054,37.3562],[-96.4214,37.3557],[-96.4373,37.3551],[-96.4533,37.3546],[-96.4693,37.354],[-96.4852,37.3535],[-96.5012,37.3529],[-96.5171,37.3524],[-96.5331,37.3518],[-96.5491,37.3513],[-96.565,37.3507],[-96.578,37.3377],[-96.591,37.3247],[-96.6133,37.3237],[-96.6356,37.3226],[-96.6579,37.3216],[-96.6802,37.3205],[-96.7025,37.3195],[-96.7248,37.3184],[-96.747,37.3173],[-96.7693,37.3163],[-96.7708,37.2444],[-96.7449,37.2443],[-96.719,37.2442],[-96.717,37.1776],[-96.7151,37.111],[-96.6973,37.1109],[-96.6794,37.1108],[-96.6615,37.1108],[-96.6436,37.1107],[-96.6478,37.0549],[-96.6519,36.9991]]]},"properties":{"OBJECTID":1090,"state":"Kansas","agency":"Kansas Department of Wildlife and Parks","unit_type":"DMU","unit_id":"12","unit_name":"UNIT 12","unit_label":"Kansas DMU  - UNIT 12","aliases":"12 | 12 unit 12 | 2025 | dmu | dmu 12 | dmu 12 unit 12 | kansas | kansas 12 | kansas 12 unit 12 | kansas department of wildlife and parks | kansas department of wildlife and parks 12 | kansas dmu 12 | kansas dmu 12 unit 12 | kansas dmu unit 12 | unit 12","year":"2025","Shape_Length":398276.3673591719,"Shape_Area":6944047932.335384}},{"type":"Feature","id":1091,"geometry":{"type":"Polygon","coordinates":[[[-99.5628,38.553],[-99.5687,38.5967],[-99.5746,38.6404],[-99.5946,38.6404],[-99.6145,38.6404],[-99.6345,38.6403],[-99.6545,38.6403],[-99.6744,38.6403],[-99.6944,38.6402],[-99.7143,38.6402],[-99.7343,38.6401],[-99.755,38.6396],[-99.7757,38.6391],[-99.7965,38.6385],[-99.8172,38.638],[-99.8379,38.6374],[-99.8586,38.6368],[-99.8793,38.6363],[-99.9,38.6357],[-99.8986,38.4988],[-99.8971,38.362],[-99.8957,38.2251],[-99.8943,38.0882],[-99.8781,38.0889],[-99.8618,38.0896],[-99.8456,38.0902],[-99.8294,38.0909],[-99.8131,38.0915],[-99.7969,38.0922],[-99.7807,38.0928],[-99.7644,38.0935],[-99.7529,38.1005],[-99.7413,38.1075],[-99.7297,38.1145],[-99.7182,38.1215],[-99.7066,38.1285],[-99.695,38.1355],[-99.6834,38.1425],[-99.6719,38.1495],[-99.6554,38.1545],[-99.6389,38.1595],[-99.6224,38.1646],[-99.6059,38.1696],[-99.5894,38.1746],[-99.5729,38.1796],[-99.5564,38.1847],[-99.5398,38.1897],[-99.5117,38.1897],[-99.4835,38.1897],[-99.4553,38.1897],[-99.4271,38.1897],[-99.3989,38.1897],[-99.3707,38.1896],[-99.3425,38.1896],[-99.3144,38.1896],[-99.3142,38.0122],[-99.3261,38.0005],[-99.3381,37.9889],[-99.3501,37.9772],[-99.3621,37.9655],[-99.374,37.9538],[-99.386,37.9421],[-99.398,37.9305],[-99.4099,37.9188],[-99.3909,37.9203],[-99.3719,37.9217],[-99.3529,37.9232],[-99.3339,37.9247],[-99.3149,37.9261],[-99.2959,37.9276],[-99.2769,37.9291],[-99.2579,37.9305],[-99.2389,37.932],[-99.2199,37.9334],[-99.2009,37.9349],[-99.1819,37.9363],[-99.1629,37.9378],[-99.1439,37.9392],[-99.1249,37.9406],[-99.1059,37.9421],[-99.0808,37.9457],[-99.0557,37.9494],[-99.0306,37.9531],[-99.0055,37.9567],[-98.9893,37.9567],[-98.9732,37.9567],[-98.957,37.9566],[-98.9408,37.9566],[-98.9247,37.9565],[-98.9085,37.9565],[-98.8924,37.9564],[-98.8762,37.9564],[-98.8601,37.9563],[-98.8439,37.9563],[-98.8278,37.9562],[-98.8116,37.9562],[-98.7954,37.9561],[-98.7793,37.956],[-98.7631,37.956],[-98.747,37.9559],[-98.7257,37.9559],[-98.7045,37.9559],[-98.6832,37.9559],[-98.6619,37.9559],[-98.6407,37.9559],[-98.6194,37.9559],[-98.5982,37.9559],[-98.5769,37.9558],[-98.5556,37.9558],[-98.5344,37.9558],[-98.5131,37.9557],[-98.4919,37.9557],[-98.4706,37.9557],[-98.4493,37.9556],[-98.4281,37.9556],[-98.4068,37.9555],[-98.3945,37.97],[-98.3822,37.9844],[-98.3567,37.9845],[-98.3312,37.9846],[-98.3058,37.9847],[-98.2803,37.9848],[-98.2548,37.9849],[-98.2294,37.985],[-98.2039,37.985],[-98.1784,37.9851],[-98.1792,38.1271],[-98.1791,38.1446],[-98.1928,38.1506],[-98.2065,38.1566],[-98.2053,38.2464],[-98.2041,38.3362],[-98.2028,38.4261],[-98.2016,38.5159],[-98.2237,38.5166],[-98.2458,38.5173],[-98.2679,38.5181],[-98.2901,38.5188],[-98.3122,38.5196],[-98.3344,38.5203],[-98.3565,38.521],[-98.3786,38.5217],[-98.4043,38.5218],[-98.43,38.5218],[-98.4557,38.5218],[-98.4813,38.5218],[-98.507,38.5218],[-98.5327,38.5218],[-98.5584,38.5218],[-98.584,38.5218],[-98.6097,38.5218],[-98.6354,38.5218],[-98.6611,38.5218],[-98.6868,38.5218],[-98.7124,38.5217],[-98.7381,38.5217],[-98.7638,38.5216],[-98.7895,38.5216],[-98.7992,38.5359],[-98.819,38.5361],[-98.8388,38.5362],[-98.8587,38.5363],[-98.8785,38.5364],[-98.8984,38.5366],[-98.9182,38.5367],[-98.938,38.5368],[-98.9579,38.5369],[-98.9777,38.537],[-98.9976,38.5371],[-99.0174,38.5372],[-99.0372,38.5373],[-99.0571,38.5374],[-99.0769,38.5375],[-99.0968,38.5375],[-99.1166,38.5376],[-99.1364,38.5377],[-99.1563,38.5378],[-99.1761,38.5379],[-99.196,38.5379],[-99.2158,38.538],[-99.2356,38.538],[-99.2555,38.5381],[-99.2753,38.5382],[-99.2952,38.5382],[-99.315,38.5383],[-99.3348,38.5383],[-99.3547,38.5384],[-99.3745,38.5384],[-99.3944,38.5384],[-99.4142,38.5385],[-99.434,38.5385],[-99.4501,38.5403],[-99.4662,38.5421],[-99.4823,38.544],[-99.4984,38.5458],[-99.5145,38.5476],[-99.5306,38.5494],[-99.5467,38.5512],[-99.5628,38.553]]]},"properties":{"OBJECTID":1091,"state":"Kansas","agency":"Kansas Department of Wildlife and Parks","unit_type":"DMU","unit_id":"5","unit_name":"UNIT 5","unit_label":"Kansas DMU  - UNIT 5","aliases":"2025 | 5 | 5 unit 5 | dmu | dmu 5 | dmu 5 unit 5 | kansas | kansas 5 | kansas 5 unit 5 | kansas department of wildlife and parks | kansas department of wildlife and parks 5 | kansas dmu 5 | kansas dmu 5 unit 5 | kansas dmu unit 5 | unit 5","year":"2025","Shape_Length":474652.0309163696,"Shape_Area":8771785310.556593}},{"type":"Feature","id":1092,"geometry":{"type":"Polygon","coordinates":[[[-95.7696,39.0535],[-95.7944,39.0538],[-95.8192,39.0542],[-95.844,39.0545],[-95.8688,39.0548],[-95.8936,39.0552],[-95.9184,39.0555],[-95.9432,39.0558],[-95.968,39.0561],[-95.9929,39.0564],[-96.0177,39.0567],[-96.0425,39.057],[-96.0673,39.0573],[-96.0921,39.0575],[-96.1169,39.0578],[-96.1417,39.0581],[-96.1665,39.0584],[-96.1802,39.0621],[-96.1939,39.0659],[-96.2155,39.0657],[-96.237,39.0655],[-96.2585,39.0653],[-96.2801,39.0652],[-96.3016,39.065],[-96.3231,39.0648],[-96.3447,39.0646],[-96.3662,39.0644],[-96.3877,39.0642],[-96.4093,39.064],[-96.4308,39.0638],[-96.4523,39.0636],[-96.4739,39.0634],[-96.4954,39.0631],[-96.5169,39.0629],[-96.5385,39.0627],[-96.5635,39.0624],[-96.5885,39.0621],[-96.6135,39.0618],[-96.6385,39.0615],[-96.6635,39.0612],[-96.6885,39.0609],[-96.7135,39.0606],[-96.7385,39.0602],[-96.7533,39.0516],[-96.7681,39.0429],[-96.7829,39.0342],[-96.7977,39.0255],[-96.8125,39.0168],[-96.8273,39.0081],[-96.8422,38.9994],[-96.8569,38.9907],[-96.855,38.9165],[-96.853,38.8423],[-96.8704,38.8309],[-96.8879,38.8194],[-96.9053,38.808],[-96.9227,38.7965],[-96.9264,38.7463],[-96.9301,38.6961],[-96.9395,38.6686],[-96.9488,38.6411],[-96.9511,38.5982],[-96.9533,38.5554],[-96.9555,38.5126],[-96.9577,38.4698],[-96.9599,38.427],[-96.9621,38.3842],[-96.9643,38.3413],[-96.9666,38.2985],[-96.9591,38.2849],[-96.9516,38.2712],[-96.9441,38.2576],[-96.9366,38.2439],[-96.9311,38.2196],[-96.9256,38.1954],[-96.9201,38.1711],[-96.9146,38.1469],[-96.9011,38.1275],[-96.8876,38.108],[-96.8741,38.0886],[-96.8606,38.0691],[-96.8578,38.0328],[-96.855,37.9964],[-96.8523,37.9601],[-96.8495,37.9237],[-96.8481,37.8619],[-96.8467,37.8001],[-96.8453,37.7383],[-96.8439,37.6765],[-96.8609,37.6769],[-96.878,37.6772],[-96.895,37.6776],[-96.912,37.678],[-96.9291,37.6783],[-96.9461,37.6787],[-96.9631,37.679],[-96.9802,37.6794],[-96.9811,37.5668],[-96.9877,37.5528],[-96.9942,37.5388],[-97.0008,37.5248],[-97.0074,37.5108],[-97.0073,37.3899],[-97.0048,37.3525],[-97.0023,37.3151],[-96.9997,37.2777],[-96.9972,37.2403],[-96.9689,37.2408],[-96.9406,37.2414],[-96.9123,37.2419],[-96.884,37.2424],[-96.8557,37.2429],[-96.8274,37.2434],[-96.7991,37.2439],[-96.7708,37.2444],[-96.7693,37.3163],[-96.747,37.3173],[-96.7248,37.3184],[-96.7025,37.3195],[-96.6802,37.3205],[-96.6579,37.3216],[-96.6356,37.3226],[-96.6133,37.3237],[-96.591,37.3247],[-96.578,37.3377],[-96.565,37.3507],[-96.5491,37.3513],[-96.5331,37.3518],[-96.5171,37.3524],[-96.5012,37.3529],[-96.4852,37.3535],[-96.4693,37.354],[-96.4533,37.3546],[-96.4373,37.3551],[-96.4214,37.3557],[-96.4054,37.3562],[-96.3894,37.3567],[-96.3735,37.3573],[-96.3575,37.3578],[-96.3415,37.3583],[-96.3256,37.3589],[-96.3096,37.3594],[-96.2956,37.3646],[-96.2816,37.3699],[-96.2745,37.3921],[-96.2674,37.4144],[-96.2603,37.4367],[-96.2532,37.459],[-96.2531,37.6365],[-96.246,37.6514],[-96.2389,37.6663],[-96.2318,37.6812],[-96.2247,37.696],[-96.2272,37.7264],[-96.2297,37.7568],[-96.2322,37.7872],[-96.2348,37.8175],[-96.2107,37.8274],[-96.1867,37.8373],[-96.166,37.8373],[-96.1453,37.8372],[-96.1246,37.8372],[-96.1038,37.8371],[-96.0831,37.8371],[-96.0624,37.837],[-96.0417,37.8369],[-96.021,37.8369],[-96.0003,37.8368],[-95.9796,37.8367],[-95.9589,37.8366],[-95.9382,37.8366],[-95.9175,37.8365],[-95.8968,37.8364],[-95.8761,37.8363],[-95.8554,37.8362],[-95.8408,37.8416],[-95.8263,37.847],[-95.8117,37.8524],[-95.7972,37.8578],[-95.7826,37.8632],[-95.768,37.8686],[-95.7535,37.8739],[-95.7389,37.8793],[-95.7389,37.8865],[-95.7386,38.0869],[-95.7382,38.2873],[-95.7358,38.3204],[-95.7335,38.3536],[-95.7311,38.3868],[-95.7288,38.4199],[-95.7285,38.4292],[-95.7282,38.4373],[-95.7193,38.4601],[-95.7104,38.4828],[-95.7014,38.5056],[-95.6925,38.5283],[-95.6901,38.5637],[-95.6877,38.5991],[-95.6853,38.6345],[-95.6829,38.6699],[-95.6844,38.7871],[-95.6859,38.9043],[-95.6907,38.9273],[-95.6956,38.9503],[-95.7005,38.9734],[-95.7054,38.9964],[-95.7214,39.0107],[-95.7374,39.0249],[-95.7535,39.0392],[-95.7696,39.0535]]]},"properties":{"OBJECTID":1092,"state":"Kansas","agency":"Kansas Department of Wildlife and Parks","unit_type":"DMU","unit_id":"14","unit_name":"UNIT 14","unit_label":"Kansas DMU  - UNIT 14","aliases":"14 | 14 unit 14 | 2025 | dmu | dmu 14 | dmu 14 unit 14 | kansas | kansas 14 | kansas 14 unit 14 | kansas department of wildlife and parks | kansas department of wildlife and parks 14 | kansas dmu 14 | kansas dmu 14 unit 14 | kansas dmu unit 14 | unit 14","year":"2025","Shape_Length":612392.0629516096,"Shape_Area":17661470217.051006}},{"type":"Feature","id":1093,"geometry":{"type":"Polygon","coordinates":[[[-98.2065,38.1566],[-98.1928,38.1506],[-98.1791,38.1446],[-98.1792,38.1271],[-98.1784,37.9851],[-98.1525,37.985],[-98.1367,37.9848],[-98.136,37.9848],[-98.1343,37.9848],[-98.1316,37.9848],[-98.1296,37.9848],[-98.1152,37.985],[-98.0902,37.985],[-98.0612,37.9844],[-98.0595,37.9844],[-98.0581,37.9845],[-98.0546,37.9845],[-98.0517,37.9846],[-98.0382,37.992],[-98.0247,37.9994],[-98.0111,38.0068],[-97.9976,38.0141],[-97.9733,38.0178],[-97.9489,38.0214],[-97.9246,38.0251],[-97.9002,38.0287],[-97.8825,38.0287],[-97.8649,38.0286],[-97.8472,38.0286],[-97.8295,38.0286],[-97.8118,38.0285],[-97.7941,38.0285],[-97.7764,38.0284],[-97.7588,38.0284],[-97.7411,38.0283],[-97.7234,38.0283],[-97.7057,38.0282],[-97.688,38.0282],[-97.6703,38.0281],[-97.6527,38.0281],[-97.635,38.028],[-97.6173,38.0279],[-97.5996,38.0278],[-97.5819,38.0278],[-97.5643,38.0277],[-97.5466,38.0276],[-97.5289,38.0275],[-97.5112,38.0275],[-97.4935,38.0274],[-97.4758,38.0273],[-97.4582,38.0272],[-97.4405,38.0271],[-97.4228,38.027],[-97.4051,38.0269],[-97.3874,38.0268],[-97.3697,38.0267],[-97.3521,38.0266],[-97.3344,38.0265],[-97.3285,38.045],[-97.3226,38.0635],[-97.3057,38.0774],[-97.2888,38.0913],[-97.2719,38.1053],[-97.255,38.1192],[-97.238,38.1332],[-97.2211,38.1471],[-97.2042,38.1611],[-97.1872,38.175],[-97.1599,38.1748],[-97.1326,38.1745],[-97.1053,38.1743],[-97.078,38.1741],[-97.0604,38.1828],[-97.0427,38.1915],[-97.025,38.2003],[-97.0073,38.209],[-96.9897,38.2177],[-96.972,38.2265],[-96.9543,38.2352],[-96.9366,38.2439],[-96.9441,38.2576],[-96.9516,38.2712],[-96.9591,38.2849],[-96.9666,38.2985],[-96.9643,38.3413],[-96.9621,38.3842],[-96.9599,38.427],[-96.9577,38.4698],[-96.9555,38.5126],[-96.9533,38.5554],[-96.9511,38.5982],[-96.9488,38.6411],[-96.9395,38.6686],[-96.9301,38.6961],[-96.9485,38.6961],[-96.9668,38.6961],[-96.9852,38.6961],[-97.0036,38.6961],[-97.022,38.6961],[-97.0403,38.6961],[-97.0587,38.6961],[-97.0771,38.6961],[-97.0796,38.6818],[-97.0996,38.6818],[-97.1196,38.6818],[-97.1396,38.6819],[-97.1596,38.6819],[-97.1796,38.6819],[-97.1996,38.6819],[-97.2195,38.6819],[-97.2395,38.6819],[-97.2595,38.6819],[-97.2795,38.6819],[-97.2995,38.6819],[-97.3195,38.6819],[-97.3395,38.6819],[-97.3594,38.6818],[-97.3794,38.6818],[-97.3994,38.6818],[-97.4141,38.6963],[-97.4288,38.7108],[-97.4529,38.7108],[-97.4771,38.7108],[-97.5012,38.7108],[-97.5253,38.7107],[-97.5495,38.7107],[-97.5736,38.7107],[-97.5977,38.7106],[-97.6218,38.7106],[-97.6214,38.6224],[-97.6392,38.6082],[-97.657,38.5941],[-97.6748,38.58],[-97.6925,38.5658],[-97.7106,38.5658],[-97.7286,38.5658],[-97.7467,38.5658],[-97.7647,38.5657],[-97.7828,38.5657],[-97.8008,38.5657],[-97.8189,38.5656],[-97.8369,38.5656],[-97.855,38.5656],[-97.873,38.5655],[-97.8911,38.5655],[-97.9091,38.5654],[-97.9272,38.5654],[-97.9452,38.5653],[-97.9633,38.5653],[-97.9813,38.5652],[-97.9908,38.5545],[-98.0002,38.5437],[-98.0097,38.533],[-98.0191,38.5223],[-98.0419,38.5215],[-98.0647,38.5207],[-98.0875,38.5199],[-98.1104,38.5191],[-98.1332,38.5183],[-98.156,38.5175],[-98.1788,38.5167],[-98.2016,38.5159],[-98.2028,38.4261],[-98.2041,38.3362],[-98.2053,38.2464],[-98.2065,38.1566]]]},"properties":{"OBJECTID":1093,"state":"Kansas","agency":"Kansas Department of Wildlife and Parks","unit_type":"DMU","unit_id":"6","unit_name":"UNIT 6","unit_label":"Kansas DMU  - UNIT 6","aliases":"2025 | 6 | 6 unit 6 | dmu | dmu 6 | dmu 6 unit 6 | kansas | kansas 6 | kansas 6 unit 6 | kansas department of wildlife and parks | kansas department of wildlife and parks 6 | kansas dmu 6 | kansas dmu 6 unit 6 | kansas dmu unit 6 | unit 6","year":"2025","Shape_Length":360202.41487331607,"Shape_Area":6830809358.572517}},{"type":"Feature","id":1094,"geometry":{"type":"Polygon","coordinates":[[[-96.5385,39.0627],[-96.5169,39.0629],[-96.4954,39.0631],[-96.4739,39.0634],[-96.4523,39.0636],[-96.4308,39.0638],[-96.4093,39.064],[-96.3877,39.0642],[-96.3662,39.0644],[-96.3447,39.0646],[-96.3231,39.0648],[-96.3016,39.065],[-96.2801,39.0652],[-96.2585,39.0653],[-96.237,39.0655],[-96.2155,39.0657],[-96.1939,39.0659],[-96.1802,39.0621],[-96.1665,39.0584],[-96.1417,39.0581],[-96.1169,39.0578],[-96.0921,39.0575],[-96.0673,39.0573],[-96.0425,39.057],[-96.0177,39.0567],[-95.9929,39.0564],[-95.968,39.0561],[-95.9432,39.0558],[-95.9184,39.0555],[-95.8936,39.0552],[-95.8688,39.0548],[-95.844,39.0545],[-95.8192,39.0542],[-95.7944,39.0538],[-95.7696,39.0535],[-95.7574,39.0641],[-95.7453,39.0748],[-95.7332,39.0854],[-95.721,39.096],[-95.7204,39.2108],[-95.7197,39.3255],[-95.7268,39.3462],[-95.7339,39.3668],[-95.741,39.3875],[-95.7481,39.4082],[-95.7483,39.55],[-95.7403,39.5636],[-95.7323,39.5772],[-95.7308,39.6968],[-95.7293,39.8165],[-95.7413,39.8299],[-95.7533,39.8432],[-95.7653,39.8566],[-95.7773,39.87],[-95.7823,39.9026],[-95.7874,39.9352],[-95.7925,39.9679],[-95.7975,40.0005],[-95.7976,40.0005],[-95.7999,40.0005],[-95.8038,40.0005],[-95.8184,40.0005],[-95.8199,40.0005],[-95.8337,40.0005],[-95.8339,40.0005],[-95.8422,40.0005],[-95.8425,40.0005],[-95.865,40.0005],[-95.8876,40.0006],[-95.8877,40.0006],[-95.9135,40.0006],[-95.9393,40.0006],[-95.9404,40.0006],[-95.9416,40.0006],[-95.9421,40.0006],[-95.954,40.0006],[-95.954,40.0006],[-95.9687,40.0006],[-95.9702,40.0006],[-95.9977,40.0006],[-96.0055,40.0007],[-96.0067,40.0007],[-96.0114,40.0007],[-96.0222,40.0007],[-96.0229,40.0007],[-96.025,40.0007],[-96.0251,40.0007],[-96.0514,40.0007],[-96.0515,40.0007],[-96.0697,40.0007],[-96.0878,40.0007],[-96.0934,40.0007],[-96.1152,40.0007],[-96.1237,40.0008],[-96.1391,40.0006],[-96.1544,40.0005],[-96.1544,40.0005],[-96.1559,40.0008],[-96.1567,40.0008],[-96.1636,40.0008],[-96.1641,40.0008],[-96.1708,40.0008],[-96.1709,40.0008],[-96.1733,40.0008],[-96.1757,40.0008],[-96.1769,40.0008],[-96.1778,40.0008],[-96.1986,40.0008],[-96.2,40.0008],[-96.2058,40.0008],[-96.2128,40.0008],[-96.2146,40.0008],[-96.2148,40.0008],[-96.2181,40.0008],[-96.2193,40.0008],[-96.2374,40.0009],[-96.2381,40.0009],[-96.2449,40.0006],[-96.245,40.0006],[-96.246,40.0007],[-96.2462,40.0007],[-96.2482,40.0009],[-96.2505,40.0009],[-96.2601,40.0009],[-96.2603,40.0009],[-96.2753,40.0009],[-96.2753,40.0009],[-96.277,40.0009],[-96.277,40.0009],[-96.2899,40.0009],[-96.2904,40.0009],[-96.3024,40.0006],[-96.3027,40.0006],[-96.3065,40.0009],[-96.3071,40.0009],[-96.329,40.0009],[-96.3297,40.001],[-96.3502,40.001],[-96.3521,40.001],[-96.3606,40.001],[-96.3684,40.001],[-96.3739,40.001],[-96.376,40.001],[-96.3787,40.001],[-96.3799,40.001],[-96.4078,40.001],[-96.4079,40.001],[-96.4104,40.001],[-96.4126,40.001],[-96.4185,40.001],[-96.4188,40.001],[-96.4303,40.001],[-96.4339,40.001],[-96.4373,40.001],[-96.4391,40.001],[-96.4518,40.001],[-96.4562,40.001],[-96.4703,40.001],[-96.4711,40.001],[-96.4739,40.001],[-96.4741,40.001],[-96.4962,40.001],[-96.4987,40.0011],[-96.5266,40.0011],[-96.527,40.0011],[-96.5391,40.0008],[-96.5391,40.001],[-96.5398,40.0011],[-96.5422,40.0011],[-96.5526,40.0011],[-96.5526,40.0011],[-96.5678,40.0011],[-96.5698,40.0011],[-96.5703,40.0011],[-96.5739,40.0011],[-96.5769,40.0012],[-96.577,40.0012],[-96.6048,40.0009],[-96.6048,40.0011],[-96.6272,40.0012],[-96.6495,40.0013],[-96.6524,40.0013],[-96.6548,40.0013],[-96.6548,40.0013],[-96.6578,39.9615],[-96.6608,39.9218],[-96.6637,39.882],[-96.6667,39.8422],[-96.6456,39.8422],[-96.6469,39.7626],[-96.6482,39.6831],[-96.6739,39.6848],[-96.6996,39.6865],[-96.7253,39.6882],[-96.751,39.6899],[-96.7522,39.5918],[-96.7533,39.4938],[-96.7544,39.3958],[-96.7556,39.2978],[-96.733,39.2864],[-96.7104,39.275],[-96.6877,39.2635],[-96.6651,39.2521],[-96.6488,39.2509],[-96.6325,39.2497],[-96.6162,39.2485],[-96.5999,39.2473],[-96.5922,39.2362],[-96.5845,39.2251],[-96.5768,39.214],[-96.5692,39.2029],[-96.5615,39.1918],[-96.5538,39.1807],[-96.5461,39.1697],[-96.5385,39.1586],[-96.5385,39.0627]]]},"properties":{"OBJECTID":1094,"state":"Kansas","agency":"Kansas Department of Wildlife and Parks","unit_type":"DMU","unit_id":"9","unit_name":"UNIT 9","unit_label":"Kansas DMU  - UNIT 9","aliases":"2025 | 9 | 9 unit 9 | dmu | dmu 9 | dmu 9 unit 9 | kansas | kansas 9 | kansas 9 unit 9 | kansas department of wildlife and parks | kansas department of wildlife and parks 9 | kansas dmu 9 | kansas dmu 9 unit 9 | kansas dmu unit 9 | unit 9","year":"2025","Shape_Length":375355.633257606,"Shape_Area":8410881670.341569}}]}