{"type":"FeatureCollection","features":[{"type":"Feature","id":1,"geometry":{"type":"MultiPolygon","coordinates":[[[[-131.6189,54.612],[-131.5941,54.6211],[-131.5693,54.6302],[-131.5445,54.6393],[-131.5197,54.6484],[-131.5329,54.6632],[-131.5461,54.678],[-131.5593,54.6927],[-131.5725,54.7075],[-131.5868,54.7027],[-131.6011,54.698],[-131.6155,54.6932],[-131.6298,54.6884],[-131.6442,54.6837],[-131.6585,54.6789],[-131.6728,54.6741],[-131.6872,54.6693],[-131.6701,54.655],[-131.653,54.6407],[-131.6359,54.6263],[-131.6189,54.612]]],[[[-130.7822,56.367],[-130.8007,56.369],[-130.8193,56.371],[-130.8379,56.373],[-130.8565,56.375],[-130.875,56.377],[-130.8936,56.379],[-130.9122,56.381],[-130.9308,56.383],[-130.9494,56.385],[-130.9679,56.3869],[-130.9865,56.3889],[-131.0051,56.3909],[-131.0237,56.3929],[-131.0423,56.3949],[-131.0609,56.3968],[-131.0795,56.3988],[-131.0885,56.3885],[-131.0975,56.3781],[-131.1066,56.3677],[-131.1156,56.3574],[-131.1018,56.3454],[-131.0881,56.3334],[-131.0743,56.3215],[-131.0606,56.3095],[-131.0469,56.2975],[-131.0332,56.2855],[-131.0194,56.2736],[-131.0057,56.2616],[-131.0185,56.2531],[-131.0312,56.2446],[-131.044,56.2362],[-131.0567,56.2277],[-131.0694,56.2192],[-131.0822,56.2107],[-131.0949,56.2023],[-131.1076,56.1938],[-131.1238,56.1909],[-131.1399,56.188],[-131.1561,56.1851],[-131.1722,56.1822],[-131.1884,56.1793],[-131.2045,56.1764],[-131.2207,56.1735],[-131.2368,56.1706],[-131.2513,56.1896],[-131.2658,56.2086],[-131.287,56.2003],[-131.3081,56.1921],[-131.3293,56.1839],[-131.3504,56.1756],[-131.3716,56.1674],[-131.3927,56.1591],[-131.4138,56.1509],[-131.4349,56.1426],[-131.427,56.1265],[-131.4191,56.1103],[-131.4112,56.0942],[-131.4033,56.078],[-131.3954,56.0619],[-131.3875,56.0458],[-131.3796,56.0296],[-131.3717,56.0135],[-131.4029,56.0146],[-131.434,56.0157],[-131.4651,56.0168],[-131.4963,56.0179],[-131.5157,56.0287],[-131.5351,56.0395],[-131.5546,56.0504],[-131.574,56.0612],[-131.5935,56.0721],[-131.6129,56.0829],[-131.6324,56.0937],[-131.6519,56.1046],[-131.662,56.0911],[-131.6722,56.0776],[-131.6824,56.0642],[-131.6925,56.0507],[-131.7135,56.0495],[-131.7344,56.0483],[-131.7554,56.0471],[-131.7763,56.0459],[-131.7973,56.0447],[-131.8182,56.0434],[-131.8391,56.0422],[-131.8601,56.041],[-131.8653,56.0135],[-131.8704,55.986],[-131.8756,55.9586],[-131.8808,55.9311],[-131.9027,55.9222],[-131.9246,55.9133],[-131.9465,55.9044],[-131.9683,55.8955],[-131.9902,55.8866],[-132.0121,55.8777],[-132.0339,55.8688],[-132.0558,55.8599],[-132.0407,55.8522],[-132.0257,55.8445],[-132.0106,55.8367],[-131.9956,55.829],[-131.9806,55.8213],[-131.9655,55.8136],[-131.9505,55.8059],[-131.9355,55.7982],[-131.9418,55.7844],[-131.9482,55.7707],[-131.9546,55.757],[-131.9609,55.7433],[-131.9673,55.7296],[-131.9736,55.7159],[-131.98,55.7022],[-131.9863,55.6884],[-132.0104,55.693],[-132.0346,55.6975],[-132.0587,55.702],[-132.0828,55.7065],[-132.0919,55.693],[-132.101,55.6795],[-132.1101,55.6661],[-132.1192,55.6526],[-132.1357,55.661],[-132.1521,55.6694],[-132.1685,55.6778],[-132.185,55.6863],[-132.2014,55.6947],[-132.2178,55.7031],[-132.2343,55.7115],[-132.2507,55.7199],[-132.2672,55.7283],[-132.2837,55.7367],[-132.3001,55.7451],[-132.3166,55.7536],[-132.3331,55.762],[-132.3496,55.7704],[-132.3661,55.7788],[-132.3826,55.7872],[-132.3741,55.7743],[-132.3656,55.7614],[-132.3571,55.7485],[-132.3487,55.7357],[-132.3402,55.7228],[-132.3317,55.7099],[-132.3233,55.697],[-132.3148,55.6841],[-132.3064,55.6713],[-132.2979,55.6584],[-132.2895,55.6455],[-132.281,55.6327],[-132.2726,55.6198],[-132.2642,55.6069],[-132.2557,55.5941],[-132.2473,55.5812],[-132.2326,55.5724],[-132.2178,55.5637],[-132.2031,55.5549],[-132.1884,55.5462],[-132.1737,55.5374],[-132.1589,55.5287],[-132.1442,55.5199],[-132.1295,55.5112],[-132.1148,55.5024],[-132.1001,55.4936],[-132.0854,55.4849],[-132.0707,55.4761],[-132.056,55.4674],[-132.0413,55.4586],[-132.0267,55.4498],[-132.012,55.4411],[-132.0033,55.4219],[-131.9947,55.4026],[-131.986,55.3834],[-131.9774,55.3642],[-131.9688,55.345],[-131.9601,55.3258],[-131.9515,55.3066],[-131.9429,55.2874],[-131.9343,55.2682],[-131.9257,55.249],[-131.9171,55.2298],[-131.9085,55.2106],[-131.8999,55.1914],[-131.8913,55.1722],[-131.8827,55.153],[-131.8741,55.1338],[-131.8596,55.1244],[-131.845,55.1151],[-131.8305,55.1057],[-131.8159,55.0964],[-131.8014,55.087],[-131.7868,55.0776],[-131.7723,55.0683],[-131.7578,55.0589],[-131.7491,55.041],[-131.7405,55.0231],[-131.7318,55.0053],[-131.7232,54.9874],[-131.7146,54.9695],[-131.7059,54.9517],[-131.6973,54.9338],[-131.6887,54.9159],[-131.6668,54.9091],[-131.645,54.9023],[-131.6232,54.8955],[-131.6013,54.8886],[-131.5795,54.8818],[-131.5577,54.875],[-131.5359,54.8681],[-131.5141,54.8613],[-131.5308,54.8541],[-131.5474,54.8468],[-131.5641,54.8396],[-131.5808,54.8324],[-131.5736,54.8056],[-131.5664,54.7788],[-131.5493,54.7792],[-131.5322,54.7795],[-131.5151,54.7798],[-131.498,54.7801],[-131.4808,54.7804],[-131.4637,54.7807],[-131.4466,54.7811],[-131.4295,54.7814],[-131.4204,54.7702],[-131.4112,54.759],[-131.4021,54.7478],[-131.393,54.7366],[-131.3838,54.7254],[-131.3747,54.7143],[-131.3656,54.7031],[-131.3565,54.6919],[-131.3338,54.6993],[-131.3111,54.7068],[-131.2883,54.7142],[-131.2656,54.7217],[-131.2429,54.7291],[-131.2202,54.7365],[-131.1974,54.744],[-131.1747,54.7514],[-131.1659,54.7818],[-131.1571,54.8122],[-131.1483,54.8426],[-131.1395,54.873],[-131.1306,54.9034],[-131.1218,54.9338],[-131.113,54.9643],[-131.1041,54.9947],[-131.0974,54.9806],[-131.0907,54.9664],[-131.084,54.9522],[-131.0773,54.938],[-131.0706,54.9239],[-131.0639,54.9097],[-131.0572,54.8956],[-131.0505,54.8814],[-131.0438,54.8672],[-131.0371,54.8531],[-131.0304,54.8389],[-131.0237,54.8248],[-131.017,54.8106],[-131.0104,54.7965],[-131.0037,54.7823],[-130.997,54.7682],[-130.9824,54.7582],[-130.9678,54.7483],[-130.9532,54.7384],[-130.9386,54.7285],[-130.924,54.7185],[-130.9095,54.7086],[-130.8949,54.6987],[-130.8803,54.6888],[-130.8522,54.6844],[-130.8241,54.6801],[-130.7961,54.6758],[-130.768,54.6714],[-130.7399,54.6671],[-130.7119,54.6627],[-130.6838,54.6584],[-130.6558,54.654],[-130.6576,54.7087],[-130.6595,54.7635],[-130.6399,54.7732],[-130.6203,54.7828],[-130.6007,54.7925],[-130.5811,54.8022],[-130.5615,54.8118],[-130.5418,54.8215],[-130.5222,54.8311],[-130.5026,54.8408],[-130.4829,54.8505],[-130.4633,54.8601],[-130.4436,54.8698],[-130.424,54.8794],[-130.4043,54.8891],[-130.3846,54.8987],[-130.3649,54.9084],[-130.3453,54.918],[-130.3337,54.9294],[-130.3222,54.9407],[-130.3106,54.9521],[-130.2991,54.9634],[-130.2875,54.9748],[-130.276,54.9862],[-130.2644,54.9975],[-130.2528,55.0089],[-130.2412,55.0202],[-130.2297,55.0316],[-130.2181,55.043],[-130.2065,55.0543],[-130.1949,55.0657],[-130.1833,55.077],[-130.1717,55.0884],[-130.1601,55.0997],[-130.1485,55.1111],[-130.1369,55.1225],[-130.1253,55.1338],[-130.1136,55.1452],[-130.102,55.1566],[-130.0904,55.1679],[-130.0787,55.1793],[-130.0671,55.1906],[-130.0554,55.202],[-130.0438,55.2134],[-130.0321,55.2247],[-130.0205,55.2361],[-130.0088,55.2474],[-129.9972,55.2588],[-129.9855,55.2702],[-129.9738,55.2815],[-129.9793,55.2967],[-129.9849,55.3118],[-129.9904,55.3269],[-129.9959,55.3421],[-130.0015,55.3572],[-130.007,55.3724],[-130.0126,55.3875],[-130.0181,55.4026],[-130.0237,55.4178],[-130.0292,55.4329],[-130.0348,55.4481],[-130.0404,55.4632],[-130.0459,55.4784],[-130.0515,55.4935],[-130.0571,55.5087],[-130.0626,55.5239],[-130.0682,55.539],[-130.0738,55.5542],[-130.0794,55.5693],[-130.0849,55.5845],[-130.0905,55.5997],[-130.0961,55.6148],[-130.1017,55.63],[-130.1073,55.6452],[-130.1129,55.6604],[-130.1185,55.6755],[-130.1241,55.6907],[-130.1297,55.7059],[-130.1353,55.7211],[-130.1409,55.7363],[-130.1465,55.7514],[-130.1522,55.7666],[-130.1429,55.7755],[-130.1337,55.7843],[-130.1244,55.7931],[-130.1151,55.802],[-130.1059,55.8108],[-130.0966,55.8196],[-130.0873,55.8284],[-130.0781,55.8373],[-130.0688,55.8461],[-130.0595,55.8549],[-130.0502,55.8638],[-130.0409,55.8726],[-130.0316,55.8814],[-130.0224,55.8903],[-130.0131,55.8991],[-130.0038,55.9079],[-130.0032,56.0082],[-130.0158,56.0225],[-130.0284,56.0369],[-130.041,56.0512],[-130.0536,56.0655],[-130.0662,56.0798],[-130.0789,56.0942],[-130.0915,56.1085],[-130.1041,56.1228],[-130.1219,56.1196],[-130.1396,56.1163],[-130.1573,56.113],[-130.175,56.1097],[-130.1927,56.1064],[-130.2104,56.1031],[-130.2281,56.0998],[-130.2458,56.0965],[-130.2683,56.1022],[-130.2908,56.1078],[-130.3132,56.1134],[-130.3357,56.119],[-130.3582,56.1246],[-130.3807,56.1302],[-130.4032,56.1358],[-130.4257,56.1414],[-130.4362,56.1669],[-130.4467,56.1923],[-130.4573,56.2178],[-130.4679,56.2433],[-130.4873,56.2463],[-130.5067,56.2492],[-130.5261,56.2522],[-130.5455,56.2551],[-130.5649,56.258],[-130.5843,56.261],[-130.6037,56.2639],[-130.6231,56.2668],[-130.6429,56.2793],[-130.6628,56.2919],[-130.6827,56.3044],[-130.7026,56.3169],[-130.7224,56.3294],[-130.7423,56.342],[-130.7623,56.3545],[-130.7822,56.367]]]]},"properties":{"OBJECTID":1,"state":"Alaska","agency":"Alaska Department of Fish & Game","unit_type":"GMU","unit_id":"01A","unit_label":"Alaska Department of Fish & Game GMU 01A","aliases":"01a | 1a | 1 a | 01 a | alaska department of fish and game gmu 01a | gmu 01a | game management unit 01a | game unit 01a | management unit 01a | unit 01a | hunt unit 01a | hunting unit 01a | subunit 01a | sub unit 01a | gmu subunit 01a | gmu 1a","year":"2025","Shape_Length":721466.4613621276,"Shape_Area":17956844364.978737}},{"type":"Feature","id":2,"geometry":{"type":"Polygon","coordinates":[[[-132.3685,57.3483],[-132.3781,57.3373],[-132.3877,57.3263],[-132.3972,57.3153],[-132.4068,57.3043],[-132.4289,57.3039],[-132.4509,57.3035],[-132.473,57.3031],[-132.4951,57.3026],[-132.5172,57.3022],[-132.5392,57.3018],[-132.5613,57.3013],[-132.5834,57.3009],[-132.6023,57.3057],[-132.6213,57.3105],[-132.6402,57.3152],[-132.6592,57.32],[-132.6782,57.3248],[-132.6971,57.3296],[-132.7161,57.3343],[-132.7351,57.3391],[-132.7541,57.3439],[-132.7731,57.3486],[-132.792,57.3534],[-132.811,57.3582],[-132.83,57.3629],[-132.849,57.3677],[-132.868,57.3724],[-132.887,57.3772],[-132.9149,57.3671],[-132.9427,57.357],[-132.9705,57.3469],[-132.9983,57.3368],[-133.0124,57.3199],[-133.0266,57.303],[-133.0407,57.2861],[-133.0548,57.2692],[-133.069,57.2523],[-133.0831,57.2354],[-133.0972,57.2185],[-133.1113,57.2016],[-133.1351,57.2077],[-133.1589,57.2139],[-133.1827,57.22],[-133.2065,57.2262],[-133.2303,57.2323],[-133.2541,57.2385],[-133.2779,57.2446],[-133.3017,57.2507],[-133.3235,57.2428],[-133.3453,57.2348],[-133.3671,57.2268],[-133.3889,57.2188],[-133.4107,57.2108],[-133.4325,57.2028],[-133.4542,57.1949],[-133.476,57.1869],[-133.5072,57.1866],[-133.5384,57.1864],[-133.5696,57.1862],[-133.6008,57.1859],[-133.632,57.1857],[-133.6632,57.1854],[-133.6945,57.1851],[-133.7257,57.1848],[-133.7062,57.1778],[-133.6867,57.1708],[-133.6672,57.1637],[-133.6477,57.1567],[-133.6282,57.1496],[-133.6087,57.1426],[-133.5893,57.1355],[-133.5698,57.1285],[-133.5504,57.1214],[-133.5309,57.1143],[-133.5114,57.1073],[-133.492,57.1002],[-133.4726,57.0931],[-133.4531,57.0861],[-133.4337,57.079],[-133.4143,57.0719],[-133.3923,57.069],[-133.3704,57.0662],[-133.3484,57.0633],[-133.3264,57.0604],[-133.3045,57.0575],[-133.2826,57.0546],[-133.2606,57.0517],[-133.2387,57.0488],[-133.2167,57.0458],[-133.1948,57.0429],[-133.1729,57.04],[-133.1509,57.0371],[-133.129,57.0342],[-133.1071,57.0312],[-133.0851,57.0283],[-133.0632,57.0254],[-133.0481,57.0129],[-133.033,57.0005],[-133.0179,56.988],[-133.0028,56.9755],[-132.9878,56.9631],[-132.9727,56.9506],[-132.9576,56.9382],[-132.9425,56.9257],[-132.9275,56.9132],[-132.9124,56.9008],[-132.8974,56.8883],[-132.8824,56.8759],[-132.8673,56.8634],[-132.8523,56.8509],[-132.8373,56.8385],[-132.8223,56.826],[-132.8073,56.8136],[-132.7923,56.8011],[-132.7773,56.7886],[-132.7623,56.7762],[-132.7473,56.7637],[-132.7324,56.7513],[-132.7174,56.7388],[-132.7024,56.7263],[-132.6875,56.7139],[-132.6725,56.7014],[-132.6576,56.6889],[-132.6426,56.6765],[-132.6277,56.664],[-132.6128,56.6516],[-132.5979,56.6391],[-132.583,56.6266],[-132.5623,56.6164],[-132.5416,56.6061],[-132.5209,56.5959],[-132.5002,56.5856],[-132.4796,56.5754],[-132.4589,56.5651],[-132.4383,56.5548],[-132.4176,56.5446],[-132.397,56.5343],[-132.3764,56.524],[-132.3557,56.5138],[-132.3351,56.5035],[-132.3145,56.4932],[-132.2939,56.4829],[-132.2733,56.4726],[-132.2527,56.4624],[-132.2445,56.4516],[-132.2363,56.4409],[-132.228,56.4301],[-132.2198,56.4194],[-132.2115,56.4087],[-132.2033,56.3979],[-132.1951,56.3872],[-132.1869,56.3765],[-132.1637,56.3719],[-132.1405,56.3673],[-132.1173,56.3627],[-132.0941,56.3581],[-132.071,56.3535],[-132.0478,56.3489],[-132.0246,56.3443],[-132.0015,56.3397],[-131.9886,56.3243],[-131.9757,56.3088],[-131.9629,56.2933],[-131.95,56.2778],[-131.9372,56.2624],[-131.9243,56.2469],[-131.9115,56.2314],[-131.8987,56.216],[-131.9221,56.206],[-131.9456,56.196],[-131.9691,56.1861],[-131.9925,56.1761],[-131.994,56.0736],[-131.9954,55.9711],[-132.0197,55.9597],[-132.0439,55.9482],[-132.0682,55.9367],[-132.0924,55.9252],[-132.1167,55.9137],[-132.1409,55.9022],[-132.1651,55.8907],[-132.1893,55.8792],[-132.2135,55.8677],[-132.2377,55.8562],[-132.2618,55.8447],[-132.286,55.8332],[-132.3102,55.8217],[-132.3343,55.8102],[-132.3584,55.7987],[-132.3826,55.7872],[-132.3661,55.7788],[-132.3496,55.7704],[-132.3331,55.762],[-132.3166,55.7536],[-132.3001,55.7451],[-132.2837,55.7367],[-132.2672,55.7283],[-132.2507,55.7199],[-132.2343,55.7115],[-132.2178,55.7031],[-132.2014,55.6947],[-132.185,55.6863],[-132.1685,55.6778],[-132.1521,55.6694],[-132.1357,55.661],[-132.1192,55.6526],[-132.1104,55.666],[-132.1015,55.6794],[-132.0926,55.6929],[-132.0837,55.7063],[-132.0536,55.7048],[-132.0234,55.7033],[-131.9933,55.7018],[-131.9632,55.7002],[-131.9563,55.7247],[-131.9493,55.7492],[-131.9424,55.7737],[-131.9355,55.7982],[-131.9505,55.8059],[-131.9655,55.8136],[-131.9806,55.8213],[-131.9956,55.829],[-132.0106,55.8367],[-132.0257,55.8445],[-132.0407,55.8522],[-132.0558,55.8599],[-132.0339,55.8688],[-132.0121,55.8777],[-131.9902,55.8866],[-131.9683,55.8955],[-131.9465,55.9044],[-131.9246,55.9133],[-131.9027,55.9222],[-131.8808,55.9311],[-131.8756,55.9586],[-131.8704,55.986],[-131.8653,56.0135],[-131.8601,56.041],[-131.8391,56.0422],[-131.8182,56.0434],[-131.7973,56.0447],[-131.7763,56.0459],[-131.7554,56.0471],[-131.7344,56.0483],[-131.7135,56.0495],[-131.6925,56.0507],[-131.6824,56.0642],[-131.6722,56.0776],[-131.662,56.0911],[-131.6519,56.1046],[-131.6324,56.0937],[-131.6129,56.0829],[-131.5935,56.0721],[-131.574,56.0612],[-131.5546,56.0504],[-131.5351,56.0395],[-131.5157,56.0287],[-131.4963,56.0179],[-131.4651,56.0168],[-131.434,56.0157],[-131.4029,56.0146],[-131.3717,56.0135],[-131.3796,56.0296],[-131.3875,56.0458],[-131.3954,56.0619],[-131.4033,56.078],[-131.4112,56.0942],[-131.4191,56.1103],[-131.427,56.1265],[-131.4349,56.1426],[-131.4138,56.1509],[-131.3927,56.1591],[-131.3716,56.1674],[-131.3504,56.1756],[-131.3293,56.1839],[-131.3081,56.1921],[-131.287,56.2003],[-131.2658,56.2086],[-131.2513,56.1896],[-131.2368,56.1706],[-131.2207,56.1735],[-131.2045,56.1764],[-131.1884,56.1793],[-131.1722,56.1822],[-131.1561,56.1851],[-131.1399,56.188],[-131.1238,56.1909],[-131.1076,56.1938],[-131.0948,56.203],[-131.082,56.2123],[-131.0692,56.2215],[-131.0564,56.2308],[-131.0436,56.24],[-131.0308,56.2493],[-131.018,56.2585],[-131.0052,56.2677],[-131.019,56.2789],[-131.0328,56.2902],[-131.0466,56.3014],[-131.0604,56.3126],[-131.0742,56.3238],[-131.088,56.335],[-131.1018,56.3462],[-131.1156,56.3574],[-131.103,56.3689],[-131.0905,56.3805],[-131.0779,56.392],[-131.0653,56.4035],[-131.0789,56.4094],[-131.0926,56.4152],[-131.1062,56.421],[-131.1198,56.4268],[-131.1334,56.4326],[-131.147,56.4384],[-131.1606,56.4442],[-131.1742,56.4501],[-131.1996,56.4602],[-131.225,56.4704],[-131.2505,56.4806],[-131.2759,56.4907],[-131.3013,56.5009],[-131.3268,56.5111],[-131.3522,56.5212],[-131.3777,56.5314],[-131.4031,56.5415],[-131.4286,56.5517],[-131.4541,56.5618],[-131.4796,56.572],[-131.5051,56.5821],[-131.5306,56.5922],[-131.5561,56.6024],[-131.5816,56.6125],[-131.6135,56.6109],[-131.6453,56.6093],[-131.6771,56.6076],[-131.7089,56.606],[-131.7408,56.6044],[-131.7726,56.6027],[-131.8044,56.6011],[-131.8362,56.5994],[-131.8408,56.6252],[-131.8454,56.6511],[-131.85,56.6769],[-131.8546,56.7027],[-131.8592,56.7285],[-131.8638,56.7544],[-131.8685,56.7802],[-131.8731,56.8061],[-131.8888,56.8103],[-131.9044,56.8145],[-131.9201,56.8188],[-131.9358,56.823],[-131.9515,56.8273],[-131.9672,56.8315],[-131.9829,56.8357],[-131.9985,56.84],[-132.0142,56.8442],[-132.0299,56.8484],[-132.0456,56.8526],[-132.0613,56.8569],[-132.077,56.8611],[-132.0927,56.8653],[-132.1084,56.8695],[-132.1241,56.8738],[-132.1143,56.8952],[-132.1045,56.9166],[-132.0947,56.9381],[-132.0849,56.9595],[-132.075,56.981],[-132.0652,57.0024],[-132.0554,57.0239],[-132.0455,57.0453],[-132.0657,57.0483],[-132.086,57.0512],[-132.1062,57.0541],[-132.1264,57.057],[-132.1467,57.0599],[-132.1669,57.0629],[-132.1871,57.0658],[-132.2074,57.0687],[-132.2276,57.0716],[-132.2479,57.0745],[-132.2681,57.0774],[-132.2884,57.0803],[-132.3086,57.0832],[-132.3289,57.0861],[-132.3491,57.089],[-132.3694,57.0919],[-132.3543,57.1068],[-132.3392,57.1218],[-132.324,57.1368],[-132.3089,57.1517],[-132.2938,57.1667],[-132.2786,57.1816],[-132.2635,57.1966],[-132.2483,57.2116],[-132.2633,57.2286],[-132.2783,57.2457],[-132.2933,57.2628],[-132.3083,57.2799],[-132.3234,57.297],[-132.3384,57.3141],[-132.3535,57.3312],[-132.3685,57.3483]]]},"properties":{"OBJECTID":2,"state":"Alaska","agency":"Alaska Department of Fish & Game","unit_type":"GMU","unit_id":"01B","unit_label":"Alaska Department of Fish & Game GMU 01B","aliases":"01b | 1b | 1 b | 01 b | alaska department of fish and game gmu 01b | gmu 01b | game management unit 01b | game unit 01b | management unit 01b | unit 01b | hunt unit 01b | hunting unit 01b | subunit 01b | sub unit 01b | gmu subunit 01b | gmu 1b","year":"2025","Shape_Length":687851.3094302457,"Shape_Area":8586499167.850018}},{"type":"Feature","id":3,"geometry":{"type":"Polygon","coordinates":[[[-134.4839,59.1318],[-134.5099,59.1249],[-134.5359,59.118],[-134.562,59.1112],[-134.588,59.1043],[-134.614,59.0974],[-134.64,59.0905],[-134.666,59.0836],[-134.692,59.0767],[-134.7074,59.0813],[-134.7228,59.0859],[-134.7382,59.0906],[-134.7536,59.0952],[-134.769,59.0998],[-134.7844,59.1044],[-134.7998,59.1091],[-134.8152,59.1137],[-134.8306,59.1183],[-134.846,59.1229],[-134.8614,59.1276],[-134.8769,59.1322],[-134.8923,59.1368],[-134.9077,59.1414],[-134.9231,59.146],[-134.9385,59.1506],[-134.9482,59.1355],[-134.958,59.1203],[-134.9677,59.1051],[-134.9774,59.09],[-134.9978,59.0879],[-135.0182,59.0859],[-135.0387,59.0838],[-135.0591,59.0817],[-135.0796,59.0797],[-135.1,59.0776],[-135.1204,59.0755],[-135.1409,59.0735],[-135.1367,59.0477],[-135.1325,59.022],[-135.1283,58.9963],[-135.1241,58.9706],[-135.1452,58.9706],[-135.1662,58.9706],[-135.1873,58.9706],[-135.2084,58.9706],[-135.2295,58.9706],[-135.2506,58.9706],[-135.2717,58.9706],[-135.2928,58.9706],[-135.3068,58.984],[-135.3207,58.9975],[-135.3347,59.0109],[-135.3487,59.0244],[-135.3548,58.9714],[-135.3857,58.9716],[-135.4166,58.9718],[-135.4476,58.972],[-135.4785,58.9722],[-135.5094,58.9724],[-135.5404,58.9726],[-135.5713,58.9727],[-135.6022,58.9729],[-135.6331,58.973],[-135.6641,58.9732],[-135.695,58.9733],[-135.7259,58.9735],[-135.7569,58.9736],[-135.7878,58.9737],[-135.8187,58.9738],[-135.8497,58.9739],[-135.8806,58.974],[-135.9115,58.9741],[-135.9425,58.9742],[-135.9734,58.9743],[-136.0043,58.9744],[-136.0352,58.9745],[-136.0662,58.9745],[-136.0971,58.9746],[-136.128,58.9746],[-136.159,58.9747],[-136.1899,58.9747],[-136.2208,58.9748],[-136.2518,58.9748],[-136.2827,58.9748],[-136.3136,58.9748],[-136.3446,58.9749],[-136.3755,58.9749],[-136.4064,58.9749],[-136.4374,58.9748],[-136.4683,58.9748],[-136.4992,58.9748],[-136.5301,58.9748],[-136.5611,58.9748],[-136.592,58.9747],[-136.6229,58.9747],[-136.6539,58.9746],[-136.6848,58.9746],[-136.7157,58.9745],[-136.7467,58.9744],[-136.7776,58.9743],[-136.8085,58.9743],[-136.8395,58.9742],[-136.8704,58.9741],[-136.9013,58.974],[-136.9322,58.9739],[-136.9632,58.9738],[-136.9941,58.9736],[-137.025,58.9735],[-137.056,58.9734],[-137.0869,58.9732],[-137.1178,58.9731],[-137.1488,58.9729],[-137.1797,58.9728],[-137.2106,58.9726],[-137.2415,58.9725],[-137.2725,58.9723],[-137.3034,58.9721],[-137.3343,58.9719],[-137.3527,58.9559],[-137.371,58.9399],[-137.3893,58.9239],[-137.4076,58.9079],[-137.4258,58.8919],[-137.4441,58.8759],[-137.4624,58.86],[-137.4806,58.844],[-137.5064,58.8434],[-137.5323,58.8428],[-137.5581,58.8423],[-137.5839,58.8417],[-137.6098,58.8411],[-137.6356,58.8406],[-137.6614,58.84],[-137.6872,58.8394],[-137.7131,58.8388],[-137.7389,58.8382],[-137.7647,58.8376],[-137.7905,58.837],[-137.8164,58.8364],[-137.8422,58.8358],[-137.868,58.8352],[-137.8938,58.8346],[-137.9119,58.8291],[-137.9299,58.8236],[-137.9479,58.8182],[-137.966,58.8127],[-137.984,58.8072],[-138.002,58.8018],[-138.02,58.7963],[-138.0381,58.7908],[-138.0187,58.7775],[-137.9994,58.7643],[-137.98,58.751],[-137.9607,58.7377],[-137.9414,58.7245],[-137.9221,58.7112],[-137.9028,58.6979],[-137.8836,58.6847],[-137.8643,58.6714],[-137.845,58.6581],[-137.8258,58.6449],[-137.8065,58.6316],[-137.7873,58.6183],[-137.768,58.6051],[-137.7488,58.5918],[-137.7296,58.5785],[-137.711,58.571],[-137.6924,58.5635],[-137.6738,58.556],[-137.6553,58.5485],[-137.6367,58.5411],[-137.6181,58.5336],[-137.5996,58.5261],[-137.581,58.5186],[-137.5625,58.511],[-137.5439,58.5035],[-137.5254,58.496],[-137.5068,58.4885],[-137.4883,58.481],[-137.4698,58.4735],[-137.4512,58.466],[-137.4327,58.4585],[-137.4142,58.451],[-137.3957,58.4434],[-137.3772,58.4359],[-137.3587,58.4284],[-137.3402,58.4209],[-137.3217,58.4134],[-137.3032,58.4058],[-137.2847,58.3983],[-137.2662,58.3908],[-137.2478,58.3832],[-137.2293,58.3757],[-137.2108,58.3682],[-137.1924,58.3606],[-137.1739,58.3531],[-137.1555,58.3456],[-137.137,58.338],[-137.1044,58.3413],[-137.0717,58.3446],[-137.0391,58.3478],[-137.0064,58.3511],[-136.9956,58.3419],[-136.9849,58.3327],[-136.9741,58.3235],[-136.9633,58.3143],[-136.9526,58.3051],[-136.9418,58.2959],[-136.9311,58.2867],[-136.9203,58.2775],[-136.9096,58.2683],[-136.8988,58.2591],[-136.8881,58.2499],[-136.8774,58.2407],[-136.8666,58.2315],[-136.8559,58.2223],[-136.8452,58.2131],[-136.8345,58.2039],[-136.8131,58.1974],[-136.7918,58.1909],[-136.7704,58.1844],[-136.7491,58.1779],[-136.7278,58.1714],[-136.7065,58.1649],[-136.6852,58.1584],[-136.6638,58.1519],[-136.6465,58.155],[-136.6292,58.1582],[-136.6119,58.1613],[-136.5946,58.1644],[-136.5773,58.1675],[-136.5599,58.1707],[-136.5426,58.1738],[-136.5253,58.1769],[-136.5137,58.1899],[-136.5022,58.2029],[-136.4906,58.2158],[-136.479,58.2288],[-136.4674,58.2418],[-136.4558,58.2548],[-136.4443,58.2678],[-136.4327,58.2807],[-136.4156,58.2835],[-136.3986,58.2863],[-136.3815,58.2891],[-136.3645,58.2919],[-136.3474,58.2947],[-136.3303,58.2974],[-136.3133,58.3002],[-136.2962,58.303],[-136.2792,58.3058],[-136.2621,58.3085],[-136.245,58.3113],[-136.228,58.3141],[-136.2109,58.3168],[-136.1938,58.3196],[-136.1767,58.3224],[-136.1597,58.3251],[-136.1426,58.3279],[-136.1255,58.3306],[-136.1084,58.3334],[-136.0914,58.3362],[-136.0743,58.3389],[-136.0572,58.3417],[-136.0401,58.3444],[-136.023,58.3471],[-136.0059,58.3499],[-135.9889,58.3526],[-135.9718,58.3554],[-135.9547,58.3581],[-135.9376,58.3609],[-135.9205,58.3636],[-135.9034,58.3663],[-135.8863,58.3691],[-135.8766,58.3429],[-135.8669,58.3167],[-135.8384,58.311],[-135.8099,58.3052],[-135.7814,58.2995],[-135.7529,58.2937],[-135.7244,58.288],[-135.6959,58.2822],[-135.6674,58.2765],[-135.639,58.2707],[-135.6117,58.2739],[-135.5844,58.2771],[-135.5572,58.2803],[-135.5299,58.2835],[-135.5026,58.2867],[-135.4753,58.2899],[-135.448,58.2931],[-135.4207,58.2962],[-135.3984,58.2823],[-135.3761,58.2683],[-135.3538,58.2543],[-135.3315,58.2403],[-135.3093,58.2263],[-135.287,58.2123],[-135.2648,58.1984],[-135.2425,58.1844],[-135.2256,58.1801],[-135.2087,58.1758],[-135.1918,58.1716],[-135.175,58.1673],[-135.1581,58.163],[-135.1412,58.1587],[-135.1243,58.1544],[-135.1075,58.1502],[-135.0906,58.1459],[-135.0737,58.1416],[-135.0569,58.1373],[-135.04,58.133],[-135.0231,58.1287],[-135.0063,58.1244],[-134.9894,58.1201],[-134.9726,58.1158],[-134.9783,58.1508],[-134.9841,58.1858],[-134.9898,58.2208],[-134.9956,58.2558],[-135.0014,58.2908],[-135.0072,58.3259],[-135.0129,58.3609],[-135.0187,58.396],[-135.0004,58.4059],[-134.982,58.4158],[-134.9637,58.4257],[-134.9453,58.4356],[-134.9253,58.4218],[-134.9054,58.408],[-134.8854,58.3942],[-134.8655,58.3804],[-134.8455,58.3666],[-134.8256,58.3528],[-134.8057,58.339],[-134.7858,58.3251],[-134.7659,58.3113],[-134.746,58.2975],[-134.7261,58.2837],[-134.7062,58.2699],[-134.6864,58.2561],[-134.6665,58.2422],[-134.6467,58.2284],[-134.6268,58.2146],[-134.597,58.2123],[-134.5672,58.2099],[-134.5374,58.2076],[-134.5076,58.2052],[-134.4778,58.2029],[-134.448,58.2005],[-134.4182,58.1982],[-134.3884,58.1958],[-134.3586,58.1934],[-134.3288,58.191],[-134.2991,58.1886],[-134.2693,58.1862],[-134.2395,58.1838],[-134.2097,58.1814],[-134.1799,58.179],[-134.1502,58.1766],[-134.1383,58.1633],[-134.1265,58.1501],[-134.1147,58.1368],[-134.103,58.1236],[-134.0912,58.1103],[-134.0794,58.0971],[-134.0676,58.0838],[-134.0558,58.0706],[-134.0441,58.0573],[-134.0323,58.0441],[-134.0205,58.0308],[-134.0088,58.0176],[-133.9971,58.0043],[-133.9853,57.9911],[-133.9736,57.9778],[-133.9618,57.9646],[-133.9501,57.9513],[-133.9384,57.9381],[-133.9267,57.9249],[-133.915,57.9116],[-133.9033,57.8984],[-133.8916,57.8851],[-133.8799,57.8719],[-133.8682,57.8587],[-133.8565,57.8454],[-133.8448,57.8322],[-133.8332,57.819],[-133.8215,57.8057],[-133.8098,57.7925],[-133.7982,57.7793],[-133.7865,57.766],[-133.7749,57.7528],[-133.7718,57.7172],[-133.7687,57.6816],[-133.7656,57.6461],[-133.7625,57.6105],[-133.7594,57.575],[-133.7563,57.5394],[-133.7532,57.5039],[-133.7502,57.4684],[-133.7471,57.4329],[-133.744,57.3975],[-133.7409,57.362],[-133.7379,57.3265],[-133.7348,57.2911],[-133.7318,57.2557],[-133.7287,57.2203],[-133.7257,57.1848],[-133.6945,57.1851],[-133.6632,57.1854],[-133.632,57.1857],[-133.6008,57.1859],[-133.5696,57.1862],[-133.5384,57.1864],[-133.5072,57.1866],[-133.476,57.1869],[-133.4542,57.1949],[-133.4325,57.2028],[-133.4107,57.2108],[-133.3889,57.2188],[-133.3671,57.2268],[-133.3453,57.2348],[-133.3235,57.2428],[-133.3017,57.2507],[-133.2779,57.2446],[-133.2541,57.2385],[-133.2303,57.2323],[-133.2065,57.2262],[-133.1827,57.22],[-133.1589,57.2139],[-133.1351,57.2077],[-133.1113,57.2016],[-133.0972,57.2185],[-133.0831,57.2354],[-133.069,57.2523],[-133.0548,57.2692],[-133.0407,57.2861],[-133.0266,57.303],[-133.0124,57.3199],[-132.9983,57.3368],[-132.9705,57.3469],[-132.9427,57.357],[-132.9149,57.3671],[-132.887,57.3772],[-132.8693,57.3726],[-132.8516,57.368],[-132.8339,57.3634],[-132.8163,57.3588],[-132.7986,57.3542],[-132.7809,57.3496],[-132.7632,57.345],[-132.7455,57.3404],[-132.7279,57.3357],[-132.7102,57.3311],[-132.6925,57.3265],[-132.6749,57.3219],[-132.6572,57.3173],[-132.6395,57.3127],[-132.6219,57.308],[-132.6042,57.3034],[-132.5795,57.3035],[-132.5549,57.3037],[-132.5302,57.3038],[-132.5055,57.3039],[-132.4808,57.304],[-132.4562,57.3041],[-132.4315,57.3042],[-132.4068,57.3043],[-132.3976,57.3156],[-132.3883,57.3268],[-132.3791,57.338],[-132.3698,57.3492],[-132.3866,57.3654],[-132.4034,57.3816],[-132.4202,57.3978],[-132.437,57.414],[-132.4538,57.4303],[-132.4706,57.4465],[-132.4874,57.4627],[-132.5043,57.4789],[-132.5211,57.4951],[-132.538,57.5113],[-132.5548,57.5275],[-132.5717,57.5437],[-132.5886,57.5599],[-132.6055,57.5761],[-132.6224,57.5923],[-132.6393,57.6086],[-132.6562,57.6248],[-132.6732,57.641],[-132.6901,57.6572],[-132.707,57.6734],[-132.724,57.6896],[-132.741,57.7059],[-132.7579,57.7221],[-132.7749,57.7383],[-132.7919,57.7545],[-132.8089,57.7708],[-132.8259,57.787],[-132.8429,57.8032],[-132.86,57.8194],[-132.877,57.8357],[-132.8941,57.8519],[-132.9111,57.8681],[-132.9282,57.8843],[-132.9453,57.9006],[-132.9624,57.9168],[-132.9795,57.933],[-132.9966,57.9493],[-133.0137,57.9655],[-133.0308,57.9817],[-133.0479,57.998],[-133.0651,58.0142],[-133.0822,58.0304],[-133.0994,58.0467],[-133.1166,58.0629],[-133.1338,58.0792],[-133.1509,58.0954],[-133.1681,58.1116],[-133.1854,58.1279],[-133.2026,58.1441],[-133.2198,58.1604],[-133.237,58.1766],[-133.2543,58.1929],[-133.2716,58.2091],[-133.2888,58.2254],[-133.3061,58.2416],[-133.3234,58.2579],[-133.3407,58.2741],[-133.358,58.2904],[-133.3753,58.3066],[-133.3926,58.3229],[-133.41,58.3391],[-133.4273,58.3554],[-133.4447,58.3716],[-133.462,58.3879],[-133.441,58.3986],[-133.42,58.4094],[-133.399,58.4201],[-133.378,58.4309],[-133.3924,58.4402],[-133.4068,58.4495],[-133.4212,58.4589],[-133.4356,58.4682],[-133.4501,58.4776],[-133.4645,58.4869],[-133.4789,58.4963],[-133.4934,58.5056],[-133.5078,58.515],[-133.5222,58.5243],[-133.5367,58.5337],[-133.5512,58.543],[-133.5656,58.5523],[-133.5801,58.5617],[-133.5945,58.571],[-133.609,58.5804],[-133.6235,58.5897],[-133.638,58.5991],[-133.6525,58.6084],[-133.667,58.6177],[-133.6815,58.6271],[-133.696,58.6364],[-133.7105,58.6458],[-133.725,58.6551],[-133.7395,58.6644],[-133.754,58.6738],[-133.7685,58.6831],[-133.7831,58.6924],[-133.7976,58.7018],[-133.8121,58.7111],[-133.8267,58.7205],[-133.8412,58.7298],[-133.8673,58.738],[-133.8934,58.7463],[-133.9194,58.7545],[-133.9455,58.7627],[-133.9716,58.771],[-133.9977,58.7792],[-134.0238,58.7874],[-134.0499,58.7956],[-134.076,58.8038],[-134.1021,58.8121],[-134.1283,58.8203],[-134.1544,58.8285],[-134.1806,58.8367],[-134.2067,58.8449],[-134.2329,58.8531],[-134.259,58.8612],[-134.273,58.8781],[-134.287,58.895],[-134.301,58.9119],[-134.3151,58.9288],[-134.3291,58.9457],[-134.3431,58.9626],[-134.3571,58.9795],[-134.3712,58.9965],[-134.3852,59.0134],[-134.3993,59.0303],[-134.4134,59.0472],[-134.4275,59.0641],[-134.4415,59.081],[-134.4556,59.098],[-134.4697,59.1149],[-134.4839,59.1318]]]},"properties":{"OBJECTID":3,"state":"Alaska","agency":"Alaska Department of Fish & Game","unit_type":"GMU","unit_id":"01C","unit_label":"Alaska Department of Fish & Game GMU 01C","aliases":"01c | 1c | 1 c | 01 c | alaska department of fish and game gmu 01c | gmu 01c | game management unit 01c | game unit 01c | management unit 01c | unit 01c | hunt unit 01c | hunting unit 01c | subunit 01c | sub unit 01c | gmu subunit 01c | gmu 1c","year":"2025","Shape_Length":1045818.945185351,"Shape_Area":25255856484.575943}},{"type":"Feature","id":4,"geometry":{"type":"Polygon","coordinates":[[[-135.354,59.7354],[-135.3697,59.7432],[-135.3855,59.7509],[-135.4012,59.7587],[-135.417,59.7664],[-135.4327,59.7742],[-135.4485,59.7819],[-135.4642,59.7897],[-135.48,59.7974],[-135.5074,59.7913],[-135.5349,59.7852],[-135.5623,59.779],[-135.5897,59.7729],[-135.6172,59.7668],[-135.6446,59.7606],[-135.672,59.7545],[-135.6994,59.7483],[-135.7268,59.7422],[-135.7542,59.736],[-135.7816,59.7299],[-135.8089,59.7237],[-135.8363,59.7175],[-135.8637,59.7114],[-135.891,59.7052],[-135.9184,59.699],[-135.9458,59.6928],[-135.9731,59.6866],[-136.0004,59.6804],[-136.0278,59.6742],[-136.0551,59.668],[-136.0824,59.6618],[-136.1097,59.6556],[-136.137,59.6494],[-136.1643,59.6431],[-136.1916,59.6369],[-136.2189,59.6307],[-136.2462,59.6244],[-136.2735,59.6182],[-136.3008,59.612],[-136.3281,59.6057],[-136.3553,59.5995],[-136.3408,59.5901],[-136.3263,59.5807],[-136.3117,59.5713],[-136.2972,59.5619],[-136.2827,59.5525],[-136.2682,59.5431],[-136.2537,59.5337],[-136.2392,59.5243],[-136.2559,59.5093],[-136.2726,59.4943],[-136.2893,59.4793],[-136.306,59.4643],[-136.3275,59.4645],[-136.3491,59.4646],[-136.3707,59.4648],[-136.3922,59.4649],[-136.4138,59.4651],[-136.4354,59.4653],[-136.4569,59.4654],[-136.4785,59.4656],[-136.4765,59.4201],[-136.4745,59.3746],[-136.4724,59.3291],[-136.4704,59.2837],[-136.4849,59.2689],[-136.4993,59.2542],[-136.5137,59.2394],[-136.5282,59.2246],[-136.5426,59.2099],[-136.557,59.1951],[-136.5714,59.1804],[-136.5858,59.1656],[-136.6162,59.1649],[-136.6467,59.1642],[-136.6772,59.1634],[-136.7076,59.1627],[-136.7381,59.1619],[-136.7685,59.1612],[-136.799,59.1604],[-136.8295,59.1597],[-136.8453,59.1538],[-136.8611,59.148],[-136.8769,59.1421],[-136.8928,59.1363],[-136.9086,59.1304],[-136.9244,59.1246],[-136.9402,59.1187],[-136.956,59.1128],[-136.9718,59.107],[-136.9876,59.1011],[-137.0034,59.0953],[-137.0192,59.0894],[-137.035,59.0835],[-137.0507,59.0777],[-137.0665,59.0718],[-137.0823,59.0659],[-137.0981,59.0601],[-137.1139,59.0542],[-137.1296,59.0483],[-137.1454,59.0425],[-137.1611,59.0366],[-137.1769,59.0307],[-137.1927,59.0248],[-137.2084,59.019],[-137.2242,59.0131],[-137.2399,59.0072],[-137.2557,59.0013],[-137.2714,58.9954],[-137.2871,58.9896],[-137.3029,58.9837],[-137.3186,58.9778],[-137.3343,58.9719],[-137.3034,58.9721],[-137.2725,58.9723],[-137.2415,58.9725],[-137.2106,58.9726],[-137.1797,58.9728],[-137.1488,58.9729],[-137.1178,58.9731],[-137.0869,58.9732],[-137.056,58.9734],[-137.025,58.9735],[-136.9941,58.9736],[-136.9632,58.9738],[-136.9322,58.9739],[-136.9013,58.974],[-136.8704,58.9741],[-136.8395,58.9742],[-136.8085,58.9743],[-136.7776,58.9743],[-136.7467,58.9744],[-136.7157,58.9745],[-136.6848,58.9746],[-136.6539,58.9746],[-136.6229,58.9747],[-136.592,58.9747],[-136.5611,58.9748],[-136.5301,58.9748],[-136.4992,58.9748],[-136.4683,58.9748],[-136.4374,58.9748],[-136.4064,58.9749],[-136.3755,58.9749],[-136.3446,58.9749],[-136.3136,58.9748],[-136.2827,58.9748],[-136.2518,58.9748],[-136.2208,58.9748],[-136.1899,58.9747],[-136.159,58.9747],[-136.128,58.9746],[-136.0971,58.9746],[-136.0662,58.9745],[-136.0352,58.9745],[-136.0043,58.9744],[-135.9734,58.9743],[-135.9425,58.9742],[-135.9115,58.9741],[-135.8806,58.974],[-135.8497,58.9739],[-135.8187,58.9738],[-135.7878,58.9737],[-135.7569,58.9736],[-135.7259,58.9735],[-135.695,58.9733],[-135.6641,58.9732],[-135.6331,58.973],[-135.6022,58.9729],[-135.5713,58.9727],[-135.5404,58.9726],[-135.5094,58.9724],[-135.4785,58.9722],[-135.4476,58.972],[-135.4166,58.9718],[-135.3857,58.9716],[-135.3548,58.9714],[-135.3487,59.0244],[-135.3347,59.0109],[-135.3207,58.9975],[-135.3068,58.984],[-135.2928,58.9706],[-135.2717,58.9706],[-135.2506,58.9706],[-135.2295,58.9706],[-135.2084,58.9706],[-135.1873,58.9706],[-135.1662,58.9706],[-135.1452,58.9706],[-135.1241,58.9706],[-135.1283,58.9963],[-135.1325,59.022],[-135.1367,59.0477],[-135.1409,59.0735],[-135.1204,59.0755],[-135.1,59.0776],[-135.0796,59.0797],[-135.0591,59.0817],[-135.0387,59.0838],[-135.0182,59.0859],[-134.9978,59.0879],[-134.9774,59.09],[-134.9677,59.1051],[-134.958,59.1203],[-134.9482,59.1355],[-134.9385,59.1506],[-134.9231,59.146],[-134.9077,59.1414],[-134.8923,59.1368],[-134.8769,59.1322],[-134.8614,59.1276],[-134.846,59.1229],[-134.8306,59.1183],[-134.8152,59.1137],[-134.7998,59.1091],[-134.7844,59.1044],[-134.769,59.0998],[-134.7536,59.0952],[-134.7382,59.0906],[-134.7228,59.0859],[-134.7074,59.0813],[-134.692,59.0767],[-134.6723,59.0822],[-134.6526,59.0878],[-134.6329,59.0934],[-134.6132,59.0989],[-134.5934,59.1045],[-134.5737,59.1101],[-134.554,59.1156],[-134.5342,59.1212],[-134.555,59.1372],[-134.5758,59.1532],[-134.5967,59.1692],[-134.6175,59.1853],[-134.6384,59.2013],[-134.6592,59.2173],[-134.6801,59.2333],[-134.701,59.2494],[-134.7334,59.2533],[-134.7659,59.2573],[-134.7983,59.2613],[-134.8308,59.2653],[-134.8632,59.2692],[-134.8957,59.2732],[-134.9281,59.2771],[-134.9606,59.2811],[-134.9782,59.2974],[-134.9958,59.3137],[-135.0134,59.33],[-135.031,59.3463],[-135.0209,59.3566],[-135.0107,59.3668],[-135.0005,59.3771],[-134.9903,59.3874],[-135.0181,59.3975],[-135.0459,59.4076],[-135.0737,59.4178],[-135.1016,59.4279],[-135.0926,59.4449],[-135.0836,59.4619],[-135.0746,59.4789],[-135.0656,59.4959],[-135.0566,59.5129],[-135.0476,59.5299],[-135.0386,59.5469],[-135.0296,59.564],[-135.0498,59.5747],[-135.07,59.5854],[-135.0902,59.5961],[-135.1105,59.6069],[-135.1307,59.6176],[-135.151,59.6283],[-135.1713,59.639],[-135.1915,59.6497],[-135.2118,59.6605],[-135.2321,59.6712],[-135.2524,59.6819],[-135.2727,59.6926],[-135.293,59.7033],[-135.3133,59.714],[-135.3337,59.7247],[-135.354,59.7354]]]},"properties":{"OBJECTID":4,"state":"Alaska","agency":"Alaska Department of Fish & Game","unit_type":"GMU","unit_id":"01D","unit_label":"Alaska Department of Fish & Game GMU 01D","aliases":"01d | 1d | 1 d | 01 d | alaska department of fish and game gmu 01d | gmu 01d | game management unit 01d | game unit 01d | management unit 01d | unit 01d | hunt unit 01d | hunting unit 01d | subunit 01d | sub unit 01d | gmu subunit 01d | gmu 1d","year":"2025","Shape_Length":479307.2266922499,"Shape_Area":7460440238.126762}},{"type":"Feature","id":5,"geometry":{"type":"MultiPolygon","coordinates":[[[[-133.515,54.696],[-133.4939,54.7025],[-133.4727,54.709],[-133.4516,54.7155],[-133.4304,54.722],[-133.4287,54.7655],[-133.427,54.8091],[-133.434,54.8218],[-133.4411,54.8345],[-133.4482,54.8473],[-133.4552,54.86],[-133.4623,54.8727],[-133.4694,54.8855],[-133.4765,54.8982],[-133.4836,54.911],[-133.5098,54.914],[-133.536,54.917],[-133.5622,54.92],[-133.5884,54.923],[-133.6035,54.9134],[-133.6186,54.9038],[-133.6337,54.8942],[-133.6488,54.8845],[-133.6448,54.8581],[-133.6407,54.8317],[-133.6366,54.8053],[-133.6326,54.7789],[-133.6179,54.7685],[-133.6032,54.7582],[-133.5885,54.7478],[-133.5738,54.7374],[-133.5591,54.7271],[-133.5444,54.7167],[-133.5297,54.7064],[-133.515,54.696]]],[[[-133.4992,54.9667],[-133.4753,54.9772],[-133.4515,54.9877],[-133.4276,54.9982],[-133.4038,55.0087],[-133.4189,55.0239],[-133.434,55.0391],[-133.4492,55.0543],[-133.4643,55.0696],[-133.4792,55.0623],[-133.494,55.0551],[-133.5088,55.0478],[-133.5236,55.0405],[-133.5385,55.0333],[-133.5533,55.026],[-133.5681,55.0188],[-133.5829,55.0115],[-133.5619,55.0003],[-133.541,54.9891],[-133.5201,54.9779],[-133.4992,54.9667]]],[[[-132.8524,56.0501],[-132.8722,56.0612],[-132.892,56.0723],[-132.9118,56.0834],[-132.9317,56.0945],[-132.9515,56.1056],[-132.9713,56.1166],[-132.9912,56.1277],[-133.0111,56.1388],[-133.019,56.1543],[-133.0269,56.1698],[-133.0348,56.1854],[-133.0428,56.2009],[-133.0507,56.2164],[-133.0586,56.2319],[-133.0666,56.2475],[-133.0745,56.263],[-133.0825,56.2785],[-133.0904,56.2941],[-133.0984,56.3096],[-133.1064,56.3252],[-133.1143,56.3407],[-133.1223,56.3562],[-133.1303,56.3718],[-133.1383,56.3873],[-133.1662,56.3876],[-133.1941,56.3879],[-133.2219,56.3881],[-133.2498,56.3884],[-133.2777,56.3886],[-133.3056,56.3889],[-133.3335,56.3891],[-133.3614,56.3893],[-133.3893,56.3896],[-133.4172,56.3898],[-133.4451,56.39],[-133.473,56.3902],[-133.5008,56.3904],[-133.5287,56.3906],[-133.5566,56.3908],[-133.5845,56.391],[-133.6107,56.3822],[-133.6369,56.3735],[-133.6631,56.3647],[-133.6892,56.3559],[-133.6963,56.3398],[-133.7033,56.3238],[-133.7103,56.3077],[-133.7173,56.2916],[-133.7243,56.2755],[-133.7313,56.2594],[-133.7383,56.2434],[-133.7453,56.2273],[-133.7523,56.2112],[-133.7593,56.1951],[-133.7663,56.1791],[-133.7733,56.163],[-133.7802,56.1469],[-133.7872,56.1309],[-133.7942,56.1148],[-133.8012,56.0988],[-133.8141,56.0893],[-133.8271,56.0799],[-133.8401,56.0705],[-133.8531,56.061],[-133.8661,56.0516],[-133.879,56.0422],[-133.892,56.0327],[-133.905,56.0233],[-133.9179,56.0139],[-133.9309,56.0045],[-133.9438,55.995],[-133.9568,55.9856],[-133.9697,55.9762],[-133.9827,55.9667],[-133.9956,55.9573],[-134.0085,55.9479],[-134.0139,55.9322],[-134.0192,55.9166],[-134.0245,55.9009],[-134.0299,55.8853],[-134.0352,55.8696],[-134.0405,55.854],[-134.0458,55.8384],[-134.0511,55.8227],[-134.0402,55.8144],[-134.0293,55.8061],[-134.0184,55.7977],[-134.0075,55.7894],[-133.9966,55.7811],[-133.9857,55.7727],[-133.9748,55.7644],[-133.9639,55.7561],[-133.947,55.7611],[-133.9302,55.766],[-133.9133,55.771],[-133.8964,55.7759],[-133.8795,55.7809],[-133.8626,55.7859],[-133.8457,55.7908],[-133.8288,55.7958],[-133.8359,55.7828],[-133.843,55.7699],[-133.8501,55.7569],[-133.8572,55.744],[-133.8642,55.7311],[-133.8713,55.7181],[-133.8784,55.7052],[-133.8855,55.6922],[-133.8652,55.6773],[-133.845,55.6624],[-133.8247,55.6475],[-133.8045,55.6326],[-133.8105,55.6189],[-133.8165,55.6052],[-133.8226,55.5915],[-133.8286,55.5778],[-133.8346,55.5642],[-133.8406,55.5505],[-133.8466,55.5368],[-133.8527,55.5231],[-133.8587,55.5094],[-133.8647,55.4958],[-133.8707,55.4821],[-133.8767,55.4684],[-133.8827,55.4547],[-133.8887,55.4411],[-133.8947,55.4274],[-133.9007,55.4137],[-133.8835,55.4115],[-133.8664,55.4092],[-133.8493,55.407],[-133.8322,55.4047],[-133.8151,55.4025],[-133.798,55.4002],[-133.7808,55.398],[-133.7637,55.3957],[-133.7671,55.3706],[-133.7705,55.3454],[-133.7739,55.3203],[-133.7773,55.2952],[-133.7629,55.2811],[-133.7485,55.267],[-133.7342,55.2528],[-133.7198,55.2387],[-133.7054,55.2246],[-133.6911,55.2105],[-133.6767,55.1964],[-133.6624,55.1823],[-133.6316,55.1878],[-133.6009,55.1933],[-133.5701,55.1989],[-133.5394,55.2044],[-133.5134,55.1972],[-133.4875,55.19],[-133.4616,55.1828],[-133.4357,55.1756],[-133.4097,55.1683],[-133.3838,55.1611],[-133.3579,55.1539],[-133.332,55.1466],[-133.3214,55.1195],[-133.3108,55.0923],[-133.3001,55.0651],[-133.2895,55.0379],[-133.2789,55.0107],[-133.2683,54.9836],[-133.2577,54.9564],[-133.2471,54.9293],[-133.236,54.9203],[-133.2248,54.9114],[-133.2137,54.9025],[-133.2026,54.8936],[-133.1914,54.8847],[-133.1803,54.8758],[-133.1692,54.8668],[-133.1581,54.8579],[-133.147,54.849],[-133.1359,54.8401],[-133.1247,54.8312],[-133.1136,54.8223],[-133.1025,54.8133],[-133.0914,54.8044],[-133.0803,54.7955],[-133.0692,54.7866],[-133.0582,54.7777],[-133.0471,54.7688],[-133.036,54.7598],[-133.0249,54.7509],[-133.0138,54.742],[-133.0028,54.7331],[-132.9917,54.7242],[-132.9806,54.7152],[-132.9696,54.7063],[-132.9585,54.6974],[-132.9474,54.6885],[-132.9364,54.6796],[-132.9253,54.6706],[-132.9143,54.6617],[-132.9032,54.6528],[-132.8922,54.6439],[-132.8613,54.6405],[-132.8304,54.637],[-132.7996,54.6336],[-132.7687,54.6302],[-132.7378,54.6267],[-132.707,54.6233],[-132.6761,54.6198],[-132.6452,54.6164],[-132.6342,54.6294],[-132.6232,54.6424],[-132.6121,54.6554],[-132.6011,54.6685],[-132.5901,54.6815],[-132.579,54.6945],[-132.568,54.7075],[-132.5569,54.7206],[-132.539,54.7182],[-132.521,54.7158],[-132.5031,54.7134],[-132.4852,54.711],[-132.4673,54.7086],[-132.4494,54.7062],[-132.4314,54.7038],[-132.4135,54.7014],[-132.3956,54.699],[-132.3777,54.6966],[-132.3598,54.6942],[-132.3419,54.6918],[-132.324,54.6894],[-132.3061,54.687],[-132.2882,54.6846],[-132.2703,54.6822],[-132.2524,54.6798],[-132.2345,54.6773],[-132.2166,54.6749],[-132.1987,54.6725],[-132.1808,54.6701],[-132.1629,54.6676],[-132.145,54.6652],[-132.1271,54.6628],[-132.1092,54.6603],[-132.0913,54.6579],[-132.0734,54.6555],[-132.0555,54.653],[-132.0376,54.6506],[-132.0198,54.6481],[-132.0019,54.6457],[-131.984,54.6433],[-131.9693,54.6615],[-131.9545,54.6798],[-131.9398,54.6981],[-131.925,54.7164],[-131.9103,54.7347],[-131.8955,54.753],[-131.8807,54.7713],[-131.8659,54.7896],[-131.868,54.8756],[-131.87,54.9616],[-131.8721,55.0477],[-131.8741,55.1338],[-131.8827,55.153],[-131.8913,55.1722],[-131.8999,55.1914],[-131.9085,55.2106],[-131.9171,55.2298],[-131.9257,55.249],[-131.9343,55.2682],[-131.9429,55.2874],[-131.9515,55.3066],[-131.9601,55.3258],[-131.9688,55.345],[-131.9774,55.3642],[-131.986,55.3834],[-131.9947,55.4026],[-132.0033,55.4219],[-132.012,55.4411],[-132.0267,55.4498],[-132.0413,55.4586],[-132.056,55.4674],[-132.0707,55.4761],[-132.0854,55.4849],[-132.1001,55.4936],[-132.1148,55.5024],[-132.1295,55.5112],[-132.1442,55.5199],[-132.1589,55.5287],[-132.1737,55.5374],[-132.1884,55.5462],[-132.2031,55.5549],[-132.2178,55.5637],[-132.2326,55.5724],[-132.2473,55.5812],[-132.2556,55.5916],[-132.2638,55.602],[-132.2721,55.6124],[-132.2803,55.6228],[-132.2886,55.6332],[-132.2969,55.6436],[-132.3051,55.654],[-132.3134,55.6644],[-132.3217,55.6748],[-132.3299,55.6852],[-132.3382,55.6956],[-132.3465,55.7061],[-132.3548,55.7165],[-132.3631,55.7269],[-132.3713,55.7373],[-132.3796,55.7477],[-132.3879,55.7581],[-132.3962,55.7685],[-132.4045,55.7789],[-132.4128,55.7893],[-132.4211,55.7998],[-132.4294,55.8102],[-132.4377,55.8206],[-132.4461,55.831],[-132.4544,55.8414],[-132.4627,55.8518],[-132.471,55.8623],[-132.4793,55.8727],[-132.4877,55.8831],[-132.496,55.8935],[-132.5043,55.9039],[-132.5127,55.9143],[-132.5339,55.9228],[-132.5551,55.9313],[-132.5763,55.9398],[-132.5975,55.9483],[-132.6187,55.9568],[-132.6399,55.9653],[-132.6611,55.9738],[-132.6823,55.9823],[-132.7036,55.9908],[-132.7248,55.9993],[-132.746,56.0078],[-132.7673,56.0162],[-132.7886,56.0247],[-132.8098,56.0332],[-132.8311,56.0416],[-132.8524,56.0501]]]]},"properties":{"OBJECTID":5,"state":"Alaska","agency":"Alaska Department of Fish & Game","unit_type":"GMU","unit_id":"02Z","unit_label":"Alaska Department of Fish & Game GMU 02Z","aliases":"02z | 2z | 2 z | 02 z | alaska department of fish and game gmu 02z | gmu 02z | game management unit 02z | game unit 02z | management unit 02z | unit 02z | hunt unit 02z | hunting unit 02z | subunit 02z | sub unit 02z | gmu subunit 02z | gmu 2z","year":"2025","Shape_Length":664104.6934405637,"Shape_Area":16614331156.761065}},{"type":"Feature","id":6,"geometry":{"type":"MultiPolygon","coordinates":[[[[-134.5699,55.8118],[-134.5592,55.8211],[-134.5485,55.8304],[-134.5379,55.8397],[-134.5272,55.849],[-134.5165,55.8584],[-134.5058,55.8677],[-134.4952,55.877],[-134.4845,55.8863],[-134.5043,55.8928],[-134.524,55.8993],[-134.5438,55.9058],[-134.5636,55.9123],[-134.5834,55.9188],[-134.6032,55.9253],[-134.623,55.9318],[-134.6429,55.9382],[-134.6575,55.923],[-134.6721,55.9077],[-134.6868,55.8924],[-134.7014,55.8772],[-134.6849,55.869],[-134.6685,55.8608],[-134.652,55.8527],[-134.6356,55.8445],[-134.6191,55.8363],[-134.6027,55.8281],[-134.5863,55.82],[-134.5699,55.8118]]],[[[-133.4143,57.0719],[-133.4354,57.0796],[-133.4566,57.0872],[-133.4777,57.0948],[-133.4989,57.1024],[-133.52,57.11],[-133.5412,57.1176],[-133.5624,57.1252],[-133.5836,57.1328],[-133.6048,57.1404],[-133.626,57.148],[-133.6472,57.1556],[-133.6684,57.1632],[-133.6896,57.1708],[-133.7108,57.1784],[-133.732,57.186],[-133.7532,57.1936],[-133.7715,57.1942],[-133.7898,57.1947],[-133.8081,57.1952],[-133.8263,57.1958],[-133.8446,57.1963],[-133.8629,57.1969],[-133.8812,57.1974],[-133.8994,57.1979],[-133.9201,57.1887],[-133.9407,57.1795],[-133.9613,57.1703],[-133.982,57.161],[-134.0026,57.1518],[-134.0232,57.1426],[-134.0438,57.1333],[-134.0644,57.1241],[-134.085,57.1149],[-134.1056,57.1056],[-134.1261,57.0964],[-134.1467,57.0871],[-134.1673,57.0779],[-134.1878,57.0686],[-134.2084,57.0594],[-134.2289,57.0501],[-134.2495,57.0409],[-134.27,57.0316],[-134.2905,57.0224],[-134.311,57.0131],[-134.3315,57.0039],[-134.352,56.9946],[-134.3725,56.9853],[-134.393,56.9761],[-134.4135,56.9668],[-134.434,56.9575],[-134.4545,56.9482],[-134.4749,56.939],[-134.4954,56.9297],[-134.5159,56.9204],[-134.5363,56.9111],[-134.5568,56.9019],[-134.5512,56.8551],[-134.5457,56.8083],[-134.5402,56.7616],[-134.5347,56.7149],[-134.5292,56.6682],[-134.5237,56.6216],[-134.5182,56.5749],[-134.5127,56.5283],[-134.5072,56.4817],[-134.5018,56.4351],[-134.4963,56.3886],[-134.4909,56.342],[-134.4854,56.2955],[-134.48,56.249],[-134.4746,56.2025],[-134.4692,56.1561],[-134.4402,56.1559],[-134.4111,56.1557],[-134.3821,56.1555],[-134.3531,56.1553],[-134.34,56.1353],[-134.327,56.1152],[-134.314,56.0952],[-134.3009,56.0751],[-134.2879,56.0551],[-134.2749,56.035],[-134.2619,56.015],[-134.2489,55.995],[-134.2735,55.9875],[-134.298,55.9801],[-134.3225,55.9726],[-134.347,55.9652],[-134.3715,55.9577],[-134.396,55.9502],[-134.4205,55.9428],[-134.445,55.9353],[-134.4382,55.9055],[-134.4314,55.8756],[-134.4246,55.8458],[-134.4179,55.816],[-134.3998,55.8105],[-134.3818,55.8049],[-134.3637,55.7994],[-134.3457,55.7938],[-134.3277,55.7883],[-134.3097,55.7827],[-134.2916,55.7771],[-134.2736,55.7716],[-134.2583,55.7787],[-134.243,55.7857],[-134.2278,55.7928],[-134.2125,55.7999],[-134.1972,55.8069],[-134.1819,55.814],[-134.1666,55.8211],[-134.1513,55.8281],[-134.136,55.8352],[-134.1207,55.8423],[-134.1053,55.8493],[-134.09,55.8564],[-134.0747,55.8635],[-134.0594,55.8705],[-134.044,55.8776],[-134.0287,55.8846],[-134.0157,55.8963],[-134.0027,55.908],[-133.9897,55.9197],[-133.9766,55.9314],[-133.9636,55.9431],[-133.9506,55.9548],[-133.9375,55.9665],[-133.9245,55.9782],[-133.9114,55.9899],[-133.8984,56.0016],[-133.8853,56.0133],[-133.8722,56.025],[-133.8591,56.0367],[-133.8461,56.0484],[-133.833,56.06],[-133.8199,56.0717],[-133.8102,56.0904],[-133.8005,56.109],[-133.7908,56.1277],[-133.781,56.1464],[-133.7713,56.165],[-133.7616,56.1837],[-133.7518,56.2023],[-133.7421,56.221],[-133.7323,56.2397],[-133.7226,56.2584],[-133.7128,56.277],[-133.703,56.2957],[-133.6932,56.3144],[-133.6834,56.3331],[-133.6737,56.3518],[-133.6639,56.3704],[-133.6418,56.3722],[-133.6198,56.374],[-133.5977,56.3758],[-133.5757,56.3776],[-133.5536,56.3793],[-133.5316,56.3811],[-133.5095,56.3828],[-133.4875,56.3846],[-133.4654,56.3864],[-133.4434,56.3881],[-133.4213,56.3899],[-133.3993,56.3916],[-133.3772,56.3934],[-133.3551,56.3951],[-133.3331,56.3968],[-133.311,56.3986],[-133.2894,56.3972],[-133.2678,56.3958],[-133.2462,56.3944],[-133.2246,56.393],[-133.203,56.3916],[-133.1815,56.3902],[-133.1599,56.3887],[-133.1383,56.3873],[-133.1304,56.3719],[-133.1226,56.3565],[-133.1147,56.3412],[-133.1069,56.3258],[-133.099,56.3104],[-133.0912,56.295],[-133.0833,56.2796],[-133.0755,56.2643],[-133.0677,56.2489],[-133.0599,56.2335],[-133.052,56.2181],[-133.0442,56.2028],[-133.0364,56.1874],[-133.0286,56.172],[-133.0208,56.1567],[-133.013,56.1413],[-132.9974,56.1317],[-132.9817,56.122],[-132.9661,56.1124],[-132.9505,56.1028],[-132.9349,56.0931],[-132.9193,56.0835],[-132.9037,56.0739],[-132.8881,56.0642],[-132.8722,56.0593],[-132.8564,56.0544],[-132.8406,56.0495],[-132.8248,56.0445],[-132.809,56.0396],[-132.7932,56.0347],[-132.7774,56.0298],[-132.7616,56.0248],[-132.7458,56.0199],[-132.73,56.015],[-132.7143,56.0101],[-132.6985,56.0051],[-132.6827,56.0002],[-132.6669,55.9952],[-132.6511,55.9903],[-132.6354,55.9854],[-132.6195,55.973],[-132.6037,55.9606],[-132.5878,55.9482],[-132.572,55.9358],[-132.5562,55.9234],[-132.5404,55.9111],[-132.5246,55.8987],[-132.5087,55.8863],[-132.493,55.8739],[-132.4772,55.8615],[-132.4614,55.8491],[-132.4456,55.8367],[-132.4298,55.8243],[-132.4141,55.812],[-132.3983,55.7996],[-132.3826,55.7872],[-132.3524,55.7934],[-132.3223,55.7996],[-132.2921,55.8058],[-132.262,55.8119],[-132.2442,55.8237],[-132.2264,55.8355],[-132.2086,55.8473],[-132.1908,55.859],[-132.173,55.8708],[-132.1552,55.8826],[-132.1374,55.8944],[-132.1196,55.9061],[-132.1017,55.9179],[-132.0839,55.9297],[-132.066,55.9415],[-132.0482,55.9532],[-132.0303,55.965],[-132.0125,55.9768],[-131.9946,55.9885],[-131.9767,56.0003],[-131.9858,56.03],[-131.995,56.0597],[-132.0042,56.0894],[-132.0134,56.1191],[-131.999,56.1312],[-131.9847,56.1433],[-131.9704,56.1554],[-131.9561,56.1675],[-131.9417,56.1796],[-131.9274,56.1918],[-131.913,56.2039],[-131.8987,56.216],[-131.9115,56.2314],[-131.9243,56.2469],[-131.9372,56.2624],[-131.95,56.2778],[-131.9629,56.2933],[-131.9757,56.3088],[-131.9886,56.3243],[-132.0015,56.3397],[-132.0246,56.3443],[-132.0478,56.3489],[-132.071,56.3535],[-132.0941,56.3581],[-132.1173,56.3627],[-132.1405,56.3673],[-132.1637,56.3719],[-132.1869,56.3765],[-132.1951,56.3872],[-132.2033,56.3979],[-132.2115,56.4087],[-132.2198,56.4194],[-132.228,56.4301],[-132.2363,56.4409],[-132.2445,56.4516],[-132.2527,56.4624],[-132.2733,56.4726],[-132.2939,56.4829],[-132.3145,56.4932],[-132.3351,56.5035],[-132.3557,56.5138],[-132.3764,56.524],[-132.397,56.5343],[-132.4176,56.5446],[-132.4383,56.5548],[-132.4589,56.5651],[-132.4796,56.5754],[-132.5002,56.5856],[-132.5209,56.5959],[-132.5416,56.6061],[-132.5623,56.6164],[-132.583,56.6266],[-132.5979,56.6391],[-132.6128,56.6516],[-132.6277,56.664],[-132.6426,56.6765],[-132.6576,56.6889],[-132.6725,56.7014],[-132.6875,56.7139],[-132.7024,56.7263],[-132.7174,56.7388],[-132.7324,56.7513],[-132.7473,56.7637],[-132.7623,56.7762],[-132.7773,56.7886],[-132.7923,56.8011],[-132.8073,56.8136],[-132.8223,56.826],[-132.8373,56.8385],[-132.8523,56.8509],[-132.8673,56.8634],[-132.8824,56.8759],[-132.8974,56.8883],[-132.9124,56.9008],[-132.9275,56.9132],[-132.9425,56.9257],[-132.9576,56.9382],[-132.9727,56.9506],[-132.9878,56.9631],[-133.0028,56.9755],[-133.0179,56.988],[-133.033,57.0005],[-133.0481,57.0129],[-133.0632,57.0254],[-133.0851,57.0283],[-133.1071,57.0312],[-133.129,57.0342],[-133.1509,57.0371],[-133.1729,57.04],[-133.1948,57.0429],[-133.2167,57.0458],[-133.2387,57.0488],[-133.2606,57.0517],[-133.2826,57.0546],[-133.3045,57.0575],[-133.3264,57.0604],[-133.3484,57.0633],[-133.3704,57.0662],[-133.3923,57.069],[-133.4143,57.0719]]]]},"properties":{"OBJECTID":6,"state":"Alaska","agency":"Alaska Department of Fish & Game","unit_type":"GMU","unit_id":"03Z","unit_label":"Alaska Department of Fish & Game GMU 03Z","aliases":"03z | 3z | 3 z | 03 z | alaska department of fish and game gmu 03z | gmu 03z | game management unit 03z | game unit 03z | management unit 03z | unit 03z | hunt unit 03z | hunting unit 03z | subunit 03z | sub unit 03z | gmu subunit 03z | gmu 3z","year":"2025","Shape_Length":666784.9937865542,"Shape_Area":14428091011.131}},{"type":"Feature","id":7,"geometry":{"type":"Polygon","coordinates":[[[-134.6268,58.2146],[-134.6467,58.2284],[-134.6665,58.2422],[-134.6864,58.2561],[-134.7062,58.2699],[-134.7261,58.2837],[-134.746,58.2975],[-134.7659,58.3113],[-134.7858,58.3251],[-134.8057,58.339],[-134.8256,58.3528],[-134.8455,58.3666],[-134.8655,58.3804],[-134.8854,58.3942],[-134.9054,58.408],[-134.9253,58.4218],[-134.9453,58.4356],[-134.9637,58.4257],[-134.982,58.4158],[-135.0004,58.4059],[-135.0187,58.396],[-135.0129,58.3609],[-135.0072,58.3259],[-135.0014,58.2908],[-134.9956,58.2558],[-134.9898,58.2208],[-134.9841,58.1858],[-134.9783,58.1508],[-134.9726,58.1158],[-134.9894,58.1201],[-135.0063,58.1244],[-135.0231,58.1287],[-135.04,58.133],[-135.0569,58.1373],[-135.0737,58.1416],[-135.0906,58.1459],[-135.1075,58.1502],[-135.1243,58.1544],[-135.1412,58.1587],[-135.1581,58.163],[-135.175,58.1673],[-135.1918,58.1716],[-135.2087,58.1758],[-135.2256,58.1801],[-135.2425,58.1844],[-135.2648,58.1984],[-135.287,58.2123],[-135.3093,58.2263],[-135.3315,58.2403],[-135.3538,58.2543],[-135.3761,58.2683],[-135.3984,58.2823],[-135.4207,58.2962],[-135.448,58.2931],[-135.4753,58.2899],[-135.5026,58.2867],[-135.5299,58.2835],[-135.5572,58.2803],[-135.5844,58.2771],[-135.6117,58.2739],[-135.639,58.2707],[-135.657,58.2768],[-135.675,58.2828],[-135.693,58.2888],[-135.711,58.2949],[-135.729,58.3009],[-135.7471,58.3069],[-135.7651,58.313],[-135.7831,58.319],[-135.8012,58.325],[-135.8192,58.331],[-135.8372,58.3371],[-135.8553,58.3431],[-135.8733,58.3491],[-135.8914,58.3551],[-135.9094,58.3611],[-135.9275,58.3671],[-135.9593,58.3617],[-135.991,58.3563],[-136.0228,58.3509],[-136.0545,58.3455],[-136.0863,58.3401],[-136.118,58.3346],[-136.1497,58.3292],[-136.1814,58.3237],[-136.2132,58.3183],[-136.2449,58.3128],[-136.2766,58.3073],[-136.3083,58.3019],[-136.34,58.2964],[-136.3716,58.2909],[-136.4033,58.2854],[-136.435,58.2799],[-136.4505,58.2645],[-136.466,58.2491],[-136.4814,58.2337],[-136.4969,58.2183],[-136.5124,58.2029],[-136.5278,58.1874],[-136.5432,58.172],[-136.5587,58.1566],[-136.5741,58.1412],[-136.5895,58.1258],[-136.6049,58.1104],[-136.6203,58.095],[-136.6357,58.0796],[-136.6511,58.0642],[-136.6665,58.0488],[-136.6818,58.0334],[-136.677,57.9988],[-136.6723,57.9642],[-136.6675,57.9297],[-136.6628,57.8951],[-136.6472,57.8859],[-136.6317,57.8767],[-136.6162,57.8675],[-136.6007,57.8582],[-136.5852,57.849],[-136.5697,57.8398],[-136.5542,57.8306],[-136.5387,57.8214],[-136.5232,57.8122],[-136.5077,57.8029],[-136.4922,57.7937],[-136.4768,57.7845],[-136.4613,57.7753],[-136.4458,57.7661],[-136.4304,57.7568],[-136.4149,57.7476],[-136.407,57.7258],[-136.399,57.7041],[-136.3911,57.6823],[-136.3831,57.6606],[-136.3752,57.6388],[-136.3672,57.6171],[-136.3593,57.5953],[-136.3514,57.5736],[-136.3255,57.5655],[-136.2997,57.5575],[-136.2739,57.5494],[-136.2481,57.5413],[-136.2223,57.5333],[-136.1965,57.5252],[-136.1708,57.5171],[-136.145,57.509],[-136.1329,57.4997],[-136.1208,57.4904],[-136.1088,57.4811],[-136.0967,57.4718],[-136.0846,57.4625],[-136.0726,57.4532],[-136.0605,57.4439],[-136.0485,57.4346],[-136.0364,57.4253],[-136.0244,57.416],[-136.0124,57.4067],[-136.0003,57.3974],[-135.9883,57.3881],[-135.9763,57.3788],[-135.9642,57.3695],[-135.9522,57.3601],[-135.9496,57.2649],[-135.9469,57.1698],[-135.9443,57.0748],[-135.9417,56.9798],[-135.9145,56.9689],[-135.8874,56.9581],[-135.8603,56.9472],[-135.8331,56.9363],[-135.815,56.9369],[-135.7969,56.9375],[-135.7787,56.9382],[-135.7606,56.9388],[-135.7425,56.9394],[-135.7243,56.94],[-135.7062,56.9406],[-135.6881,56.9412],[-135.6699,56.9418],[-135.6518,56.9424],[-135.6337,56.943],[-135.6155,56.9436],[-135.5974,56.9442],[-135.5792,56.9448],[-135.5611,56.9454],[-135.543,56.946],[-135.5595,56.9399],[-135.5761,56.9338],[-135.5927,56.9276],[-135.6093,56.9215],[-135.6258,56.9154],[-135.6424,56.9093],[-135.659,56.9032],[-135.6755,56.897],[-135.6804,56.8709],[-135.6853,56.8447],[-135.6679,56.833],[-135.6505,56.8212],[-135.633,56.8095],[-135.6156,56.7978],[-135.5982,56.786],[-135.5808,56.7743],[-135.5634,56.7626],[-135.546,56.7509],[-135.5286,56.7391],[-135.5113,56.7274],[-135.4939,56.7157],[-135.4765,56.7039],[-135.4592,56.6922],[-135.4418,56.6805],[-135.4245,56.6687],[-135.4071,56.657],[-135.3884,56.6519],[-135.3697,56.6468],[-135.3509,56.6417],[-135.3322,56.6366],[-135.3135,56.6315],[-135.2948,56.6264],[-135.2761,56.6213],[-135.2573,56.6162],[-135.2463,56.6039],[-135.2353,56.5915],[-135.2243,56.5792],[-135.2134,56.5669],[-135.2024,56.5545],[-135.1914,56.5422],[-135.1804,56.5299],[-135.1694,56.5175],[-135.1585,56.5052],[-135.1475,56.4929],[-135.1366,56.4806],[-135.1256,56.4682],[-135.1147,56.4559],[-135.1037,56.4436],[-135.0928,56.4313],[-135.0818,56.4189],[-135.0709,56.4066],[-135.06,56.3943],[-135.0491,56.382],[-135.0382,56.3696],[-135.0272,56.3573],[-135.0163,56.345],[-135.0054,56.3327],[-134.9945,56.3203],[-134.9836,56.308],[-134.9727,56.2957],[-134.9619,56.2834],[-134.951,56.2711],[-134.9401,56.2588],[-134.9292,56.2464],[-134.9184,56.2341],[-134.9075,56.2218],[-134.8915,56.2148],[-134.8755,56.2078],[-134.8595,56.2008],[-134.8435,56.1938],[-134.8275,56.1868],[-134.8115,56.1798],[-134.7955,56.1728],[-134.7795,56.1657],[-134.7635,56.1587],[-134.7476,56.1517],[-134.7316,56.1447],[-134.7156,56.1377],[-134.6997,56.1307],[-134.6837,56.1237],[-134.6677,56.1166],[-134.6518,56.1096],[-134.629,56.1154],[-134.6062,56.1212],[-134.5833,56.1271],[-134.5605,56.1329],[-134.5377,56.1387],[-134.5149,56.1445],[-134.492,56.1503],[-134.4692,56.1561],[-134.4746,56.2025],[-134.48,56.249],[-134.4854,56.2955],[-134.4909,56.342],[-134.4963,56.3886],[-134.5018,56.4351],[-134.5072,56.4817],[-134.5127,56.5283],[-134.5182,56.5749],[-134.5237,56.6216],[-134.5292,56.6682],[-134.5347,56.7149],[-134.5402,56.7616],[-134.5457,56.8083],[-134.5512,56.8551],[-134.5568,56.9019],[-134.5383,56.9107],[-134.5198,56.9195],[-134.5014,56.9284],[-134.4829,56.9372],[-134.4644,56.946],[-134.4459,56.9549],[-134.4275,56.9637],[-134.409,56.9725],[-134.3905,56.9813],[-134.372,56.9902],[-134.3535,56.999],[-134.3349,57.0078],[-134.3164,57.0166],[-134.2979,57.0255],[-134.2794,57.0343],[-134.2608,57.0431],[-134.2423,57.0519],[-134.2237,57.0607],[-134.2052,57.0695],[-134.1866,57.0783],[-134.1681,57.0871],[-134.1495,57.096],[-134.1309,57.1048],[-134.1123,57.1136],[-134.0938,57.1224],[-134.0752,57.1312],[-134.0566,57.14],[-134.038,57.1488],[-134.0194,57.1576],[-134.0007,57.1664],[-133.9821,57.1751],[-133.9635,57.1839],[-133.9338,57.1841],[-133.904,57.1842],[-133.8743,57.1843],[-133.8446,57.1844],[-133.8149,57.1846],[-133.7851,57.1847],[-133.7554,57.1848],[-133.7257,57.1848],[-133.7235,57.253],[-133.7213,57.3211],[-133.7191,57.3893],[-133.7169,57.4576],[-133.7213,57.4775],[-133.7257,57.4975],[-133.7301,57.5174],[-133.7346,57.5373],[-133.739,57.5573],[-133.7434,57.5773],[-133.7479,57.5972],[-133.7523,57.6172],[-133.7567,57.6371],[-133.7612,57.6571],[-133.7656,57.6771],[-133.7701,57.6971],[-133.7745,57.7171],[-133.779,57.737],[-133.7834,57.757],[-133.7879,57.777],[-133.7988,57.7893],[-133.8097,57.8015],[-133.8205,57.8137],[-133.8314,57.826],[-133.8423,57.8382],[-133.8532,57.8504],[-133.8641,57.8627],[-133.875,57.8749],[-133.8859,57.8871],[-133.8968,57.8994],[-133.9077,57.9116],[-133.9187,57.9238],[-133.9296,57.9361],[-133.9405,57.9483],[-133.9514,57.9606],[-133.9624,57.9728],[-133.9733,57.985],[-133.9843,57.9973],[-133.9952,58.0095],[-134.0062,58.0218],[-134.0171,58.034],[-134.0281,58.0463],[-134.0391,58.0585],[-134.0501,58.0708],[-134.061,58.083],[-134.072,58.0953],[-134.083,58.1075],[-134.094,58.1198],[-134.105,58.132],[-134.116,58.1443],[-134.127,58.1565],[-134.138,58.1688],[-134.1685,58.1717],[-134.1991,58.1746],[-134.2296,58.1775],[-134.2602,58.1804],[-134.2907,58.1833],[-134.3212,58.1861],[-134.3518,58.189],[-134.3823,58.1919],[-134.4129,58.1947],[-134.4434,58.1976],[-134.474,58.2004],[-134.5046,58.2033],[-134.5351,58.2061],[-134.5657,58.209],[-134.5963,58.2118],[-134.6268,58.2146]]]},"properties":{"OBJECTID":7,"state":"Alaska","agency":"Alaska Department of Fish & Game","unit_type":"GMU","unit_id":"04Z","unit_label":"Alaska Department of Fish & Game GMU 04Z","aliases":"04z | 4z | 4 z | 04 z | alaska department of fish and game gmu 04z | gmu 04z | game management unit 04z | game unit 04z | management unit 04z | unit 04z | hunt unit 04z | hunting unit 04z | subunit 04z | sub unit 04z | gmu subunit 04z | gmu 4z","year":"2025","Shape_Length":769900.667927317,"Shape_Area":24835428261.328804}},{"type":"Feature","id":8,"geometry":{"type":"Polygon","coordinates":[[[-138.866,59.9429],[-138.8895,59.9493],[-138.9131,59.9557],[-138.9366,59.9621],[-138.9602,59.9685],[-138.9837,59.9749],[-139.0073,59.9812],[-139.0308,59.9876],[-139.0544,59.994],[-139.0672,60.0024],[-139.0799,60.0109],[-139.0927,60.0193],[-139.1055,60.0278],[-139.1183,60.0362],[-139.131,60.0447],[-139.1438,60.0531],[-139.1566,60.0616],[-139.1694,60.07],[-139.1822,60.0784],[-139.195,60.0869],[-139.2078,60.0953],[-139.2206,60.1038],[-139.2334,60.1122],[-139.2462,60.1207],[-139.2591,60.1291],[-139.2722,60.1142],[-139.2853,60.0993],[-139.2984,60.0844],[-139.3115,60.0695],[-139.3246,60.0546],[-139.3376,60.0397],[-139.3507,60.0248],[-139.3638,60.0099],[-139.3871,60.008],[-139.4104,60.0062],[-139.4337,60.0043],[-139.457,60.0024],[-139.4803,60.0005],[-139.5036,59.9986],[-139.5269,59.9967],[-139.5502,59.9948],[-139.5664,59.9837],[-139.5826,59.9725],[-139.5988,59.9613],[-139.615,59.9502],[-139.6312,59.939],[-139.6474,59.9279],[-139.6635,59.9167],[-139.6797,59.9056],[-139.6882,59.8849],[-139.6966,59.8643],[-139.7051,59.8436],[-139.7135,59.823],[-139.722,59.8024],[-139.7304,59.7818],[-139.7389,59.7611],[-139.7473,59.7405],[-139.7743,59.7307],[-139.8013,59.721],[-139.8283,59.7112],[-139.8552,59.7014],[-139.8822,59.6916],[-139.9091,59.6818],[-139.9361,59.6719],[-139.963,59.6621],[-139.9899,59.6523],[-140.0169,59.6425],[-140.0438,59.6327],[-140.0707,59.6228],[-140.0976,59.613],[-140.1244,59.6032],[-140.1513,59.5933],[-140.1782,59.5835],[-140.1546,59.5758],[-140.1311,59.5681],[-140.1075,59.5605],[-140.084,59.5528],[-140.0605,59.5451],[-140.0369,59.5374],[-140.0134,59.5297],[-139.9899,59.522],[-139.9664,59.5143],[-139.9429,59.5066],[-139.9194,59.4989],[-139.8959,59.4911],[-139.8725,59.4834],[-139.849,59.4757],[-139.8255,59.468],[-139.802,59.4603],[-139.7786,59.4525],[-139.7551,59.4448],[-139.7317,59.4371],[-139.7083,59.4293],[-139.6848,59.4216],[-139.6614,59.4139],[-139.638,59.4061],[-139.6146,59.3984],[-139.5912,59.3906],[-139.5678,59.3829],[-139.5444,59.3751],[-139.521,59.3674],[-139.4976,59.3596],[-139.4742,59.3518],[-139.4509,59.3441],[-139.4275,59.3363],[-139.4042,59.3285],[-139.3808,59.3208],[-139.3575,59.313],[-139.3341,59.3052],[-139.3108,59.2974],[-139.2875,59.2896],[-139.2642,59.2818],[-139.2408,59.274],[-139.2175,59.2663],[-139.1942,59.2585],[-139.171,59.2507],[-139.1477,59.2429],[-139.1244,59.2351],[-139.1011,59.2272],[-139.0778,59.2194],[-139.0546,59.2116],[-139.0313,59.2038],[-139.0081,59.196],[-138.9848,59.1882],[-138.9616,59.1803],[-138.9384,59.1725],[-138.9151,59.1647],[-138.8919,59.1568],[-138.8687,59.149],[-138.8455,59.1412],[-138.8223,59.1333],[-138.7991,59.1255],[-138.7759,59.1176],[-138.7527,59.1098],[-138.7296,59.1019],[-138.7064,59.0941],[-138.6832,59.0862],[-138.6586,59.0808],[-138.634,59.0753],[-138.6094,59.0698],[-138.5849,59.0644],[-138.5603,59.0589],[-138.5357,59.0534],[-138.5111,59.0479],[-138.4866,59.0425],[-138.462,59.037],[-138.4375,59.0315],[-138.4129,59.026],[-138.3884,59.0205],[-138.3638,59.015],[-138.3393,59.0095],[-138.3148,59.004],[-138.2902,58.9985],[-138.2742,58.9899],[-138.2581,58.9814],[-138.2421,58.9729],[-138.2261,58.9643],[-138.21,58.9558],[-138.194,58.9473],[-138.178,58.9387],[-138.162,58.9302],[-138.146,58.9217],[-138.13,58.9131],[-138.114,58.9046],[-138.098,58.896],[-138.082,58.8875],[-138.066,58.8789],[-138.05,58.8704],[-138.034,58.8619],[-138.0394,58.8048],[-138.0211,58.8063],[-138.0028,58.8078],[-137.9845,58.8094],[-137.9662,58.8109],[-137.9479,58.8125],[-137.9296,58.814],[-137.9113,58.8155],[-137.893,58.817],[-137.8746,58.8186],[-137.8563,58.8201],[-137.838,58.8216],[-137.8197,58.8231],[-137.8014,58.8247],[-137.7831,58.8262],[-137.7648,58.8277],[-137.7465,58.8292],[-137.7281,58.8307],[-137.7098,58.8322],[-137.6915,58.8337],[-137.6732,58.8352],[-137.6549,58.8367],[-137.6365,58.8382],[-137.6182,58.8397],[-137.5999,58.8412],[-137.5816,58.8427],[-137.5632,58.8442],[-137.5449,58.8457],[-137.5266,58.8472],[-137.5083,58.8487],[-137.4899,58.8501],[-137.4716,58.8516],[-137.4533,58.8531],[-137.4524,58.9076],[-137.471,58.9071],[-137.4896,58.9066],[-137.5081,58.9062],[-137.5267,58.9057],[-137.5318,58.9268],[-137.5368,58.9478],[-137.5419,58.9689],[-137.5469,58.99],[-137.552,59.0111],[-137.5571,59.0322],[-137.5621,59.0533],[-137.5672,59.0745],[-137.5723,59.0956],[-137.5774,59.1167],[-137.5825,59.1378],[-137.5876,59.159],[-137.5927,59.1801],[-137.5978,59.2013],[-137.6029,59.2224],[-137.608,59.2436],[-137.6237,59.2518],[-137.6395,59.26],[-137.6553,59.2683],[-137.6711,59.2765],[-137.6869,59.2847],[-137.7026,59.2929],[-137.7184,59.3012],[-137.7342,59.3094],[-137.75,59.3176],[-137.7659,59.3258],[-137.7817,59.334],[-137.7975,59.3423],[-137.8133,59.3505],[-137.8291,59.3587],[-137.845,59.3669],[-137.8608,59.3751],[-137.8766,59.3833],[-137.8925,59.3915],[-137.9083,59.3998],[-137.9242,59.408],[-137.94,59.4162],[-137.9559,59.4244],[-137.9718,59.4326],[-137.9876,59.4408],[-138.0035,59.449],[-138.0194,59.4572],[-138.0353,59.4654],[-138.0512,59.4736],[-138.0671,59.4818],[-138.083,59.49],[-138.0989,59.4982],[-138.1148,59.5064],[-138.1307,59.5146],[-138.1466,59.5228],[-138.1625,59.531],[-138.1784,59.5392],[-138.1944,59.5474],[-138.2103,59.5556],[-138.2262,59.5638],[-138.2422,59.572],[-138.2581,59.5802],[-138.2741,59.5884],[-138.29,59.5966],[-138.306,59.6048],[-138.322,59.613],[-138.3379,59.6212],[-138.3539,59.6294],[-138.3699,59.6375],[-138.3859,59.6457],[-138.4019,59.6539],[-138.4178,59.6621],[-138.4338,59.6703],[-138.4498,59.6785],[-138.4658,59.6867],[-138.4819,59.6948],[-138.4979,59.703],[-138.5139,59.7112],[-138.5299,59.7194],[-138.5459,59.7276],[-138.562,59.7357],[-138.578,59.7439],[-138.594,59.7521],[-138.6101,59.7603],[-138.6261,59.7685],[-138.6362,59.7856],[-138.6462,59.8028],[-138.6562,59.8199],[-138.6663,59.8371],[-138.6763,59.8543],[-138.6864,59.8715],[-138.6964,59.8887],[-138.7065,59.9058],[-138.7264,59.9105],[-138.7463,59.9151],[-138.7663,59.9198],[-138.7862,59.9244],[-138.8062,59.929],[-138.8261,59.9337],[-138.8461,59.9383],[-138.866,59.9429]]]},"properties":{"OBJECTID":8,"state":"Alaska","agency":"Alaska Department of Fish & Game","unit_type":"GMU","unit_id":"05A","unit_label":"Alaska Department of Fish & Game GMU 05A","aliases":"05a | 5a | 5 a | 05 a | alaska department of fish and game gmu 05a | gmu 05a | game management unit 05a | game unit 05a | management unit 05a | unit 05a | hunt unit 05a | hunting unit 05a | subunit 05a | sub unit 05a | gmu subunit 05a | gmu 5a","year":"2025","Shape_Length":466768.64362209244,"Shape_Area":9418087915.477459}},{"type":"Feature","id":9,"geometry":{"type":"Polygon","coordinates":[[[-141.0618,60.6503],[-141.0796,60.6484],[-141.0974,60.6465],[-141.1153,60.6446],[-141.1331,60.6426],[-141.1509,60.6407],[-141.1688,60.6388],[-141.1866,60.6369],[-141.2044,60.635],[-141.2223,60.6331],[-141.2401,60.6311],[-141.2579,60.6292],[-141.2757,60.6273],[-141.2935,60.6253],[-141.3114,60.6234],[-141.3292,60.6215],[-141.347,60.6195],[-141.3626,60.5976],[-141.3781,60.5757],[-141.3936,60.5537],[-141.4092,60.5318],[-141.438,60.54],[-141.4669,60.5483],[-141.4958,60.5565],[-141.5247,60.5648],[-141.5387,60.5575],[-141.5526,60.5502],[-141.5666,60.543],[-141.5805,60.5357],[-141.5945,60.5285],[-141.6084,60.5212],[-141.6224,60.514],[-141.6363,60.5067],[-141.6612,60.5089],[-141.6861,60.5111],[-141.7109,60.5133],[-141.7358,60.5155],[-141.7607,60.5177],[-141.7856,60.5199],[-141.8105,60.522],[-141.8354,60.5242],[-141.8527,60.5077],[-141.8699,60.4911],[-141.8872,60.4745],[-141.9044,60.458],[-141.9216,60.4414],[-141.9388,60.4249],[-141.956,60.4083],[-141.9732,60.3918],[-141.9577,60.3825],[-141.9422,60.3731],[-141.9268,60.3638],[-141.9113,60.3545],[-141.8958,60.3452],[-141.8803,60.3358],[-141.8649,60.3265],[-141.8494,60.3172],[-141.8319,60.3145],[-141.8145,60.3119],[-141.7971,60.3092],[-141.7796,60.3065],[-141.7622,60.3039],[-141.7447,60.3012],[-141.7273,60.2985],[-141.7099,60.2959],[-141.6924,60.2932],[-141.675,60.2905],[-141.6576,60.2879],[-141.6401,60.2852],[-141.6227,60.2825],[-141.6053,60.2798],[-141.5879,60.2771],[-141.5704,60.2744],[-141.5787,60.2363],[-141.5869,60.1982],[-141.5709,60.1875],[-141.5548,60.1769],[-141.5387,60.1662],[-141.5227,60.1556],[-141.5066,60.1449],[-141.4906,60.1343],[-141.4745,60.1237],[-141.4585,60.113],[-141.4425,60.1024],[-141.4264,60.0917],[-141.4104,60.0811],[-141.3944,60.0704],[-141.3784,60.0598],[-141.3624,60.0492],[-141.3464,60.0385],[-141.3304,60.0279],[-141.349,60.0186],[-141.3676,60.0094],[-141.3862,60.0001],[-141.4048,59.9909],[-141.4234,59.9816],[-141.442,59.9724],[-141.4606,59.9631],[-141.4791,59.9539],[-141.4977,59.9446],[-141.5162,59.9354],[-141.5348,59.9261],[-141.5533,59.9169],[-141.5719,59.9076],[-141.5904,59.8984],[-141.6089,59.8891],[-141.6275,59.8798],[-141.6093,59.8722],[-141.5911,59.8645],[-141.5729,59.8569],[-141.5547,59.8492],[-141.5365,59.8416],[-141.5184,59.8339],[-141.5002,59.8263],[-141.4821,59.8186],[-141.4652,59.8146],[-141.4484,59.8106],[-141.4315,59.8066],[-141.4147,59.8025],[-141.3978,59.7985],[-141.381,59.7945],[-141.3641,59.7904],[-141.3473,59.7864],[-141.3304,59.7823],[-141.3136,59.7783],[-141.2968,59.7743],[-141.2799,59.7702],[-141.2631,59.7662],[-141.2463,59.7621],[-141.2295,59.7581],[-141.2127,59.754],[-141.1958,59.75],[-141.179,59.7459],[-141.1622,59.7419],[-141.1454,59.7378],[-141.1286,59.7338],[-141.1118,59.7297],[-141.095,59.7256],[-141.0782,59.7216],[-141.0614,59.7175],[-141.0446,59.7135],[-141.0278,59.7094],[-141.011,59.7053],[-140.9942,59.7012],[-140.9774,59.6972],[-140.9606,59.6931],[-140.9438,59.689],[-140.9262,59.6879],[-140.9085,59.6867],[-140.8909,59.6856],[-140.8732,59.6844],[-140.8556,59.6832],[-140.8379,59.6821],[-140.8203,59.6809],[-140.8027,59.6798],[-140.785,59.6786],[-140.7674,59.6774],[-140.7497,59.6762],[-140.7321,59.6751],[-140.7144,59.6739],[-140.6968,59.6727],[-140.6792,59.6715],[-140.6615,59.6704],[-140.6439,59.6692],[-140.6262,59.668],[-140.6086,59.6668],[-140.591,59.6656],[-140.5733,59.6644],[-140.5557,59.6632],[-140.538,59.662],[-140.5204,59.6608],[-140.5028,59.6596],[-140.4851,59.6584],[-140.4675,59.6572],[-140.4499,59.656],[-140.4322,59.6548],[-140.4146,59.6536],[-140.397,59.6524],[-140.3794,59.6512],[-140.3542,59.6427],[-140.329,59.6343],[-140.3039,59.6258],[-140.2787,59.6174],[-140.2536,59.6089],[-140.2284,59.6004],[-140.2033,59.592],[-140.1782,59.5835],[-140.1524,59.5927],[-140.1266,59.6019],[-140.1009,59.6111],[-140.0751,59.6204],[-140.0493,59.6296],[-140.0235,59.6388],[-139.9977,59.648],[-139.9719,59.6571],[-139.9461,59.6663],[-139.9203,59.6755],[-139.8944,59.6847],[-139.8686,59.6939],[-139.8427,59.7031],[-139.8169,59.7122],[-139.791,59.7214],[-139.7651,59.7306],[-139.7527,59.7466],[-139.7403,59.7627],[-139.7279,59.7787],[-139.7154,59.7948],[-139.703,59.8108],[-139.6905,59.8269],[-139.6781,59.8429],[-139.6656,59.859],[-139.6531,59.875],[-139.6407,59.8911],[-139.6282,59.9072],[-139.6157,59.9232],[-139.6032,59.9393],[-139.5907,59.9554],[-139.5782,59.9714],[-139.5657,59.9875],[-139.5404,59.9903],[-139.5152,59.9931],[-139.49,59.9959],[-139.4647,59.9987],[-139.4395,60.0015],[-139.4143,60.0043],[-139.389,60.0071],[-139.3638,60.0099],[-139.3522,60.0242],[-139.3407,60.0384],[-139.3292,60.0527],[-139.3176,60.067],[-139.3061,60.0812],[-139.2946,60.0955],[-139.283,60.1098],[-139.2714,60.1241],[-139.2495,60.122],[-139.2276,60.1199],[-139.2057,60.1179],[-139.1837,60.1158],[-139.177,60.1305],[-139.1703,60.1452],[-139.1636,60.1599],[-139.1568,60.1747],[-139.1501,60.1894],[-139.1433,60.2041],[-139.1366,60.2189],[-139.1299,60.2336],[-139.1231,60.2483],[-139.1164,60.2631],[-139.1096,60.2778],[-139.1028,60.2926],[-139.0961,60.3073],[-139.0893,60.3221],[-139.0825,60.3368],[-139.0758,60.3516],[-139.0951,60.3511],[-139.1144,60.3506],[-139.1337,60.3501],[-139.1531,60.3497],[-139.1724,60.3492],[-139.1917,60.3487],[-139.211,60.3482],[-139.2303,60.3477],[-139.2497,60.3472],[-139.269,60.3467],[-139.2883,60.3462],[-139.3076,60.3456],[-139.3269,60.3451],[-139.3462,60.3446],[-139.3656,60.3441],[-139.3849,60.3436],[-139.4042,60.3431],[-139.4235,60.3425],[-139.4428,60.342],[-139.4621,60.3415],[-139.4815,60.3409],[-139.5008,60.3404],[-139.5201,60.3399],[-139.5394,60.3393],[-139.5587,60.3388],[-139.578,60.3382],[-139.5973,60.3377],[-139.6167,60.3371],[-139.636,60.3366],[-139.6553,60.336],[-139.6746,60.3355],[-139.6939,60.3349],[-139.7119,60.3253],[-139.73,60.3157],[-139.748,60.3061],[-139.766,60.2965],[-139.784,60.2869],[-139.802,60.2772],[-139.82,60.2676],[-139.8379,60.258],[-139.8559,60.2484],[-139.8739,60.2388],[-139.8919,60.2291],[-139.9098,60.2195],[-139.9278,60.2099],[-139.9457,60.2003],[-139.9637,60.1906],[-139.9816,60.181],[-140.0113,60.1889],[-140.0411,60.1968],[-140.0708,60.2047],[-140.1006,60.2126],[-140.1304,60.2205],[-140.1601,60.2284],[-140.1899,60.2362],[-140.2197,60.2441],[-140.2495,60.252],[-140.2793,60.2598],[-140.3091,60.2677],[-140.339,60.2755],[-140.3688,60.2834],[-140.3986,60.2912],[-140.4285,60.299],[-140.4583,60.3069],[-140.474,60.2848],[-140.4896,60.2627],[-140.5052,60.2407],[-140.5208,60.2186],[-140.5508,60.2241],[-140.5809,60.2295],[-140.611,60.235],[-140.6411,60.2405],[-140.6711,60.2459],[-140.7012,60.2513],[-140.7313,60.2568],[-140.7614,60.2622],[-140.7915,60.2676],[-140.8216,60.273],[-140.8518,60.2785],[-140.8819,60.2839],[-140.912,60.2893],[-140.9422,60.2947],[-140.9723,60.3],[-141.0024,60.3054],[-141.002,60.6508],[-141.0319,60.6506],[-141.0618,60.6503]]]},"properties":{"OBJECTID":9,"state":"Alaska","agency":"Alaska Department of Fish & Game","unit_type":"GMU","unit_id":"05B","unit_label":"Alaska Department of Fish & Game GMU 05B","aliases":"05b | 5b | 5 b | 05 b | alaska department of fish and game gmu 05b | gmu 05b | game management unit 05b | game unit 05b | management unit 05b | unit 05b | hunt unit 05b | hunting unit 05b | subunit 05b | sub unit 05b | gmu subunit 05b | gmu 5b","year":"2025","Shape_Length":537489.1864981255,"Shape_Area":9118094989.895582}}]}